,zipcode,type,commoncity,county,areacode
0,90001,Standard,"Los Angeles, Firestone Park, Firestone Pk",Los Angeles County,Area Code 323
1,90002,Standard,"Los Angeles, Watts",Los Angeles County,Area Code 323Area Code 562
2,90003,Standard,Los Angeles,Los Angeles County,Area Code 323
3,90004,Standard,"Los Angeles, Oakwood",Los Angeles County,Area Code 323
4,90005,Standard,"Los Angeles, Sanford",Los Angeles County,Area Code 213Area Code 310Area Code 323Area Code 562Area Code 626Area Code 818
5,90006,Standard,Los Angeles,Los Angeles County,Area Code 213Area Code 323
6,90007,Standard,"Los Angeles, Dockweiler",Los Angeles County,Area Code 213Area Code 323
7,90008,Standard,"Los Angeles, Baldwin Hills, Leimert Park, View Park",Los Angeles County,Area Code 323
8,90009,PO Box,"Los Angeles, Los Angeles AFB, Los Angls AFB",Los Angeles County,Area Code 213
9,90010,Standard,Los Angeles,Los Angeles County,Area Code 213Area Code 310Area Code 562Area Code 626Area Code 818Area Code 323
10,90011,Standard,Los Angeles,Los Angeles County,Area Code 323
11,90012,Standard,Los Angeles,Los Angeles County,Area Code 818Area Code 323
12,90013,Standard,Los Angeles,Los Angeles County,Area Code 213Area Code 310Area Code 323Area Code 424Area Code 562Area Code 626Area Code 747Area Code 818
13,90014,Standard,Los Angeles,Los Angeles County,Area Code 213Area Code 323Area Code 562Area Code 626Area Code 818Area Code 310Area Code 424Area Code 747
14,90015,Standard,Los Angeles,Los Angeles County,Area Code 310Area Code 323Area Code 424Area Code 562Area Code 626Area Code 818Area Code 213
15,90016,Standard,Los Angeles,Los Angeles County,Area Code 213
16,90017,Standard,Los Angeles,Los Angeles County,Area Code 310Area Code 818Area Code 213Area Code 323Area Code 424Area Code 562Area Code 626
17,90018,Standard,Los Angeles,Los Angeles County,Area Code 213Area Code 323
18,90019,Standard,Los Angeles,Los Angeles County,Area Code 323
19,90020,Standard,Los Angeles,Los Angeles County,Area Code 213Area Code 310Area Code 323Area Code 562Area Code 626Area Code 818
20,90021,Standard,Los Angeles,Los Angeles County,Area Code 213
21,90022,Standard,"Los Angeles, Commerce, E Los Angeles, East Los Angele...",Los Angeles County,Area Code 562Area Code 323
22,90023,Standard,"Los Angeles, Commerce",Los Angeles County,Area Code 323
23,90024,Standard,Los Angeles,Los Angeles County,Area Code 323Area Code 818Area Code 310
24,90025,Standard,"Los Angeles, W Los Angeles, West Los Angeles",Los Angeles County,Area Code 310Area Code 424Area Code 818
25,90026,Standard,Los Angeles,Los Angeles County,Area Code 213
26,90027,Standard,Los Angeles,Los Angeles County,Area Code 323Area Code 818
27,90028,Standard,"Los Angeles, Hollywood",Los Angeles County,Area Code 818Area Code 323
28,90029,Standard,Los Angeles,Los Angeles County,Area Code 323
29,90030,PO Box,Los Angeles,Los Angeles County,Area Code 213
30,90031,Standard,"Los Angeles, Lincoln Heights, Lincoln Hts",Los Angeles County,Area Code 323
31,90032,Standard,Los Angeles,Los Angeles County,Area Code 626
32,90033,Standard,Los Angeles,Los Angeles County,Area Code 323
33,90034,Standard,Los Angeles,Los Angeles County,Area Code 310Area Code 424
34,90035,Standard,Los Angeles,Los Angeles County,Area Code 310Area Code 424
35,90036,Standard,Los Angeles,Los Angeles County,Area Code 323
36,90037,Standard,Los Angeles,Los Angeles County,Area Code 213Area Code 323Area Code 310Area Code 424
37,90038,Standard,"Los Angeles, W Hollywood, West Hollywood",Los Angeles County,Area Code 323Area Code 818
38,90039,Standard,Los Angeles,Los Angeles County,Area Code 213
39,90040,Standard,"Los Angeles, Commerce, Cty Of Cmmrce",Los Angeles County,Area Code 323Area Code 562
40,90041,Standard,"Los Angeles, Eagle Rock",Los Angeles County,Area Code 323Area Code 626
41,90042,Standard,"Los Angeles, Highland Park",Los Angeles County,Area Code 323Area Code 626
42,90043,Standard,"Los Angeles, View Park, Windsor Hills",Los Angeles County,Area Code 323
43,90044,Standard,Los Angeles,Los Angeles County,Area Code 213Area Code 310Area Code 323
44,90045,Standard,"Los Angeles, Westchester",Los Angeles County,Area Code 323
45,90046,Standard,"Los Angeles, W Hollywood, West Hollywood",Los Angeles County,Area Code 323
46,90047,Standard,Los Angeles,Los Angeles County,Area Code 323
47,90048,Standard,"Los Angeles, W Hollywood, West Hollywood",Los Angeles County,Area Code 310Area Code 323
48,90049,Standard,Los Angeles,Los Angeles County,Area Code 310Area Code 818
49,90050,PO Box,Los Angeles,Los Angeles County,Area Code 213
50,90051,PO Box,Los Angeles,Los Angeles County,Area Code 213
51,90052,PO Box,Los Angeles,Los Angeles County,Area Code 213
52,90053,PO Box,Los Angeles,Los Angeles County,Area Code 213
53,90054,PO Box,Los Angeles,Los Angeles County,Area Code 213
54,90055,PO Box,Los Angeles,Los Angeles County,Area Code 213
55,90056,Standard,"Los Angeles, Baldwin Hills, Windsor Hills",Los Angeles County,Area Code 323
56,90057,Standard,Los Angeles,Los Angeles County,Area Code 213
57,90058,Standard,"Los Angeles, Vernon",Los Angeles County,Area Code 323
58,90059,Standard,Los Angeles,Los Angeles County,Area Code 213Area Code 310
59,90060,PO Box,Los Angeles,Los Angeles County,Area Code 213
60,90061,Standard,Los Angeles,Los Angeles County,Area Code 323Area Code 213Area Code 310
61,90062,Standard,Los Angeles,Los Angeles County,Area Code 323
62,90063,Standard,"Los Angeles, Hazard",Los Angeles County,Area Code 323
63,90064,Standard,"Los Angeles, Rancho Park",Los Angeles County,Area Code 310Area Code 818
64,90065,Standard,"Los Angeles, Glassell, Glassell Park",Los Angeles County,Area Code 323
65,90066,Standard,Los Angeles,Los Angeles County,Area Code 310Area Code 424
66,90067,Standard,"Los Angeles, Century City",Los Angeles County,Area Code 310Area Code 323
67,90068,Standard,"Los Angeles, Hollywood",Los Angeles County,Area Code 323
68,90069,Standard,"West Hollywood, Los Angeles, W Hollywood",Los Angeles County,Area Code 323Area Code 818
69,90070,PO Box,Los Angeles,Los Angeles County,Area Code 213
70,90071,Standard,Los Angeles,Los Angeles County,Area Code 213Area Code 310Area Code 562Area Code 626Area Code 424Area Code 747Area Code 323Area Code 818
71,90072,PO Box,Los Angeles,Los Angeles County,Area Code 213
72,90073,PO Box,"Los Angeles, Veterans Adm, Veterans Admin, Veterans A...",Los Angeles County,Area Code 213
73,90074,Unique,Los Angeles,Los Angeles County,Area Code 213
74,90075,PO Box,Los Angeles,Los Angeles County,Area Code 213
75,90076,PO Box,Los Angeles,Los Angeles County,Area Code 213
76,90077,Standard,Los Angeles,Los Angeles County,Area Code 310Area Code 818
77,90078,PO Box,"Los Angeles, Hollywood",Los Angeles County,Area Code 213
78,90079,Standard,Los Angeles,Los Angeles County,Area Code 213Area Code 323Area Code 424Area Code 626Area Code 747Area Code 818
79,90080,PO Box,Los Angeles,Los Angeles County,Area Code 213
80,90081,PO Box,Los Angeles,Los Angeles County,Area Code 213
81,90082,PO Box,Los Angeles,Los Angeles County,Area Code 213
82,90083,PO Box,Los Angeles,Los Angeles County,Area Code 213
83,90084,Unique,Los Angeles,Los Angeles County,Area Code 213
84,90086,PO Box,Los Angeles,Los Angeles County,Area Code 213
85,90087,PO Box,Los Angeles,Los Angeles County,Area Code 213
86,90088,Unique,Los Angeles,Los Angeles County,Area Code 213
87,90089,Unique,Los Angeles,Los Angeles County,Area Code 213
88,90090,Unique,"Dodgertown, Los Angeles",Los Angeles County,Area Code 213
89,90091,PO Box,"Los Angeles, Commerce, Cty Of Cmmrce",Los Angeles County,Area Code 213
90,90093,PO Box,Los Angeles,Los Angeles County,Area Code 213
91,90094,Standard,"Playa Vista, Los Angeles",Los Angeles County,Area Code 323
92,90095,Unique,Los Angeles,Los Angeles County,Area Code 213
93,90096,Unique,Los Angeles,Los Angeles County,Area Code 213
94,90099,Unique,Los Angeles,Los Angeles County,Area Code 213
95,90101,Standard,Los Angeles,Los Angeles County,Area Code 213
96,90102,Unique,"Los Angeles, Brylane",Los Angeles County,Area Code 213
97,90103,Unique,Los Angeles,Los Angeles County,Area Code 213
98,90134,Standard,Los Angeles,Los Angeles County,
99,90189,Unique,Los Angeles,Los Angeles County,Area Code 213
100,90201,Standard,"Bell Gardens, Bell, Cudahy",Los Angeles County,Area Code 323
101,90202,PO Box,"Bell, Bell Gardens",Los Angeles County,Area Code 323
102,90209,PO Box,Beverly Hills,Los Angeles County,Area Code 310
103,90210,Standard,Beverly Hills,Los Angeles County,Area Code 310Area Code 323Area Code 424
104,90211,Standard,Beverly Hills,Los Angeles County,Area Code 310Area Code 323Area Code 424
105,90212,Standard,Beverly Hills,Los Angeles County,Area Code 323Area Code 424Area Code 310
106,90213,PO Box,Beverly Hills,Los Angeles County,Area Code 310
107,90220,Standard,"Compton, Crystal City, Rancho Dominguez, Rncho Do...",Los Angeles County,Area Code 310Area Code 323Area Code 562Area Code 424
108,90221,Standard,"Compton, E Rncho Dmngz, East Rancho Dominguez",Los Angeles County,Area Code 310Area Code 323Area Code 424Area Code 562
109,90222,Standard,"Compton, Rosewood",Los Angeles County,Area Code 424Area Code 310Area Code 323Area Code 562
110,90223,PO Box,Compton,Los Angeles County,Area Code 310
111,90224,PO Box,"Compton, Rancho Dominguez, Rncho Domingz",Los Angeles County,Area Code 310
112,90230,Standard,"Culver City, Los Angeles",Los Angeles County,Area Code 310Area Code 323Area Code 424
113,90231,PO Box,Culver City,Los Angeles County,Area Code 310
114,90232,Standard,Culver City,Los Angeles County,Area Code 310Area Code 323Area Code 424
115,90233,PO Box,Culver City,Los Angeles County,Area Code 310
116,90239,PO Box,Downey,Los Angeles County,Area Code 562
117,90240,Standard,Downey,Los Angeles County,Area Code 562
118,90241,Standard,Downey,Los Angeles County,Area Code 562
119,90242,Standard,Downey,Los Angeles County,Area Code 562
120,90245,Standard,El Segundo,Los Angeles County,Area Code 310Area Code 424
121,90247,Standard,Gardena,Los Angeles County,Area Code 213Area Code 310Area Code 323Area Code 424Area Code 562
122,90248,Standard,Gardena,Los Angeles County,Area Code 213Area Code 310Area Code 323Area Code 424Area Code 562
123,90249,Standard,Gardena,Los Angeles County,Area Code 213Area Code 310Area Code 323Area Code 424Area Code 562
124,90250,Standard,"Hawthorne, Holly Park, Hollyglen",Los Angeles County,Area Code 310Area Code 323Area Code 424
125,90251,PO Box,Hawthorne,Los Angeles County,Area Code 310
126,90254,Standard,Hermosa Beach,Los Angeles County,Area Code 310Area Code 424
127,90255,Standard,"Huntington Park, Huntington Pk, Walnut Park",Los Angeles County,Area Code 323
128,90260,Standard,Lawndale,Los Angeles County,Area Code 310
129,90261,Standard,Lawndale,Los Angeles County,Area Code 310
130,90262,Standard,Lynwood,Los Angeles County,
131,90263,Unique,Malibu,Los Angeles County,Area Code 310Area Code 424
132,90264,PO Box,Malibu,Los Angeles County,Area Code 310
133,90265,Standard,Malibu,Los Angeles County,Area Code 310Area Code 424
134,90266,Standard,"Manhattan Beach, Manhattan Bch",Los Angeles County,Area Code 310
135,90267,PO Box,"Manhattan Beach, Manhattan Bch",Los Angeles County,Area Code 310
136,90270,Standard,"Maywood, Bell Gardens",Los Angeles County,Area Code 323
137,90272,Standard,"Pacific Palisades, Pacific Plsds",Los Angeles County,
138,90274,Standard,"Palos Verdes Peninsula, Palos Verdes Estates, Pls Vrds Est, Pls ...",Los Angeles County,Area Code 310
139,90275,Standard,"Rancho Palos Verdes, Palos Verdes Estates, Palos Verdes Penin...",Los Angeles County,
140,90277,Standard,Redondo Beach,Los Angeles County,Area Code 310Area Code 424
141,90278,Standard,Redondo Beach,Los Angeles County,Area Code 424Area Code 310
142,90280,Standard,South Gate,Los Angeles County,Area Code 323
143,90290,Standard,Topanga,Los Angeles County,Area Code 310
144,90291,Standard,"Venice, Playa Del Rey",Los Angeles County,
145,90292,Standard,"Marina Del Rey, Marina Dl Rey, Venice",Los Angeles County,
146,90293,Standard,"Playa Del Rey, Venice",Los Angeles County,Area Code 213
147,90294,PO Box,Venice,Los Angeles County,Area Code 213
148,90295,PO Box,"Marina Del Rey, Marina Dl Rey, Venice",Los Angeles County,Area Code 310
149,90296,PO Box,"Playa Del Rey, Venice",Los Angeles County,Area Code 213
150,90301,Standard,Inglewood,Los Angeles County,Area Code 323Area Code 310Area Code 424
151,90302,Standard,Inglewood,Los Angeles County,Area Code 424Area Code 310Area Code 323
152,90303,Standard,Inglewood,Los Angeles County,Area Code 310
153,90304,Standard,Inglewood,Los Angeles County,Area Code 310Area Code 424
154,90305,Standard,Inglewood,Los Angeles County,Area Code 310Area Code 424
155,90306,PO Box,Inglewood,Los Angeles County,Area Code 310
156,90307,PO Box,Inglewood,Los Angeles County,Area Code 310
157,90308,PO Box,Inglewood,Los Angeles County,Area Code 310
158,90309,PO Box,Inglewood,Los Angeles County,Area Code 310
159,90310,PO Box,Inglewood,Los Angeles County,Area Code 310
160,90311,Standard,Inglewood,Los Angeles County,Area Code 310Area Code 424Area Code 323
161,90312,PO Box,Inglewood,Los Angeles County,Area Code 310
162,90313,Unique,"Inglewood, General Telephone",Los Angeles County,Area Code 310
163,90397,Unique,"Inglewood, Shared Firm Zip Code",Los Angeles County,Area Code 310
164,90398,Unique,Inglewood,Los Angeles County,Area Code 310
165,90401,Standard,Santa Monica,Los Angeles County,Area Code 310Area Code 424
166,90402,Standard,Santa Monica,Los Angeles County,Area Code 310
167,90403,Standard,Santa Monica,Los Angeles County,Area Code 310Area Code 424
168,90404,Standard,Santa Monica,Los Angeles County,Area Code 310Area Code 424
169,90405,Standard,Santa Monica,Los Angeles County,Area Code 310Area Code 424
170,90406,PO Box,Santa Monica,Los Angeles County,Area Code 310
171,90407,PO Box,Santa Monica,Los Angeles County,Area Code 310
172,90408,PO Box,Santa Monica,Los Angeles County,Area Code 310
173,90409,PO Box,Santa Monica,Los Angeles County,Area Code 310
174,90410,PO Box,Santa Monica,Los Angeles County,Area Code 310
175,90411,PO Box,Santa Monica,Los Angeles County,Area Code 310
176,90501,Standard,Torrance,Los Angeles County,Area Code 310Area Code 424
177,90502,Standard,Torrance,Los Angeles County,Area Code 310Area Code 424
178,90503,Standard,Torrance,Los Angeles County,Area Code 310Area Code 424
179,90504,Standard,Torrance,Los Angeles County,Area Code 310
180,90505,Standard,Torrance,Los Angeles County,Area Code 310
181,90506,Standard,Torrance,Los Angeles County,Area Code 310
182,90507,PO Box,Torrance,Los Angeles County,Area Code 310
183,90508,PO Box,Torrance,Los Angeles County,Area Code 310
184,90509,PO Box,Torrance,Los Angeles County,Area Code 310
185,90510,PO Box,Torrance,Los Angeles County,Area Code 310
186,90601,Standard,"Whittier, City Industry, City Of Industry, Pico Ri...",Los Angeles County,Area Code 562
187,90602,Standard,Whittier,Los Angeles County,Area Code 562
188,90603,Standard,Whittier,Los Angeles County,Area Code 562
189,90604,Standard,Whittier,Los Angeles County,Area Code 562
190,90605,Standard,Whittier,Los Angeles County,Area Code 562
191,90606,Standard,"Whittier, Los Nietos",Los Angeles County,Area Code 562
192,90607,PO Box,Whittier,Los Angeles County,Area Code 562
193,90608,PO Box,Whittier,Los Angeles County,Area Code 562
194,90609,PO Box,Whittier,Los Angeles County,Area Code 562
195,90610,PO Box,"Whittier, Los Nietos",Los Angeles County,Area Code 562
196,90612,Unique,Whittier,Los Angeles County,Area Code 562
197,90620,Standard,Buena Park,Orange County,Area Code 657Area Code 714
198,90621,Standard,Buena Park,Orange County,Area Code 657Area Code 714
199,90622,PO Box,Buena Park,Orange County,Area Code 714
200,90623,Standard,"La Palma, Buena Park",Orange County,Area Code 657Area Code 714
201,90624,PO Box,Buena Park,Orange County,Area Code 714
202,90630,Standard,Cypress,Orange County,Area Code 657Area Code 714
203,90631,Standard,"La Habra, La Habra Heights, La Habra Hgts",Orange County,Area Code 562
204,90632,PO Box,La Habra,Orange County,Area Code 714
205,90633,PO Box,La Habra,Orange County,Area Code 714
206,90637,PO Box,La Mirada,Los Angeles County,Area Code 562
207,90638,Standard,"La Mirada, Lamirada, Mirada",Los Angeles County,Area Code 714
208,90639,Unique,La Mirada,Los Angeles County,Area Code 562
209,90640,Standard,Montebello,Los Angeles County,Area Code 323
210,90650,Standard,Norwalk,Los Angeles County,Area Code 562
211,90651,PO Box,Norwalk,Los Angeles County,Area Code 562
212,90652,PO Box,Norwalk,Los Angeles County,Area Code 562
213,90659,Unique,Norwalk,Los Angeles County,Area Code 562
214,90660,Standard,Pico Rivera,Los Angeles County,Area Code 562
215,90661,PO Box,Pico Rivera,Los Angeles County,Area Code 562
216,90662,PO Box,Pico Rivera,Los Angeles County,Area Code 562
217,90670,Standard,"Santa Fe Springs, Santa Fe Spgs",Los Angeles County,Area Code 562
218,90671,PO Box,"Santa Fe Springs, Santa Fe Spgs",Los Angeles County,Area Code 562
219,90680,Standard,Stanton,Orange County,
220,90701,Standard,"Artesia, Cerritos",Los Angeles County,Area Code 562
221,90702,PO Box,Artesia,Los Angeles County,Area Code 562
222,90703,Standard,"Cerritos, Artesia",Los Angeles County,
223,90704,PO Box,Avalon,Los Angeles County,
224,90706,Standard,Bellflower,Los Angeles County,Area Code 562
225,90707,PO Box,Bellflower,Los Angeles County,Area Code 562
226,90710,Standard,Harbor City,Los Angeles County,
227,90711,PO Box,Lakewood,Los Angeles County,Area Code 562
228,90712,Standard,Lakewood,Los Angeles County,Area Code 310Area Code 323Area Code 657Area Code 562
229,90713,Standard,Lakewood,Los Angeles County,Area Code 310Area Code 323Area Code 562Area Code 657
230,90714,PO Box,Lakewood,Los Angeles County,Area Code 562
231,90715,Standard,Lakewood,Los Angeles County,Area Code 310Area Code 562
232,90716,Standard,"Hawaiian Gardens, Hawaiian Gdns, Lakewood",Los Angeles County,
233,90717,Standard,Lomita,Los Angeles County,Area Code 310Area Code 424
234,90720,Standard,"Los Alamitos, Cypress, Rossmoor",Orange County,Area Code 562Area Code 714Area Code 657
235,90721,PO Box,Los Alamitos,Orange County,Area Code 562
236,90723,Standard,Paramount,Los Angeles County,
237,90731,Standard,San Pedro,Los Angeles County,Area Code 310Area Code 424Area Code 562
238,90732,Standard,San Pedro,Los Angeles County,Area Code 310Area Code 424Area Code 562
239,90733,PO Box,San Pedro,Los Angeles County,Area Code 213
240,90734,PO Box,San Pedro,Los Angeles County,Area Code 213
241,90740,Standard,Seal Beach,Orange County,Area Code 562Area Code 714
242,90742,PO Box,Sunset Beach,Orange County,
243,90743,PO Box,Surfside,Orange County,
244,90744,Standard,Wilmington,Los Angeles County,Area Code 310Area Code 424Area Code 562Area Code 323
245,90745,Standard,"Carson, Long Beach",Los Angeles County,Area Code 562
246,90746,Standard,"Carson, Long Beach",Los Angeles County,Area Code 562
247,90747,Unique,"Carson, Long Beach",Los Angeles County,Area Code 310
248,90748,PO Box,Wilmington,Los Angeles County,Area Code 213
249,90749,PO Box,"Carson, Long Beach",Los Angeles County,Area Code 310
250,90755,Standard,"Signal Hill, Long Beach",Los Angeles County,
251,90801,PO Box,Long Beach,Los Angeles County,Area Code 562
252,90802,Standard,Long Beach,Los Angeles County,Area Code 562Area Code 310Area Code 323Area Code 424Area Code 714
253,90803,Standard,Long Beach,Los Angeles County,Area Code 562
254,90804,Standard,Long Beach,Los Angeles County,Area Code 562
255,90805,Standard,"Long Beach, Lakewood",Los Angeles County,Area Code 310Area Code 323Area Code 562
256,90806,Standard,Long Beach,Los Angeles County,Area Code 562
257,90807,Standard,"Long Beach, Signal Hill",Los Angeles County,Area Code 562Area Code 657Area Code 714
258,90808,Standard,Long Beach,Los Angeles County,Area Code 310Area Code 323Area Code 562Area Code 657Area Code 714
259,90809,PO Box,Long Beach,Los Angeles County,Area Code 562
260,90810,Standard,"Long Beach, Carson",Los Angeles County,Area Code 562
261,90813,Standard,Long Beach,Los Angeles County,Area Code 310Area Code 323Area Code 714Area Code 562
262,90814,Standard,Long Beach,Los Angeles County,Area Code 562
263,90815,Standard,Long Beach,Los Angeles County,Area Code 657Area Code 714Area Code 562
264,90822,Standard,Long Beach,Los Angeles County,Area Code 310Area Code 323Area Code 562Area Code 714
265,90831,Standard,Long Beach,Los Angeles County,Area Code 424
266,90832,PO Box,Long Beach,Los Angeles County,Area Code 562
267,90833,Standard,Long Beach,Los Angeles County,Area Code 424
268,90834,Standard,Long Beach,Los Angeles County,Area Code 424Area Code 562
269,90835,Standard,Long Beach,Los Angeles County,Area Code 562
270,90840,Unique,Long Beach,Los Angeles County,Area Code 562
271,90842,Unique,Long Beach,Los Angeles County,Area Code 562
272,90844,Unique,Long Beach,Los Angeles County,Area Code 562
273,90845,Unique,Long Beach,Los Angeles County,Area Code 562
274,90846,Unique,Long Beach,Los Angeles County,Area Code 562
275,90847,Unique,Long Beach,Los Angeles County,Area Code 562
276,90848,Unique,Long Beach,Los Angeles County,Area Code 562
277,90853,PO Box,Long Beach,Los Angeles County,Area Code 562
278,90888,Unique,Long Beach,Los Angeles County,Area Code 562
279,90895,Unique,"Carson, Long Beach",Los Angeles County,Area Code 310
280,90899,Unique,Long Beach,Los Angeles County,Area Code 562
281,91001,Standard,Altadena,Los Angeles County,
282,91003,PO Box,Altadena,Los Angeles County,Area Code 626
283,91006,Standard,Arcadia,Los Angeles County,Area Code 626
284,91007,Standard,Arcadia,Los Angeles County,Area Code 626
285,91008,Standard,"Duarte, Bradbury",Los Angeles County,Area Code 626
286,91009,PO Box,Duarte,Los Angeles County,Area Code 626
287,91010,Standard,Duarte,Los Angeles County,Area Code 626
288,91011,Standard,"La Canada Flintridge, Flintridge, La Canada, La Canada Flt, Pa...",Los Angeles County,Area Code 818
289,91012,PO Box,"La Canada Flintridge, La Canada, La Canada Flt",Los Angeles County,Area Code 818
290,91016,Standard,Monrovia,Los Angeles County,Area Code 626
291,91017,PO Box,Monrovia,Los Angeles County,Area Code 626
292,91020,Standard,Montrose,Los Angeles County,
293,91021,PO Box,Montrose,Los Angeles County,Area Code 818
294,91023,PO Box,Mount Wilson,Los Angeles County,
295,91024,Standard,Sierra Madre,Los Angeles County,Area Code 626
296,91025,PO Box,Sierra Madre,Los Angeles County,Area Code 626
297,91030,Standard,"South Pasadena, S Pasadena",Los Angeles County,Area Code 323Area Code 626
298,91031,PO Box,"South Pasadena, S Pasadena",Los Angeles County,Area Code 626
299,91040,Standard,"Sunland, Shadow Hills",Los Angeles County,Area Code 818
300,91041,PO Box,Sunland,Los Angeles County,Area Code 213
301,91042,Standard,Tujunga,Los Angeles County,Area Code 818
302,91043,PO Box,Tujunga,Los Angeles County,Area Code 213
303,91046,PO Box,Verdugo City,Los Angeles County,Area Code 818
304,91066,PO Box,Arcadia,Los Angeles County,Area Code 626
305,91077,PO Box,Arcadia,Los Angeles County,Area Code 626
306,91101,Standard,Pasadena,Los Angeles County,Area Code 626Area Code 323
307,91102,PO Box,Pasadena,Los Angeles County,Area Code 626
308,91103,Standard,Pasadena,Los Angeles County,Area Code 323Area Code 626
309,91104,Standard,Pasadena,Los Angeles County,Area Code 323Area Code 626
310,91105,Standard,Pasadena,Los Angeles County,Area Code 323Area Code 626
311,91106,Standard,Pasadena,Los Angeles County,Area Code 323Area Code 626
312,91107,Standard,Pasadena,Los Angeles County,Area Code 626
313,91108,Standard,"San Marino, Pasadena",Los Angeles County,Area Code 626
314,91109,PO Box,Pasadena,Los Angeles County,Area Code 626
315,91110,Unique,Pasadena,Los Angeles County,Area Code 626
316,91114,PO Box,Pasadena,Los Angeles County,Area Code 626
317,91115,PO Box,Pasadena,Los Angeles County,Area Code 626
318,91116,PO Box,Pasadena,Los Angeles County,Area Code 626
319,91117,PO Box,Pasadena,Los Angeles County,Area Code 626
320,91118,PO Box,"San Marino, Pasadena",Los Angeles County,Area Code 626
321,91121,Unique,Pasadena,Los Angeles County,Area Code 626
322,91123,Unique,Pasadena,Los Angeles County,Area Code 626
323,91124,Unique,Pasadena,Los Angeles County,Area Code 626
324,91125,Unique,Pasadena,Los Angeles County,Area Code 626
325,91126,Unique,Pasadena,Los Angeles County,Area Code 626
326,91129,Unique,Pasadena,Los Angeles County,Area Code 626
327,91131,Unique,Pasadena,Los Angeles County,Area Code 626
328,91182,Unique,Pasadena,Los Angeles County,Area Code 626
329,91184,Unique,Pasadena,Los Angeles County,Area Code 626
330,91185,Unique,Pasadena,Los Angeles County,Area Code 626
331,91188,Unique,Pasadena,Los Angeles County,Area Code 626
332,91189,Unique,Pasadena,Los Angeles County,Area Code 626
333,91191,Unique,"Pasadena, World Vision Inc Brm",Los Angeles County,Area Code 626
334,91199,Unique,Pasadena,Los Angeles County,Area Code 626
335,91201,Standard,Glendale,Los Angeles County,Area Code 818
336,91202,Standard,Glendale,Los Angeles County,Area Code 818
337,91203,Standard,Glendale,Los Angeles County,Area Code 818
338,91204,Standard,Glendale,Los Angeles County,Area Code 323Area Code 747Area Code 818
339,91205,Standard,Glendale,Los Angeles County,Area Code 323Area Code 747Area Code 818
340,91206,Standard,Glendale,Los Angeles County,Area Code 818
341,91207,Standard,Glendale,Los Angeles County,Area Code 818
342,91208,Standard,Glendale,Los Angeles County,Area Code 818
343,91209,PO Box,Glendale,Los Angeles County,Area Code 818
344,91210,Standard,Glendale,Los Angeles County,Area Code 323Area Code 747Area Code 818
345,91214,Standard,"La Crescenta, Glendale",Los Angeles County,Area Code 818
346,91221,PO Box,Glendale,Los Angeles County,Area Code 818
347,91222,PO Box,Glendale,Los Angeles County,Area Code 818
348,91224,PO Box,"La Crescenta, Glendale",Los Angeles County,Area Code 818
349,91225,PO Box,Glendale,Los Angeles County,Area Code 818
350,91226,PO Box,Glendale,Los Angeles County,Area Code 818
351,91301,Standard,"Agoura Hills, Agoura, Calabasas, Calabasas Hills, Cala...",Los Angeles County,Area Code 747Area Code 818
352,91302,Standard,"Calabasas, Hidden Hills, Monte Nido, Woodland Hills...",Los Angeles County,Area Code 818
353,91303,Standard,"Canoga Park, Woodland Hills, Woodland Hls",Los Angeles County,Area Code 747Area Code 818
354,91304,Standard,"Canoga Park, Box Canyon, West Hills",Los Angeles County,Area Code 747Area Code 818
355,91305,PO Box,Canoga Park,Los Angeles County,Area Code 213
356,91306,Standard,"Winnetka, Canoga Park",Los Angeles County,Area Code 747Area Code 818
357,91307,Standard,"West Hills, Bell Canyon, Canoga Park",Los Angeles County,Area Code 818
358,91308,PO Box,"West Hills, Canoga Park",Los Angeles County,Area Code 213
359,91309,PO Box,Canoga Park,Los Angeles County,Area Code 213
360,91310,PO Box,"Castaic, Santa Clarita",Los Angeles County,
361,91311,Standard,Chatsworth,Los Angeles County,
362,91313,PO Box,Chatsworth,Los Angeles County,Area Code 213
363,91316,Standard,"Encino, Van Nuys",Los Angeles County,Area Code 818
364,91319,PO Box,"Newbury Park, Thousand Oaks",Ventura County,Area Code 805
365,91320,Standard,"Newbury Park, Thousand Oaks",Ventura County,Area Code 805
366,91321,Standard,"Newhall, Santa Clarita",Los Angeles County,Area Code 661
367,91322,PO Box,"Newhall, Santa Clarita",Los Angeles County,Area Code 661
368,91324,Standard,Northridge,Los Angeles County,Area Code 747Area Code 818
369,91325,Standard,"Northridge, Sherwood Forest, Sherwood Frst",Los Angeles County,Area Code 747Area Code 818
370,91326,Standard,"Porter Ranch, Northridge",Los Angeles County,Area Code 747Area Code 818
371,91327,PO Box,"Northridge, Porter Ranch",Los Angeles County,Area Code 213
372,91328,PO Box,Northridge,Los Angeles County,Area Code 213
373,91329,Unique,Northridge,Los Angeles County,Area Code 213
374,91330,Unique,Northridge,Los Angeles County,Area Code 213
375,91331,Standard,"Pacoima, Arleta, Hansen Hills",Los Angeles County,Area Code 747Area Code 818
376,91333,PO Box,Pacoima,Los Angeles County,Area Code 213
377,91334,PO Box,"Pacoima, Arleta",Los Angeles County,Area Code 213
378,91335,Standard,"Reseda, Tarzana",Los Angeles County,Area Code 818
379,91337,PO Box,Reseda,Los Angeles County,Area Code 213
380,91340,Standard,San Fernando,Los Angeles County,Area Code 747Area Code 818
381,91341,PO Box,San Fernando,Los Angeles County,Area Code 818
382,91342,Standard,"Sylmar, Kagel Canyon, Lake View Ter, Lake View T...",Los Angeles County,
383,91343,Standard,"North Hills, Northridge, Sepulveda",Los Angeles County,Area Code 747Area Code 818
384,91344,Standard,"Granada Hills, San Fernando",Los Angeles County,Area Code 818Area Code 747
385,91345,Standard,"Mission Hills, San Fernando",Los Angeles County,Area Code 747Area Code 818
386,91346,PO Box,"Mission Hills, San Fernando",Los Angeles County,Area Code 213
387,91350,Standard,"Santa Clarita, Agua Dulce, Saugus",Los Angeles County,Area Code 661
388,91351,Standard,"Canyon Country, Canyon Cntry, Santa Clarita",Los Angeles County,Area Code 661
389,91352,Standard,Sun Valley,Los Angeles County,Area Code 213Area Code 310Area Code 323Area Code 626Area Code 818Area Code 747
390,91353,PO Box,Sun Valley,Los Angeles County,Area Code 818
391,91354,Standard,"Valencia, Santa Clarita",Los Angeles County,Area Code 661
392,91355,Standard,"Valencia, Santa Clarita",Los Angeles County,Area Code 661
393,91356,Standard,Tarzana,Los Angeles County,Area Code 818
394,91357,PO Box,Tarzana,Los Angeles County,Area Code 213
395,91358,PO Box,Thousand Oaks,Ventura County,Area Code 805
396,91359,PO Box,"Westlake Village, Thousand Oaks, Westlake Vlg",Los Angeles County,
397,91360,Standard,Thousand Oaks,Ventura County,Area Code 805
398,91361,Standard,"Westlake Village, Hidden Valley, Lake Sherwood, Thousand O...",Ventura County,Area Code 805Area Code 818
399,91362,Standard,"Thousand Oaks, Westlake Village, Westlake Vlg",Ventura County,Area Code 805
400,91363,Unique,Thousand Oaks,Los Angeles County,Area Code 818
401,91364,Standard,"Woodland Hills, Woodland Hls",Los Angeles County,
402,91365,PO Box,"Woodland Hills, Woodland Hls",Los Angeles County,Area Code 213
403,91367,Standard,"Woodland Hills, Woodland Hls",Los Angeles County,Area Code 818
404,91371,Unique,"Woodland Hills, Woodland Hls",Los Angeles County,Area Code 213
405,91372,PO Box,"Calabasas, Woodland Hills, Woodland Hls",Los Angeles County,Area Code 818
406,91376,PO Box,"Agoura Hills, Agoura",Los Angeles County,Area Code 818
407,91377,Standard,"Oak Park, Agoura Hills",Ventura County,Area Code 818
408,91380,PO Box,"Santa Clarita, Valencia",Los Angeles County,Area Code 661
409,91381,Standard,"Stevenson Ranch, Newhall, Santa Clarita, Stevenson Rnh, V...",Los Angeles County,Area Code 661
410,91382,Standard,Santa Clarita,Los Angeles County,Area Code 661
411,91383,Standard,Santa Clarita,Los Angeles County,Area Code 661
412,91384,Standard,"Castaic, Santa Clarita, Val Verde",Los Angeles County,Area Code 805Area Code 661
413,91385,PO Box,"Valencia, Santa Clarita",Los Angeles County,Area Code 661
414,91386,PO Box,"Canyon Country, Canyon Cntry, Santa Clarita",Los Angeles County,Area Code 661
415,91387,Standard,"Canyon Country, Canyon Cntry, Santa Clarita",Los Angeles County,Area Code 661
416,91388,Unique,Van Nuys,Los Angeles County,Area Code 213
417,91390,Standard,"Santa Clarita, Agua Dulce, Canyon Cntry, Canyon Country...",Los Angeles County,Area Code 661
418,91392,PO Box,Sylmar,Los Angeles County,Area Code 213
419,91393,PO Box,"North Hills, Sepulveda",Los Angeles County,Area Code 213
420,91394,PO Box,Granada Hills,Los Angeles County,Area Code 213
421,91395,PO Box,Mission Hills,Los Angeles County,Area Code 213
422,91396,PO Box,"Winnetka, Canoga Park",Los Angeles County,Area Code 213
423,91399,Unique,"Woodland Hills, Woodland Hls, Calabasas",Los Angeles County,Area Code 213
424,91401,Standard,"Van Nuys, Sherman Oaks, Valley Glen",Los Angeles County,Area Code 323Area Code 818
425,91402,Standard,"Panorama City, Van Nuys",Los Angeles County,Area Code 818
426,91403,Standard,"Sherman Oaks, Van Nuys",Los Angeles County,Area Code 213Area Code 323Area Code 424Area Code 747Area Code 805Area Code 818
427,91404,PO Box,Van Nuys,Los Angeles County,Area Code 213
428,91405,Standard,"Van Nuys, Valley Glen",Los Angeles County,Area Code 323Area Code 818
429,91406,Standard,"Van Nuys, Lake Balboa",Los Angeles County,Area Code 818
430,91407,PO Box,Van Nuys,Los Angeles County,Area Code 213
431,91408,PO Box,Van Nuys,Los Angeles County,Area Code 213
432,91409,PO Box,Van Nuys,Los Angeles County,Area Code 213
433,91410,PO Box,Van Nuys,Los Angeles County,Area Code 213
434,91411,Standard,"Van Nuys, Sherman Oaks",Los Angeles County,Area Code 213Area Code 323Area Code 424Area Code 747Area Code 818
435,91412,PO Box,"Panorama City, Van Nuys",Los Angeles County,Area Code 213
436,91413,PO Box,"Sherman Oaks, Van Nuys",Los Angeles County,Area Code 213
437,91416,PO Box,"Encino, Van Nuys",Los Angeles County,Area Code 213
438,91423,Standard,"Sherman Oaks, Van Nuys",Los Angeles County,Area Code 213Area Code 323Area Code 424Area Code 747Area Code 805Area Code 818
439,91426,PO Box,"Encino, Van Nuys",Los Angeles County,Area Code 213
440,91436,Standard,"Encino, Van Nuys",Los Angeles County,Area Code 747Area Code 805Area Code 818
441,91470,Unique,Van Nuys,Los Angeles County,Area Code 213
442,91482,Unique,Van Nuys,Los Angeles County,Area Code 213
443,91495,Unique,"Sherman Oaks, Van Nuys",Los Angeles County,Area Code 213
444,91496,Unique,Van Nuys,Los Angeles County,Area Code 213
445,91497,Unique,"Van Nuys, Southern California Gas Comp",Los Angeles County,Area Code 213
446,91499,Unique,Van Nuys,Los Angeles County,Area Code 213
447,91501,Standard,Burbank,Los Angeles County,Area Code 323Area Code 747Area Code 818
448,91502,Standard,Burbank,Los Angeles County,Area Code 747Area Code 818Area Code 323
449,91503,PO Box,Burbank,Los Angeles County,Area Code 818
450,91504,Standard,Burbank,Los Angeles County,Area Code 213Area Code 310Area Code 323Area Code 626Area Code 818
451,91505,Standard,Burbank,Los Angeles County,Area Code 818Area Code 213Area Code 310Area Code 323Area Code 626
452,91506,Standard,Burbank,Los Angeles County,Area Code 323Area Code 747Area Code 818
453,91507,PO Box,Burbank,Los Angeles County,Area Code 818
454,91508,PO Box,Burbank,Los Angeles County,Area Code 818
455,91510,PO Box,Burbank,Los Angeles County,Area Code 818
456,91521,Unique,Burbank,Los Angeles County,Area Code 213
457,91522,Unique,Burbank,Los Angeles County,Area Code 213
458,91523,Unique,Burbank,Los Angeles County,Area Code 213
459,91526,Unique,Burbank,Los Angeles County,Area Code 818
460,91601,Standard,"North Hollywood, N Hollywood, Toluca Ter, Toluca Terrace,...",Los Angeles County,Area Code 818Area Code 323
461,91602,Standard,"North Hollywood, N Hollywood, Studio City, Toluca Lake, W...",Los Angeles County,Area Code 323Area Code 818
462,91603,PO Box,"North Hollywood, N Hollywood",Los Angeles County,Area Code 213
463,91604,Standard,"Studio City, N Hollywood, North Hollywood",Los Angeles County,Area Code 213
464,91605,Standard,"North Hollywood, N Hollywood",Los Angeles County,Area Code 323Area Code 818
465,91606,Standard,"North Hollywood, N Hollywood, Valley Glen",Los Angeles County,Area Code 818Area Code 323
466,91607,Standard,"Valley Village, N Hollywood, North Hollywood, Sherman Vi...",Los Angeles County,Area Code 323Area Code 818
467,91608,Standard,"Universal City, N Hollywood, North Hollywood, Universal ...",Los Angeles County,Area Code 213
468,91609,PO Box,"North Hollywood, N Hollywood",Los Angeles County,Area Code 213
469,91610,PO Box,"Toluca Lake, N Hollywood, North Hollywood",Los Angeles County,Area Code 213
470,91611,Unique,"North Hollywood, N Hollywood",Los Angeles County,Area Code 213
471,91612,Unique,"North Hollywood, N Hollywood",Los Angeles County,Area Code 213
472,91614,PO Box,"Studio City, N Hollywood, North Hollywood",Los Angeles County,Area Code 213
473,91615,PO Box,"North Hollywood, N Hollywood",Los Angeles County,Area Code 213
474,91616,PO Box,"North Hollywood, N Hollywood",Los Angeles County,Area Code 213
475,91617,PO Box,"Valley Village, N Hollywood, North Hollywood, Valley Vlg",Los Angeles County,Area Code 213
476,91618,PO Box,"North Hollywood, N Hollywood, Universal Cty",Los Angeles County,Area Code 213
477,91701,Standard,"Rancho Cucamonga, Alta Loma, Rch Cucamonga",San Bernardino County,Area Code 909
478,91702,Standard,"Azusa, Irwindale",Los Angeles County,Area Code 626
479,91706,Standard,"Baldwin Park, Irwindale",Los Angeles County,Area Code 626
480,91708,Standard,Chino,San Bernardino County,Area Code 909
481,91709,Standard,Chino Hills,San Bernardino County,
482,91710,Standard,"Chino, Montclair, Ontario",San Bernardino County,Area Code 909
483,91711,Standard,Claremont,Los Angeles County,Area Code 909
484,91714,PO Box,"City Of Industry, City Industry",Los Angeles County,Area Code 626
485,91715,PO Box,"City Of Industry, City Industry",Los Angeles County,Area Code 626
486,91716,PO Box,"City Of Industry, City Industry",Los Angeles County,Area Code 626
487,91722,Standard,Covina,Los Angeles County,Area Code 909Area Code 626
488,91723,Standard,Covina,Los Angeles County,Area Code 626Area Code 909
489,91724,Standard,Covina,Los Angeles County,Area Code 626Area Code 909
490,91729,PO Box,"Rancho Cucamonga, Rch Cucamonga",San Bernardino County,Area Code 909
491,91730,Standard,"Rancho Cucamonga, Rch Cucamonga",San Bernardino County,Area Code 909
492,91731,Standard,El Monte,Los Angeles County,Area Code 323Area Code 626
493,91732,Standard,"El Monte, City Industry, City Of Industry",Los Angeles County,Area Code 323Area Code 626
494,91733,Standard,"South El Monte, El Monte, S El Monte",Los Angeles County,Area Code 323Area Code 626
495,91734,PO Box,El Monte,Los Angeles County,Area Code 626
496,91735,Unique,El Monte,Los Angeles County,Area Code 626
497,91737,Standard,"Rancho Cucamonga, Alta Loma, Rch Cucamonga",San Bernardino County,Area Code 909
498,91739,Standard,"Rancho Cucamonga, Etiwanda, Rch Cucamonga",San Bernardino County,Area Code 909
499,91740,Standard,Glendora,Los Angeles County,Area Code 626
500,91741,Standard,Glendora,Los Angeles County,Area Code 626
501,91743,PO Box,Guasti,San Bernardino County,Area Code 909
502,91744,Standard,"La Puente, City Industry, City Of Industry",Los Angeles County,Area Code 626
503,91745,Standard,"Hacienda Heights, City Industry, City Of Industry, Haciend...",Los Angeles County,Area Code 626
504,91746,Standard,"La Puente, Bassett, City Industry, City Of Industry",Los Angeles County,Area Code 626
505,91747,PO Box,La Puente,Los Angeles County,Area Code 626
506,91748,Standard,"Rowland Heights, City Industry, City Of Industry, La Puen...",Los Angeles County,Area Code 626
507,91749,PO Box,La Puente,Los Angeles County,Area Code 626
508,91750,Standard,La Verne,Los Angeles County,Area Code 626Area Code 909
509,91752,Standard,"Mira Loma, Eastvale, Jurupa Valley",Riverside County,Area Code 951
510,91754,Standard,Monterey Park,Los Angeles County,Area Code 818
511,91755,Standard,Monterey Park,Los Angeles County,Area Code 818
512,91756,Unique,Monterey Park,Los Angeles County,Area Code 626
513,91758,Standard,Ontario,San Bernardino County,Area Code 951Area Code 909
514,91759,PO Box,Mt Baldy,San Bernardino County,
515,91761,Standard,Ontario,San Bernardino County,Area Code 909Area Code 951
516,91762,Standard,"Ontario, Montclair",San Bernardino County,Area Code 909
517,91763,Standard,Montclair,San Bernardino County,
518,91764,Standard,Ontario,San Bernardino County,Area Code 909Area Code 951
519,91765,Standard,"Diamond Bar, Pomona",Los Angeles County,Area Code 909
520,91766,Standard,"Pomona, Phillips Ranch, Phillips Rnch",Los Angeles County,Area Code 626Area Code 909
521,91767,Standard,Pomona,Los Angeles County,Area Code 626Area Code 909
522,91768,Standard,Pomona,Los Angeles County,Area Code 909Area Code 626
523,91769,PO Box,Pomona,Los Angeles County,Area Code 909
524,91770,Standard,Rosemead,Los Angeles County,Area Code 626
525,91771,Unique,Rosemead,Los Angeles County,Area Code 626
526,91772,Unique,Rosemead,Los Angeles County,Area Code 626
527,91773,Standard,San Dimas,Los Angeles County,Area Code 909
528,91775,Standard,San Gabriel,Los Angeles County,Area Code 626
529,91776,Standard,San Gabriel,Los Angeles County,Area Code 626
530,91778,PO Box,San Gabriel,Los Angeles County,Area Code 626
531,91780,Standard,Temple City,Los Angeles County,
532,91784,Standard,Upland,San Bernardino County,Area Code 909
533,91785,PO Box,Upland,San Bernardino County,Area Code 909
534,91786,Standard,Upland,San Bernardino County,Area Code 909
535,91788,PO Box,Walnut,Los Angeles County,Area Code 909
536,91789,Standard,"Walnut, City Industry, City Of Industry, Diamond...",Los Angeles County,Area Code 909
537,91790,Standard,West Covina,Los Angeles County,Area Code 626
538,91791,Standard,West Covina,Los Angeles County,Area Code 626
539,91792,Standard,West Covina,Los Angeles County,Area Code 626
540,91793,PO Box,West Covina,Los Angeles County,Area Code 626
541,91795,Unique,Walnut,Los Angeles County,Area Code 909
542,91797,Unique,"Pomona, Bureau Of The Census",Los Angeles County,Area Code 909
543,91798,Unique,"Ontario, Rmx",San Bernardino County,Area Code 909
544,91799,Unique,Pomona,Los Angeles County,Area Code 909
545,91801,Standard,Alhambra,Los Angeles County,Area Code 323Area Code 626Area Code 818
546,91802,PO Box,Alhambra,Los Angeles County,Area Code 626
547,91803,Standard,Alhambra,Los Angeles County,Area Code 323Area Code 626Area Code 818
548,91804,Standard,Alhambra,Los Angeles County,Area Code 323Area Code 626Area Code 818
549,91841,Unique,Alhambra,Los Angeles County,Area Code 626
550,91896,PO Box,Alhambra,Los Angeles County,Area Code 626
551,91899,PO Box,Alhambra,Los Angeles County,Area Code 626
552,91901,Standard,Alpine,San Diego County,Area Code 619
553,91902,Standard,Bonita,San Diego County,
554,91903,PO Box,Alpine,San Diego County,Area Code 619
555,91905,Standard,Boulevard,San Diego County,Area Code 619Area Code 760
556,91906,Standard,Campo,San Diego County,Area Code 619
557,91908,PO Box,Bonita,San Diego County,
558,91909,PO Box,Chula Vista,San Diego County,Area Code 619
559,91910,Standard,Chula Vista,San Diego County,Area Code 619
560,91911,Standard,Chula Vista,San Diego County,Area Code 619
561,91912,PO Box,Chula Vista,San Diego County,Area Code 619
562,91913,Standard,Chula Vista,San Diego County,Area Code 619
563,91914,Standard,Chula Vista,San Diego County,Area Code 619
564,91915,Standard,Chula Vista,San Diego County,Area Code 619
565,91916,Standard,Descanso,San Diego County,Area Code 619
566,91917,Standard,Dulzura,San Diego County,Area Code 619
567,91921,PO Box,Chula Vista,San Diego County,Area Code 619
568,91931,PO Box,Guatay,San Diego County,
569,91932,Standard,"Imperial Beach, Imperial Bch",San Diego County,Area Code 619
570,91933,PO Box,"Imperial Beach, Imperial Bch",San Diego County,Area Code 619
571,91934,Standard,Jacumba,San Diego County,Area Code 619
572,91935,Standard,Jamul,San Diego County,Area Code 619
573,91941,Standard,La Mesa,San Diego County,Area Code 619
574,91942,Standard,La Mesa,San Diego County,Area Code 619
575,91943,PO Box,La Mesa,San Diego County,Area Code 619
576,91944,PO Box,La Mesa,San Diego County,Area Code 619
577,91945,Standard,Lemon Grove,San Diego County,Area Code 619
578,91946,PO Box,Lemon Grove,San Diego County,Area Code 619
579,91947,PO Box,Lincoln Acres,San Diego County,Area Code 619
580,91948,PO Box,Mount Laguna,San Diego County,
581,91950,Standard,"National City, Lincoln Acres",San Diego County,Area Code 619
582,91951,PO Box,National City,San Diego County,Area Code 619
583,91962,Standard,Pine Valley,San Diego County,Area Code 619
584,91963,Standard,Potrero,San Diego County,
585,91976,PO Box,Spring Valley,San Diego County,Area Code 619
586,91977,Standard,Spring Valley,San Diego County,
587,91978,Standard,Spring Valley,San Diego County,Area Code 619
588,91979,PO Box,Spring Valley,San Diego County,Area Code 619
589,91980,Standard,Tecate,San Diego County,Area Code 619
590,91987,Unique,Tecate,San Diego County,
591,91990,Unique,"Potrero, Young America",San Diego County,Area Code 619
592,92003,Standard,Bonsall,San Diego County,Area Code 760
593,92004,Standard,"Borrego Springs, Borrego Spgs",San Diego County,Area Code 760
594,92007,Standard,"Cardiff By The Sea, Cardiff",San Diego County,Area Code 760
595,92008,Standard,Carlsbad,San Diego County,Area Code 760
596,92009,Standard,"Carlsbad, La Costa",San Diego County,Area Code 442Area Code 760
597,92010,Standard,Carlsbad,San Diego County,Area Code 760Area Code 442
598,92011,Standard,"Carlsbad, La Costa",San Diego County,Area Code 760Area Code 442
599,92013,PO Box,Carlsbad,San Diego County,Area Code 760
600,92014,Standard,Del Mar,San Diego County,Area Code 858
601,92018,PO Box,Carlsbad,San Diego County,Area Code 760
602,92019,Standard,El Cajon,San Diego County,Area Code 619
603,92020,Standard,El Cajon,San Diego County,Area Code 619
604,92021,Standard,El Cajon,San Diego County,Area Code 619
605,92022,PO Box,El Cajon,San Diego County,Area Code 619
606,92023,PO Box,Encinitas,San Diego County,Area Code 760
607,92024,Standard,Encinitas,San Diego County,Area Code 760
608,92025,Standard,Escondido,San Diego County,Area Code 442Area Code 760
609,92026,Standard,Escondido,San Diego County,Area Code 760
610,92027,Standard,Escondido,San Diego County,Area Code 442Area Code 760
611,92028,Standard,Fallbrook,San Diego County,Area Code 442Area Code 760
612,92029,Standard,"Escondido, Elfin Forest",San Diego County,Area Code 442Area Code 760
613,92030,PO Box,Escondido,San Diego County,Area Code 760
614,92033,PO Box,Escondido,San Diego County,Area Code 760
615,92036,Standard,Julian,San Diego County,Area Code 760
616,92037,Standard,La Jolla,San Diego County,Area Code 858
617,92038,PO Box,La Jolla,San Diego County,Area Code 619
618,92039,PO Box,La Jolla,San Diego County,Area Code 619
619,92040,Standard,Lakeside,San Diego County,
620,92046,PO Box,Escondido,San Diego County,Area Code 760
621,92049,PO Box,Oceanside,San Diego County,Area Code 760
622,92051,PO Box,Oceanside,San Diego County,Area Code 760
623,92052,PO Box,Oceanside,San Diego County,Area Code 760
624,92054,Standard,"Oceanside, Camp Pendleton, Cmp Pendleton",San Diego County,Area Code 442Area Code 760
625,92055,PO Box,"Camp Pendleton, Cmp Pendleton, Oceanside",San Diego County,Area Code 760
626,92056,Standard,Oceanside,San Diego County,Area Code 442Area Code 760
627,92057,Standard,Oceanside,San Diego County,Area Code 760
628,92058,Standard,Oceanside,San Diego County,Area Code 442Area Code 760
629,92059,Standard,Pala,San Diego County,Area Code 760
630,92060,PO Box,"Palomar Mountain, Palomar Mtn",San Diego County,
631,92061,Standard,"Pauma Valley, Pala",San Diego County,Area Code 760
632,92064,Standard,Poway,San Diego County,Area Code 858
633,92065,Standard,Ramona,San Diego County,Area Code 760
634,92066,Standard,"Ranchita, Warner Spgs, Warner Springs",San Diego County,Area Code 760
635,92067,PO Box,"Rancho Santa Fe, Rcho Santa Fe",San Diego County,Area Code 619
636,92068,PO Box,"San Luis Rey, Oceanside",San Diego County,Area Code 760
637,92069,Standard,San Marcos,San Diego County,Area Code 760
638,92070,Standard,Santa Ysabel,San Diego County,Area Code 760
639,92071,Standard,Santee,San Diego County,Area Code 619
640,92072,PO Box,Santee,San Diego County,Area Code 619
641,92074,PO Box,Poway,San Diego County,Area Code 619
642,92075,Standard,Solana Beach,San Diego County,Area Code 858
643,92078,Standard,"San Marcos, Elfin Forest",San Diego County,Area Code 760
644,92079,PO Box,San Marcos,San Diego County,Area Code 760
645,92081,Standard,Vista,San Diego County,Area Code 442Area Code 760
646,92082,Standard,Valley Center,San Diego County,Area Code 760
647,92083,Standard,Vista,San Diego County,Area Code 442Area Code 760
648,92084,Standard,Vista,San Diego County,Area Code 760Area Code 442
649,92085,PO Box,Vista,San Diego County,Area Code 760
650,92086,Standard,"Warner Springs, Warner Spgs",San Diego County,Area Code 760
651,92088,PO Box,Fallbrook,San Diego County,Area Code 760
652,92090,Unique,El Cajon,San Diego County,Area Code 619
653,92091,Standard,"Rancho Santa Fe, Rcho Santa Fe",San Diego County,Area Code 858
654,92092,Unique,La Jolla,San Diego County,Area Code 858
655,92093,Unique,La Jolla,San Diego County,Area Code 858
656,92096,Unique,San Marcos,San Diego County,Area Code 760
657,92101,Standard,San Diego,San Diego County,Area Code 619Area Code 858
658,92102,Standard,San Diego,San Diego County,Area Code 619Area Code 858
659,92103,Standard,San Diego,San Diego County,Area Code 619Area Code 760Area Code 858
660,92104,Standard,San Diego,San Diego County,Area Code 858Area Code 619Area Code 760
661,92105,Standard,San Diego,San Diego County,Area Code 619Area Code 858
662,92106,Standard,San Diego,San Diego County,Area Code 619
663,92107,Standard,San Diego,San Diego County,Area Code 619
664,92108,Standard,San Diego,San Diego County,Area Code 619Area Code 858
665,92109,Standard,San Diego,San Diego County,Area Code 619
666,92110,Standard,San Diego,San Diego County,Area Code 619
667,92111,Standard,San Diego,San Diego County,Area Code 858Area Code 619
668,92112,PO Box,San Diego,San Diego County,Area Code 619
669,92113,Standard,San Diego,San Diego County,Area Code 619
670,92114,Standard,San Diego,San Diego County,Area Code 619Area Code 858
671,92115,Standard,San Diego,San Diego County,Area Code 619
672,92116,Standard,San Diego,San Diego County,Area Code 619Area Code 858
673,92117,Standard,San Diego,San Diego County,Area Code 619Area Code 858
674,92118,Standard,"Coronado, San Diego",San Diego County,Area Code 619
675,92119,Standard,San Diego,San Diego County,Area Code 619
676,92120,Standard,San Diego,San Diego County,Area Code 619
677,92121,Standard,San Diego,San Diego County,Area Code 619Area Code 760Area Code 858
678,92122,Standard,San Diego,San Diego County,Area Code 619Area Code 760Area Code 858
679,92123,Standard,San Diego,San Diego County,Area Code 619Area Code 858
680,92124,Standard,San Diego,San Diego County,Area Code 619Area Code 858
681,92126,Standard,San Diego,San Diego County,Area Code 619Area Code 760Area Code 858
682,92127,Standard,San Diego,San Diego County,Area Code 858
683,92128,Standard,San Diego,San Diego County,Area Code 619Area Code 858
684,92129,Standard,San Diego,San Diego County,Area Code 619Area Code 858
685,92130,Standard,San Diego,San Diego County,Area Code 858
686,92131,Standard,San Diego,San Diego County,Area Code 619Area Code 858
687,92132,Unique,San Diego,San Diego County,Area Code 619Area Code 858
688,92133,Standard,San Diego,San Diego County,Area Code 619
689,92134,Unique,San Diego,San Diego County,Area Code 858Area Code 619
690,92135,PO Box,"San Diego, Nas N Island, Nas North Island",San Diego County,Area Code 619
691,92136,Unique,San Diego,San Diego County,Area Code 619
692,92137,PO Box,San Diego,San Diego County,Area Code 619
693,92138,PO Box,San Diego,San Diego County,Area Code 619
694,92139,Standard,San Diego,San Diego County,Area Code 619
695,92140,Unique,San Diego,San Diego County,Area Code 619Area Code 760Area Code 858
696,92142,PO Box,San Diego,San Diego County,Area Code 619
697,92143,PO Box,"San Ysidro, San Diego",San Diego County,Area Code 619
698,92145,Unique,San Diego,San Diego County,Area Code 858Area Code 619Area Code 760
699,92147,Unique,San Diego,San Diego County,Area Code 619
700,92149,PO Box,San Diego,San Diego County,Area Code 619
701,92150,PO Box,San Diego,San Diego County,Area Code 619
702,92152,Unique,San Diego,San Diego County,Area Code 619
703,92153,PO Box,"San Diego, Nestor",San Diego County,Area Code 619
704,92154,Standard,San Diego,San Diego County,Area Code 619
705,92155,Unique,San Diego,San Diego County,Area Code 619
706,92158,Unique,San Diego,San Diego County,Area Code 619
707,92159,PO Box,San Diego,San Diego County,Area Code 619
708,92160,PO Box,San Diego,San Diego County,Area Code 619
709,92161,Unique,San Diego,San Diego County,Area Code 619
710,92162,PO Box,San Diego,San Diego County,Area Code 619
711,92163,PO Box,San Diego,San Diego County,Area Code 619
712,92164,PO Box,San Diego,San Diego County,Area Code 619
713,92165,PO Box,San Diego,San Diego County,Area Code 619
714,92166,PO Box,San Diego,San Diego County,Area Code 619
715,92167,PO Box,San Diego,San Diego County,Area Code 619
716,92168,PO Box,San Diego,San Diego County,Area Code 619
717,92169,PO Box,San Diego,San Diego County,Area Code 619
718,92170,PO Box,San Diego,San Diego County,Area Code 619
719,92171,PO Box,San Diego,San Diego County,Area Code 619
720,92172,PO Box,San Diego,San Diego County,Area Code 619
721,92173,Standard,"San Ysidro, San Diego",San Diego County,Area Code 619
722,92174,PO Box,San Diego,San Diego County,Area Code 619
723,92175,PO Box,San Diego,San Diego County,Area Code 619
724,92176,PO Box,San Diego,San Diego County,Area Code 619
725,92177,PO Box,San Diego,San Diego County,Area Code 619
726,92178,PO Box,"Coronado, San Diego",San Diego County,Area Code 619
727,92179,PO Box,San Diego,San Diego County,Area Code 619
728,92182,Unique,San Diego,San Diego County,Area Code 619
729,92184,Unique,San Diego,San Diego County,Area Code 619
730,92186,PO Box,San Diego,San Diego County,Area Code 619
731,92187,Unique,San Diego,San Diego County,Area Code 619
732,92190,PO Box,San Diego,San Diego County,Area Code 619
733,92191,PO Box,San Diego,San Diego County,Area Code 619
734,92192,PO Box,San Diego,San Diego County,Area Code 619
735,92193,PO Box,San Diego,San Diego County,Area Code 619
736,92194,Standard,San Diego,San Diego County,Area Code 619
737,92195,PO Box,San Diego,San Diego County,Area Code 619
738,92196,PO Box,San Diego,San Diego County,Area Code 619
739,92197,PO Box,San Diego,San Diego County,Area Code 619
740,92198,PO Box,San Diego,San Diego County,Area Code 619
741,92199,Standard,San Diego,San Diego County,Area Code 858Area Code 619
742,92201,Standard,"Indio, Chiriaco Smt, Chiriaco Summit",Riverside County,Area Code 760Area Code 442
743,92202,PO Box,Indio,Riverside County,Area Code 760
744,92203,Standard,"Indio, Bermuda Dunes",Riverside County,Area Code 442Area Code 760
745,92210,Standard,"Indian Wells, Palm Desert",Riverside County,Area Code 760
746,92211,Standard,Palm Desert,Riverside County,Area Code 760
747,92220,Standard,Banning,Riverside County,Area Code 951
748,92222,PO Box,Bard,Imperial County,Area Code 760
749,92223,Standard,"Beaumont, Cherry Valley",Riverside County,Area Code 909
750,92225,Standard,"Blythe, Ripley",Riverside County,Area Code 760
751,92226,PO Box,Blythe,Riverside County,Area Code 760
752,92227,Standard,Brawley,Imperial County,Area Code 442Area Code 760
753,92230,Standard,Cabazon,Riverside County,
754,92231,Standard,Calexico,Imperial County,Area Code 442Area Code 760
755,92232,PO Box,Calexico,Imperial County,Area Code 760
756,92233,Standard,Calipatria,Imperial County,Area Code 760
757,92234,Standard,"Cathedral City, Cathedral Cty",Riverside County,Area Code 760
758,92235,PO Box,"Cathedral City, Cathedral Cty",Riverside County,Area Code 760
759,92236,Standard,Coachella,Riverside County,Area Code 760
760,92239,PO Box,"Desert Center, Eagle Mountain, Eagle Mtn",Riverside County,
761,92240,Standard,"Desert Hot Springs, Dsrt Hot Spgs",Riverside County,Area Code 760
762,92241,Standard,"Desert Hot Springs, Dsrt Hot Spgs",Riverside County,Area Code 760
763,92242,Standard,"Earp, Big River",San Bernardino County,Area Code 760
764,92243,Standard,El Centro,Imperial County,Area Code 442Area Code 760
765,92244,PO Box,El Centro,Imperial County,Area Code 760
766,92247,PO Box,La Quinta,Riverside County,Area Code 760
767,92248,PO Box,La Quinta,Riverside County,Area Code 760
768,92249,Standard,Heber,Imperial County,Area Code 760
769,92250,Standard,Holtville,Imperial County,Area Code 760
770,92251,Standard,Imperial,Imperial County,Area Code 760
771,92252,Standard,Joshua Tree,San Bernardino County,Area Code 760
772,92253,Standard,La Quinta,Riverside County,Area Code 760
773,92254,Standard,Mecca,Riverside County,Area Code 760
774,92255,PO Box,Palm Desert,Riverside County,Area Code 760
775,92256,Standard,"Morongo Valley, Morongo Vly",San Bernardino County,Area Code 760
776,92257,Standard,Niland,Imperial County,Area Code 760
777,92258,PO Box,"North Palm Springs, N Palm Spgs, N Palm Springs, No Palm Spr...",Riverside County,
778,92259,PO Box,Ocotillo,Imperial County,Area Code 760
779,92260,Standard,Palm Desert,Riverside County,Area Code 760
780,92261,PO Box,Palm Desert,Riverside County,Area Code 760
781,92262,Standard,Palm Springs,Riverside County,Area Code 760Area Code 442
782,92263,PO Box,Palm Springs,Riverside County,Area Code 760
783,92264,Standard,Palm Springs,Riverside County,Area Code 442Area Code 760
784,92266,PO Box,Palo Verde,Imperial County,Area Code 760
785,92267,PO Box,Parker Dam,San Bernardino County,Area Code 760
786,92268,PO Box,Pioneertown,San Bernardino County,
787,92270,Standard,Rancho Mirage,Riverside County,Area Code 760
788,92273,PO Box,Seeley,Imperial County,Area Code 760
789,92274,Standard,Thermal,Riverside County,Area Code 760
790,92275,PO Box,"Salton City, Thermal",Imperial County,Area Code 760
791,92276,Standard,"Thousand Palms, Cathedral City, Cathedral Cty, Thousand ...",Riverside County,Area Code 760
792,92277,Standard,"Twentynine Palms, 29 Palms, Twentynin Plm",San Bernardino County,Area Code 760
793,92278,PO Box,"Twentynine Palms, 29 Palms, Twentynin Plm, Twentynine Palm...",San Bernardino County,Area Code 760
794,92280,Standard,"Vidal, Blythe",San Bernardino County,
795,92281,PO Box,Westmorland,Imperial County,Area Code 760
796,92282,Standard,"Whitewater, Cabazon",Riverside County,
797,92283,Standard,"Winterhaven, Felicity",Imperial County,Area Code 760
798,92284,Standard,Yucca Valley,San Bernardino County,Area Code 760
799,92285,Standard,"Landers, Johnson Valley, Johnson Vly, Yucca Valle...",San Bernardino County,Area Code 760
800,92286,PO Box,Yucca Valley,San Bernardino County,Area Code 760
801,92292,Standard,Palm Springs,Riverside County,Area Code 760
802,92301,Standard,"Adelanto, El Mirage",San Bernardino County,Area Code 760
803,92304,PO Box,"Amboy, Cadiz",San Bernardino County,
804,92305,Standard,Angelus Oaks,San Bernardino County,
805,92307,Standard,Apple Valley,San Bernardino County,Area Code 760
806,92308,Standard,"Apple Valley, Jess Ranch",San Bernardino County,Area Code 760
807,92309,Standard,"Baker, Kelso",San Bernardino County,Area Code 760
808,92310,Standard,"Fort Irwin, Barstow",San Bernardino County,Area Code 760
809,92311,Standard,Barstow,San Bernardino County,Area Code 760
810,92312,PO Box,Barstow,San Bernardino County,Area Code 760
811,92313,Standard,Grand Terrace,San Bernardino County,Area Code 951Area Code 909
812,92314,Standard,Big Bear City,San Bernardino County,Area Code 909
813,92315,Standard,Big Bear Lake,San Bernardino County,Area Code 909
814,92316,Standard,Bloomington,San Bernardino County,
815,92317,PO Box,Blue Jay,San Bernardino County,
816,92318,Standard,Bryn Mawr,San Bernardino County,Area Code 909
817,92320,Standard,Calimesa,Riverside County,Area Code 909
818,92321,PO Box,Cedar Glen,San Bernardino County,
819,92322,PO Box,"Cedarpines Park, Cedarpines Pk",San Bernardino County,
820,92323,Standard,Cima,San Bernardino County,
821,92324,Standard,"Colton, Grand Terrace",San Bernardino County,Area Code 909Area Code 951
822,92325,PO Box,Crestline,San Bernardino County,
823,92326,PO Box,Crest Park,San Bernardino County,
824,92327,Standard,Daggett,San Bernardino County,Area Code 442Area Code 760
825,92328,Standard,Death Valley,Inyo County,Area Code 760
826,92329,PO Box,Phelan,San Bernardino County,
827,92331,PO Box,Fontana,San Bernardino County,Area Code 909
828,92332,Standard,Essex,San Bernardino County,
829,92333,PO Box,Fawnskin,San Bernardino County,
830,92334,PO Box,Fontana,San Bernardino County,Area Code 909
831,92335,Standard,Fontana,San Bernardino County,Area Code 909
832,92336,Standard,Fontana,San Bernardino County,Area Code 909
833,92337,Standard,Fontana,San Bernardino County,Area Code 909
834,92338,Standard,"Ludlow, Newberry Spgs, Newberry Springs",San Bernardino County,
835,92339,Standard,Forest Falls,San Bernardino County,
836,92340,PO Box,Hesperia,San Bernardino County,Area Code 760
837,92341,PO Box,"Green Valley Lake, Green Vly Lk",San Bernardino County,
838,92342,Standard,Helendale,San Bernardino County,Area Code 760
839,92344,Standard,"Hesperia, Oak Hills",San Bernardino County,Area Code 760
840,92345,Standard,Hesperia,San Bernardino County,Area Code 442Area Code 760
841,92346,Standard,Highland,San Bernardino County,Area Code 909
842,92347,Standard,Hinkley,San Bernardino County,Area Code 760
843,92350,Unique,Loma Linda,San Bernardino County,Area Code 909
844,92352,PO Box,"Lake Arrowhead, Lk Arrowhead",San Bernardino County,
845,92354,Standard,Loma Linda,San Bernardino County,Area Code 909
846,92356,Standard,"Lucerne Valley, Lucerne Vly",San Bernardino County,Area Code 760
847,92357,Unique,Loma Linda,San Bernardino County,Area Code 909
848,92358,Standard,Lytle Creek,San Bernardino County,Area Code 760
849,92359,Standard,Mentone,San Bernardino County,Area Code 909
850,92363,Standard,"Needles, Havasu Lake",San Bernardino County,Area Code 760
851,92364,Standard,"Nipton, Baker",San Bernardino County,Area Code 442Area Code 760
852,92365,Standard,"Newberry Springs, Newberry Spgs",San Bernardino County,Area Code 760Area Code 442
853,92366,Standard,Mountain Pass,San Bernardino County,Area Code 442Area Code 760
854,92368,Standard,Oro Grande,San Bernardino County,
855,92369,PO Box,Patton,San Bernardino County,Area Code 909
856,92371,Standard,Phelan,San Bernardino County,Area Code 760
857,92372,Standard,Pinon Hills,San Bernardino County,Area Code 661Area Code 760
858,92373,Standard,"Redlands, Loma Linda",San Bernardino County,Area Code 909
859,92374,Standard,Redlands,San Bernardino County,Area Code 909
860,92375,PO Box,Redlands,San Bernardino County,Area Code 909
861,92376,Standard,Rialto,San Bernardino County,Area Code 909
862,92377,Standard,Rialto,San Bernardino County,Area Code 909
863,92378,PO Box,Rimforest,San Bernardino County,
864,92382,PO Box,"Running Springs, Arrowbear Lake, Arrowbear Lk, Running Sp...",San Bernardino County,
865,92384,PO Box,Shoshone,Inyo County,Area Code 760
866,92385,PO Box,Skyforest,San Bernardino County,
867,92386,PO Box,"Sugarloaf, Big Bear City",San Bernardino County,
868,92389,PO Box,Tecopa,Inyo County,Area Code 760
869,92391,PO Box,Twin Peaks,San Bernardino County,
870,92392,Standard,Victorville,San Bernardino County,Area Code 760Area Code 442
871,92393,PO Box,Victorville,San Bernardino County,Area Code 760
872,92394,Standard,"Victorville, George AFB",San Bernardino County,Area Code 442Area Code 760
873,92395,Standard,"Victorville, Spg Valley Lk, Spring Valley Lake",San Bernardino County,Area Code 442Area Code 760Area Code 909
874,92397,Standard,Wrightwood,San Bernardino County,Area Code 760
875,92398,PO Box,Yermo,San Bernardino County,
876,92399,Standard,"Yucaipa, Oak Glen",San Bernardino County,Area Code 909
877,92401,Standard,"San Bernardino, Sn Bernrdno",San Bernardino County,Area Code 909Area Code 951
878,92402,PO Box,"San Bernardino, Sn Bernrdno",San Bernardino County,Area Code 909
879,92403,Standard,"San Bernardino, Sn Bernrdno",San Bernardino County,Area Code 909Area Code 951
880,92404,Standard,"San Bernardino, Sn Bernrdno",San Bernardino County,Area Code 909
881,92405,Standard,"San Bernardino, Sn Bernrdno",San Bernardino County,Area Code 909
882,92406,PO Box,"San Bernardino, Sn Bernrdno",San Bernardino County,Area Code 909
883,92407,Standard,"San Bernardino, Arrowhead Farms, Arrowhed Farm, Devore H...",San Bernardino County,Area Code 760Area Code 909
884,92408,Standard,"San Bernardino, Sn Bernrdno",San Bernardino County,Area Code 909
885,92410,Standard,"San Bernardino, Sn Bernrdno",San Bernardino County,Area Code 951Area Code 909
886,92411,Standard,"San Bernardino, Sn Bernrdno",San Bernardino County,Area Code 909
887,92412,PO Box,"San Bernardino, Sn Bernrdno",San Bernardino County,Area Code 909
888,92413,PO Box,"San Bernardino, Sn Bernrdno",San Bernardino County,Area Code 909
889,92414,Unique,"San Bernardino, Sn Bernrdno",San Bernardino County,Area Code 909
890,92415,Unique,"San Bernardino, Sn Bernrdno",San Bernardino County,Area Code 909
891,92418,Unique,"San Bernardino, Sn Bernrdno",San Bernardino County,Area Code 909
892,92423,PO Box,"San Bernardino, Sn Bernrdno",San Bernardino County,Area Code 909
893,92424,Unique,"San Bernardino, Sn Bernrdno",San Bernardino County,Area Code 909
894,92427,PO Box,"San Bernardino, Sn Bernrdno",San Bernardino County,Area Code 909
895,92501,Standard,Riverside,Riverside County,Area Code 909Area Code 951
896,92502,PO Box,Riverside,Riverside County,Area Code 951
897,92503,Standard,Riverside,Riverside County,Area Code 909Area Code 951
898,92504,Standard,Riverside,Riverside County,Area Code 909Area Code 951
899,92505,Standard,Riverside,Riverside County,Area Code 909
900,92506,Standard,Riverside,Riverside County,Area Code 909Area Code 951
901,92507,Standard,Riverside,Riverside County,Area Code 909Area Code 951
902,92508,Standard,Riverside,Riverside County,Area Code 909
903,92509,Standard,"Jurupa Valley, Riverside",Riverside County,Area Code 951
904,92513,PO Box,Riverside,Riverside County,Area Code 951
905,92514,PO Box,Riverside,Riverside County,Area Code 951
906,92515,PO Box,Riverside,Riverside County,Area Code 951
907,92516,PO Box,Riverside,Riverside County,Area Code 951
908,92517,PO Box,Riverside,Riverside County,Area Code 951
909,92518,Standard,"March Air Reserve Base, March Arb, Riverside",Riverside County,Area Code 951
910,92519,PO Box,Riverside,Riverside County,Area Code 951
911,92521,Unique,Riverside,Riverside County,Area Code 951
912,92522,Unique,Riverside,Riverside County,Area Code 951
913,92530,Standard,Lake Elsinore,Riverside County,Area Code 951
914,92531,PO Box,Lake Elsinore,Riverside County,Area Code 951
915,92532,Standard,Lake Elsinore,Riverside County,Area Code 951
916,92536,Standard,Aguanga,Riverside County,Area Code 951
917,92539,Standard,Anza,Riverside County,Area Code 951
918,92543,Standard,Hemet,Riverside County,Area Code 909Area Code 951
919,92544,Standard,"Hemet, Sage",Riverside County,Area Code 909Area Code 951
920,92545,Standard,Hemet,Riverside County,Area Code 951Area Code 909
921,92546,PO Box,Hemet,Riverside County,Area Code 951
922,92548,Standard,Homeland,Riverside County,Area Code 951
923,92549,PO Box,Idyllwild,Riverside County,Area Code 951
924,92551,Standard,Moreno Valley,Riverside County,Area Code 951
925,92552,PO Box,Moreno Valley,Riverside County,Area Code 951
926,92553,Standard,Moreno Valley,Riverside County,Area Code 951
927,92554,PO Box,Moreno Valley,Riverside County,Area Code 951
928,92555,Standard,"Moreno Valley, Rancho Belago",Riverside County,Area Code 951
929,92556,PO Box,Moreno Valley,Riverside County,Area Code 951
930,92557,Standard,Moreno Valley,Riverside County,Area Code 951
931,92561,Standard,"Mountain Center, Mountain Ctr",Riverside County,Area Code 760
932,92562,Standard,Murrieta,Riverside County,Area Code 951
933,92563,Standard,Murrieta,Riverside County,Area Code 951
934,92564,PO Box,Murrieta,Riverside County,Area Code 951
935,92567,Standard,"Nuevo, Lakeview",Riverside County,Area Code 951
936,92570,Standard,"Perris, Lake Mathews",Riverside County,Area Code 951
937,92571,Standard,Perris,Riverside County,Area Code 951
938,92572,PO Box,Perris,Riverside County,Area Code 951
939,92581,PO Box,San Jacinto,Riverside County,Area Code 951
940,92582,Standard,San Jacinto,Riverside County,Area Code 951
941,92583,Standard,"San Jacinto, Gilman Hot Springs, Glmn Hot Spgs",Riverside County,Area Code 909Area Code 951
942,92584,Standard,"Menifee, Quail Valley, Romoland, Sun City",Riverside County,Area Code 951
943,92585,Standard,"Menifee, Quail Valley, Romoland, Sun City",Riverside County,Area Code 951
944,92586,Standard,"Menifee, Quail Valley, Romoland, Sun City",Riverside County,Area Code 951
945,92587,Standard,"Menifee, Canyon Lake, Quail Valley, Romoland, Sun...",Riverside County,Area Code 951
946,92589,PO Box,Temecula,Riverside County,Area Code 951
947,92590,Standard,Temecula,Riverside County,Area Code 951Area Code 909
948,92591,Standard,Temecula,Riverside County,Area Code 909Area Code 951
949,92592,Standard,Temecula,Riverside County,Area Code 909Area Code 951
950,92593,PO Box,Temecula,Riverside County,Area Code 951
951,92595,Standard,Wildomar,Riverside County,Area Code 951
952,92596,Standard,"Winchester, Menifee",Riverside County,
953,92599,Unique,Perris,Riverside County,Area Code 951
954,92602,Standard,Irvine,Orange County,Area Code 949
955,92603,Standard,Irvine,Orange County,Area Code 714Area Code 949
956,92604,Standard,Irvine,Orange County,Area Code 949
957,92605,PO Box,"Huntington Beach, Huntingtn Bch",Orange County,Area Code 714
958,92606,Standard,Irvine,Orange County,Area Code 714Area Code 949
959,92607,PO Box,"Laguna Niguel, Laguna Beach",Orange County,Area Code 949
960,92609,PO Box,"El Toro, Lake Forest",Orange County,Area Code 949
961,92610,Standard,"Foothill Ranch, El Toro, Foothill Rnch, Lake Forest",Orange County,Area Code 949
962,92612,Standard,Irvine,Orange County,Area Code 714Area Code 949
963,92614,Standard,Irvine,Orange County,Area Code 949Area Code 714
964,92615,PO Box,"Huntington Beach, Huntingtn Bch",Orange County,Area Code 714
965,92616,PO Box,Irvine,Orange County,Area Code 714
966,92617,Standard,Irvine,Orange County,Area Code 714
967,92618,Standard,Irvine,Orange County,Area Code 949
968,92619,PO Box,Irvine,Orange County,Area Code 714
969,92620,Standard,Irvine,Orange County,Area Code 949
970,92623,PO Box,Irvine,Orange County,Area Code 714
971,92624,Standard,"Capistrano Beach, Capo Beach, Dana Point",Orange County,Area Code 714Area Code 949
972,92625,Standard,"Corona Del Mar, Corona Dl Mar",Orange County,Area Code 949
973,92626,Standard,Costa Mesa,Orange County,Area Code 714
974,92627,Standard,Costa Mesa,Orange County,Area Code 714
975,92628,PO Box,Costa Mesa,Orange County,Area Code 714
976,92629,Standard,"Dana Point, Monarch Bay, Monarch Beach",Orange County,Area Code 714Area Code 949
977,92630,Standard,"Lake Forest, El Toro",Orange County,Area Code 714Area Code 949
978,92637,Standard,"Laguna Woods, Laguna Hills",Orange County,Area Code 714Area Code 949
979,92646,Standard,"Huntington Beach, Huntingtn Bch",Orange County,Area Code 657Area Code 714
980,92647,Standard,"Huntington Beach, Huntingtn Bch",Orange County,Area Code 657Area Code 714Area Code 562
981,92648,Standard,"Huntington Beach, Huntingtn Bch",Orange County,Area Code 562Area Code 657Area Code 714
982,92649,Standard,"Huntington Beach, Huntingtn Bch",Orange County,Area Code 562Area Code 714
983,92650,PO Box,"East Irvine, Irvine",Orange County,Area Code 714
984,92651,Standard,Laguna Beach,Orange County,Area Code 714Area Code 949
985,92652,PO Box,Laguna Beach,Orange County,Area Code 949
986,92653,Standard,"Laguna Hills, Aliso Viejo, Laguna Beach, Laguna Woods",Orange County,Area Code 714Area Code 949
987,92654,PO Box,"Laguna Hills, Laguna Beach, Laguna Woods",Orange County,Area Code 949
988,92655,Standard,Midway City,Orange County,Area Code 714
989,92656,Standard,"Aliso Viejo, Laguna Beach, Laguna Hills",Orange County,Area Code 949Area Code 714
990,92657,Standard,"Newport Coast, Newport Beach",Orange County,Area Code 949
991,92658,PO Box,Newport Beach,Orange County,Area Code 949
992,92659,PO Box,Newport Beach,Orange County,Area Code 949
993,92660,Standard,Newport Beach,Orange County,Area Code 949
994,92661,Standard,Newport Beach,Orange County,Area Code 949
995,92662,Standard,"Newport Beach, Balboa, Balboa Island",Orange County,Area Code 949
996,92663,Standard,Newport Beach,Orange County,Area Code 949
997,92672,Standard,San Clemente,Orange County,Area Code 949
998,92673,Standard,San Clemente,Orange County,Area Code 949
999,92674,PO Box,San Clemente,Orange County,Area Code 949
1000,92675,Standard,"San Juan Capistrano, Mission Viejo, San Juan Capo",Orange County,Area Code 714Area Code 949
1001,92676,Standard,Silverado,Orange County,Area Code 714
1002,92677,Standard,"Laguna Niguel, Laguna Beach",Orange County,Area Code 949
1003,92678,PO Box,"Trabuco Canyon, Trabuco Cyn",Orange County,Area Code 949
1004,92679,Standard,"Trabuco Canyon, Coto De Caza, Dove Canyon, Lake Forest, ...",Orange County,Area Code 949
1005,92683,Standard,Westminster,Orange County,Area Code 657Area Code 714
1006,92684,PO Box,Westminster,Orange County,Area Code 714
1007,92685,PO Box,Westminster,Orange County,Area Code 714
1008,92688,Standard,"Rancho Santa Margarita, Rancho Sta Marg, Rcho Sta Marg, Rsm",Orange County,Area Code 949
1009,92690,PO Box,"Mission Viejo, San Juan Capistrano, San Juan Capo",Orange County,Area Code 949
1010,92691,Standard,"Mission Viejo, San Juan Capistrano, San Juan Capo",Orange County,Area Code 714Area Code 949
1011,92692,Standard,"Mission Viejo, San Juan Capistrano, San Juan Capo",Orange County,Area Code 949
1012,92693,PO Box,"San Juan Capistrano, San Juan Capo",Orange County,Area Code 949
1013,92694,Standard,"Ladera Ranch, Mission Viejo, Ran Msn Viejo, Rancho Mis...",Orange County,Area Code 949
1014,92697,Unique,Irvine,Orange County,Area Code 714
1015,92698,Unique,Aliso Viejo,Orange County,Area Code 949
1016,92701,Standard,Santa Ana,Orange County,Area Code 562Area Code 657Area Code 949Area Code 714
1017,92702,PO Box,Santa Ana,Orange County,Area Code 714
1018,92703,Standard,Santa Ana,Orange County,Area Code 657Area Code 714
1019,92704,Standard,Santa Ana,Orange County,Area Code 657Area Code 714
1020,92705,Standard,"Santa Ana, Cowan Heights, North Tustin",Orange County,Area Code 657Area Code 714
1021,92706,Standard,Santa Ana,Orange County,Area Code 714Area Code 657Area Code 949
1022,92707,Standard,Santa Ana,Orange County,Area Code 562Area Code 657Area Code 714Area Code 949
1023,92708,Standard,"Fountain Valley, Fountain Vly, Santa Ana",Orange County,Area Code 714
1024,92709,Unique,Irvine,Orange County,Area Code 714
1025,92710,Unique,Irvine,Orange County,Area Code 714
1026,92711,PO Box,Santa Ana,Orange County,Area Code 714
1027,92712,PO Box,Santa Ana,Orange County,Area Code 714
1028,92725,Unique,Santa Ana,Orange County,Area Code 714
1029,92728,PO Box,"Fountain Valley, Fountain Vly, Santa Ana",Orange County,Area Code 714
1030,92735,PO Box,Santa Ana,Orange County,Area Code 714
1031,92780,Standard,Tustin,Orange County,Area Code 714
1032,92781,PO Box,Tustin,Orange County,Area Code 714
1033,92782,Standard,Tustin,Orange County,Area Code 714
1034,92799,Standard,Santa Ana,Orange County,Area Code 657Area Code 714Area Code 949Area Code 562
1035,92801,Standard,Anaheim,Orange County,Area Code 657Area Code 714Area Code 949
1036,92802,Standard,Anaheim,Orange County,Area Code 562Area Code 909Area Code 949Area Code 657Area Code 714
1037,92803,PO Box,Anaheim,Orange County,Area Code 714
1038,92804,Standard,Anaheim,Orange County,Area Code 657Area Code 714
1039,92805,Standard,Anaheim,Orange County,Area Code 626Area Code 562Area Code 657Area Code 714Area Code 909Area Code 949
1040,92806,Standard,Anaheim,Orange County,Area Code 657Area Code 562Area Code 626Area Code 714Area Code 909Area Code 949
1041,92807,Standard,Anaheim,Orange County,Area Code 714
1042,92808,Standard,Anaheim,Orange County,Area Code 714
1043,92809,Standard,Anaheim,Orange County,Area Code 714
1044,92811,PO Box,Atwood,Orange County,Area Code 714
1045,92812,PO Box,Anaheim,Orange County,Area Code 714
1046,92814,PO Box,Anaheim,Orange County,Area Code 714
1047,92815,PO Box,Anaheim,Orange County,Area Code 714
1048,92816,PO Box,Anaheim,Orange County,Area Code 714
1049,92817,PO Box,Anaheim,Orange County,Area Code 714
1050,92821,Standard,Brea,Orange County,Area Code 714
1051,92822,PO Box,Brea,Orange County,Area Code 714
1052,92823,Standard,Brea,Orange County,Area Code 714
1053,92825,PO Box,Anaheim,Orange County,Area Code 714
1054,92831,Standard,Fullerton,Orange County,Area Code 714Area Code 657
1055,92832,Standard,Fullerton,Orange County,Area Code 657Area Code 714
1056,92833,Standard,Fullerton,Orange County,Area Code 657Area Code 714
1057,92834,PO Box,Fullerton,Orange County,Area Code 714
1058,92835,Standard,Fullerton,Orange County,Area Code 657Area Code 714
1059,92836,PO Box,Fullerton,Orange County,Area Code 714
1060,92837,PO Box,Fullerton,Orange County,Area Code 714
1061,92838,PO Box,Fullerton,Orange County,Area Code 714
1062,92840,Standard,Garden Grove,Orange County,Area Code 657Area Code 714
1063,92841,Standard,Garden Grove,Orange County,Area Code 657Area Code 714
1064,92842,PO Box,Garden Grove,Orange County,Area Code 714
1065,92843,Standard,Garden Grove,Orange County,Area Code 714Area Code 657
1066,92844,Standard,Garden Grove,Orange County,Area Code 657Area Code 714
1067,92845,Standard,Garden Grove,Orange County,Area Code 714
1068,92846,PO Box,Garden Grove,Orange County,Area Code 714
1069,92850,Unique,Anaheim,Orange County,Area Code 714
1070,92856,PO Box,Orange,Orange County,Area Code 714
1071,92857,PO Box,Orange,Orange County,Area Code 714
1072,92859,PO Box,Orange,Orange County,Area Code 714
1073,92860,Standard,Norco,Riverside County,
1074,92861,Standard,"Villa Park, Orange",Orange County,Area Code 714
1075,92862,Standard,Orange,Orange County,Area Code 714
1076,92863,PO Box,Orange,Orange County,Area Code 714
1077,92864,PO Box,Orange,Orange County,Area Code 714
1078,92865,Standard,Orange,Orange County,Area Code 714
1079,92866,Standard,Orange,Orange County,Area Code 657Area Code 714
1080,92867,Standard,"Orange, Villa Park",Orange County,Area Code 657Area Code 714
1081,92868,Standard,Orange,Orange County,Area Code 657Area Code 949Area Code 714
1082,92869,Standard,Orange,Orange County,Area Code 714
1083,92870,Standard,Placentia,Orange County,Area Code 657Area Code 714
1084,92871,PO Box,Placentia,Orange County,Area Code 714
1085,92877,PO Box,Corona,Riverside County,Area Code 951
1086,92878,Standard,Corona,Riverside County,Area Code 951
1087,92879,Standard,Corona,Riverside County,Area Code 951Area Code 909
1088,92880,Standard,"Corona, Eastvale",Riverside County,Area Code 909
1089,92881,Standard,Corona,Riverside County,Area Code 909Area Code 951
1090,92882,Standard,Corona,Riverside County,Area Code 909Area Code 951
1091,92883,Standard,"Corona, Temescal Valley, Temescal Vly",Riverside County,Area Code 951
1092,92885,PO Box,Yorba Linda,Orange County,Area Code 714
1093,92886,Standard,Yorba Linda,Orange County,Area Code 657Area Code 714
1094,92887,Standard,Yorba Linda,Orange County,Area Code 657Area Code 714
1095,92899,Standard,Anaheim,Orange County,Area Code 714Area Code 909Area Code 562Area Code 626Area Code 949
1096,93001,Standard,Ventura,Ventura County,Area Code 805
1097,93002,PO Box,Ventura,Ventura County,Area Code 805
1098,93003,Standard,Ventura,Ventura County,Area Code 805
1099,93004,Standard,Ventura,Ventura County,Area Code 805
1100,93005,PO Box,Ventura,Ventura County,Area Code 805
1101,93006,PO Box,Ventura,Ventura County,Area Code 805
1102,93007,PO Box,Ventura,Ventura County,Area Code 805
1103,93009,Unique,Ventura,Ventura County,Area Code 805
1104,93010,Standard,Camarillo,Ventura County,Area Code 805
1105,93011,PO Box,Camarillo,Ventura County,Area Code 805
1106,93012,Standard,"Camarillo, Santa Rosa Va, Santa Rosa Valley",Ventura County,Area Code 805
1107,93013,Standard,Carpinteria,Santa Barbara County,Area Code 805
1108,93014,PO Box,Carpinteria,Santa Barbara County,Area Code 805
1109,93015,Standard,Fillmore,Ventura County,Area Code 805
1110,93016,PO Box,Fillmore,Ventura County,Area Code 805
1111,93020,PO Box,Moorpark,Ventura County,Area Code 805
1112,93021,Standard,Moorpark,Ventura County,Area Code 805
1113,93022,Standard,Oak View,Ventura County,Area Code 805
1114,93023,Standard,Ojai,Ventura County,Area Code 805
1115,93024,PO Box,Ojai,Ventura County,Area Code 805
1116,93030,Standard,Oxnard,Ventura County,Area Code 805
1117,93031,PO Box,Oxnard,Ventura County,Area Code 805
1118,93032,PO Box,Oxnard,Ventura County,Area Code 805
1119,93033,Standard,Oxnard,Ventura County,Area Code 805
1120,93034,PO Box,Oxnard,Ventura County,Area Code 805
1121,93035,Standard,Oxnard,Ventura County,Area Code 805
1122,93036,Standard,Oxnard,Ventura County,Area Code 805
1123,93040,PO Box,Piru,Ventura County,Area Code 805
1124,93041,Standard,"Port Hueneme, Point Mugu Nawc, Pt Mugu Nawc",Ventura County,Area Code 805
1125,93042,Unique,"Point Mugu Nawc, Port Hueneme, Pt Mugu Nawc",Ventura County,Area Code 805
1126,93043,Unique,"Port Hueneme Cbc Base, Port Hueneme, Prt Hueneme",Ventura County,Area Code 805
1127,93044,PO Box,Port Hueneme,Ventura County,Area Code 805
1128,93060,Standard,Santa Paula,Ventura County,Area Code 805
1129,93061,PO Box,Santa Paula,Ventura County,Area Code 805
1130,93062,PO Box,Simi Valley,Ventura County,Area Code 805
1131,93063,Standard,"Simi Valley, Santa Susana",Ventura County,Area Code 805
1132,93064,Unique,"Brandeis, Simi Valley",Ventura County,Area Code 805
1133,93065,Standard,Simi Valley,Ventura County,Area Code 805
1134,93066,Standard,Somis,Ventura County,Area Code 805
1135,93067,PO Box,Summerland,Santa Barbara County,
1136,93093,Standard,Simi Valley,Ventura County,Area Code 805
1137,93094,PO Box,Simi Valley,Ventura County,Area Code 805
1138,93099,Unique,Simi Valley,Ventura County,Area Code 805
1139,93101,Standard,Santa Barbara,Santa Barbara County,Area Code 805
1140,93102,PO Box,Santa Barbara,Santa Barbara County,Area Code 805
1141,93103,Standard,Santa Barbara,Santa Barbara County,Area Code 805
1142,93105,Standard,"Santa Barbara, Montecito",Santa Barbara County,Area Code 805
1143,93106,Unique,Santa Barbara,Santa Barbara County,Area Code 805
1144,93107,PO Box,Santa Barbara,Santa Barbara County,Area Code 805
1145,93108,Standard,"Santa Barbara, Montecito",Santa Barbara County,Area Code 805
1146,93109,Standard,Santa Barbara,Santa Barbara County,Area Code 805
1147,93110,Standard,"Santa Barbara, Goleta",Santa Barbara County,Area Code 805
1148,93111,Standard,"Santa Barbara, Goleta",Santa Barbara County,Area Code 805
1149,93116,PO Box,"Goleta, Santa Barbara",Santa Barbara County,Area Code 805
1150,93117,Standard,"Goleta, Gaviota, Isla Vista, Santa Barbara",Santa Barbara County,Area Code 805
1151,93118,PO Box,"Goleta, Santa Barbara",Santa Barbara County,Area Code 805
1152,93120,PO Box,Santa Barbara,Santa Barbara County,Area Code 805
1153,93121,PO Box,Santa Barbara,Santa Barbara County,Area Code 805
1154,93130,PO Box,Santa Barbara,Santa Barbara County,Area Code 805
1155,93140,PO Box,Santa Barbara,Santa Barbara County,Area Code 805
1156,93150,PO Box,"Santa Barbara, Montecito",Santa Barbara County,Area Code 805
1157,93160,PO Box,Santa Barbara,Santa Barbara County,Area Code 805
1158,93190,PO Box,Santa Barbara,Santa Barbara County,Area Code 805
1159,93199,Unique,"Goleta, Santa Barbara",Santa Barbara County,Area Code 805
1160,93201,PO Box,Alpaugh,Tulare County,Area Code 559
1161,93202,Standard,Armona,Kings County,Area Code 559
1162,93203,Standard,"Arvin, Di Giorgio, Tejon Ranch",Kern County,Area Code 661
1163,93204,Standard,Avenal,Kings County,Area Code 559
1164,93205,Standard,Bodfish,Kern County,Area Code 661
1165,93206,Standard,Buttonwillow,Kern County,Area Code 661
1166,93207,Standard,"California Hot Springs, Calif Hot Spg",Tulare County,Area Code 661
1167,93208,PO Box,"Camp Nelson, Springville",Tulare County,Area Code 559
1168,93210,Standard,Coalinga,Fresno County,Area Code 559
1169,93212,Standard,Corcoran,Kings County,Area Code 559
1170,93215,Standard,Delano,Kern County,Area Code 661
1171,93216,PO Box,Delano,Kern County,Area Code 661
1172,93218,PO Box,Ducor,Tulare County,Area Code 559
1173,93219,Standard,Earlimart,Tulare County,Area Code 559Area Code 661
1174,93220,PO Box,Edison,Kern County,
1175,93221,Standard,Exeter,Tulare County,Area Code 559
1176,93222,PO Box,"Pine Mountain Club, Frazier Park, Pine Mtn Clb",Kern County,
1177,93223,Standard,Farmersville,Tulare County,Area Code 559
1178,93224,Standard,Fellows,Kern County,Area Code 661
1179,93225,Standard,Frazier Park,Kern County,
1180,93226,Standard,Glennville,Kern County,Area Code 661
1181,93227,PO Box,Goshen,Tulare County,Area Code 559
1182,93230,Standard,Hanford,Kings County,Area Code 559
1183,93232,PO Box,Hanford,Kings County,Area Code 559
1184,93234,PO Box,Huron,Fresno County,Area Code 559
1185,93235,Standard,Ivanhoe,Tulare County,Area Code 559
1186,93237,PO Box,Kaweah,Tulare County,Area Code 559
1187,93238,Standard,Kernville,Kern County,Area Code 760
1188,93239,Standard,"Kettleman City, Kettleman Cty",Kings County,Area Code 559
1189,93240,Standard,"Lake Isabella, Mountain Mesa",Kern County,Area Code 760
1190,93241,Standard,Lamont,Kern County,Area Code 661
1191,93242,Standard,Laton,Fresno County,Area Code 559
1192,93243,Standard,"Lebec, Gorman, Tejon Ranch",Kern County,Area Code 661
1193,93244,Standard,Lemon Cove,Tulare County,Area Code 559
1194,93245,Standard,Lemoore,Kings County,Area Code 559
1195,93246,Unique,"Lemoore, Lemoore Nas, Lemoore Naval Air Station",Kings County,Area Code 559
1196,93247,Standard,Lindsay,Tulare County,Area Code 559
1197,93249,Standard,Lost Hills,Kern County,Area Code 661
1198,93250,Standard,Mc Farland,Kern County,Area Code 661
1199,93251,Standard,Mc Kittrick,Kern County,Area Code 661Area Code 805
1200,93252,Standard,Maricopa,Kern County,Area Code 661
1201,93254,Standard,"New Cuyama, Cuyama",Santa Barbara County,Area Code 661
1202,93255,Standard,Onyx,Kern County,Area Code 559
1203,93256,Standard,Pixley,Tulare County,Area Code 559
1204,93257,Standard,"Porterville, Poplar, Woodville",Tulare County,Area Code 559
1205,93258,PO Box,Porterville,Tulare County,Area Code 559
1206,93260,Standard,Posey,Tulare County,Area Code 661
1207,93261,PO Box,Richgrove,Tulare County,Area Code 559
1208,93262,Standard,"Sequoia National Park, Seq Natl Pk",Tulare County,Area Code 559
1209,93263,Standard,Shafter,Kern County,Area Code 661
1210,93265,Standard,Springville,Tulare County,Area Code 559
1211,93266,Standard,Stratford,Kings County,Area Code 559
1212,93267,Standard,Strathmore,Tulare County,Area Code 559
1213,93268,Standard,Taft,Kern County,Area Code 661
1214,93270,Standard,Terra Bella,Tulare County,Area Code 559
1215,93271,Standard,Three Rivers,Tulare County,Area Code 559
1216,93272,Standard,Tipton,Tulare County,Area Code 559
1217,93274,Standard,Tulare,Tulare County,Area Code 559
1218,93275,PO Box,Tulare,Tulare County,Area Code 559
1219,93276,PO Box,Tupman,Kern County,
1220,93277,Standard,Visalia,Tulare County,Area Code 559
1221,93278,PO Box,Visalia,Tulare County,Area Code 559
1222,93279,PO Box,Visalia,Tulare County,Area Code 559
1223,93280,Standard,Wasco,Kern County,Area Code 661
1224,93282,PO Box,"Waukena, Corcoran",Tulare County,Area Code 559
1225,93283,Standard,Weldon,Kern County,Area Code 760
1226,93285,Standard,"Wofford Heights, Wofford Hts",Kern County,
1227,93286,Standard,Woodlake,Tulare County,Area Code 559
1228,93287,Standard,Woody,Kern County,
1229,93290,PO Box,Visalia,Tulare County,Area Code 559
1230,93291,Standard,Visalia,Tulare County,Area Code 559
1231,93292,Standard,Visalia,Tulare County,Area Code 559
1232,93301,Standard,Bakersfield,Kern County,Area Code 661Area Code 805
1233,93302,PO Box,Bakersfield,Kern County,Area Code 661
1234,93303,PO Box,Bakersfield,Kern County,Area Code 661
1235,93304,Standard,Bakersfield,Kern County,Area Code 661Area Code 805
1236,93305,Standard,Bakersfield,Kern County,Area Code 661Area Code 805
1237,93306,Standard,Bakersfield,Kern County,Area Code 661
1238,93307,Standard,Bakersfield,Kern County,Area Code 661
1239,93308,Standard,Bakersfield,Kern County,Area Code 661
1240,93309,Standard,Bakersfield,Kern County,Area Code 661
1241,93311,Standard,Bakersfield,Kern County,Area Code 661
1242,93312,Standard,Bakersfield,Kern County,Area Code 661
1243,93313,Standard,"Bakersfield, Pumpkin Center, Pumpkin Ctr",Kern County,Area Code 661
1244,93314,Standard,Bakersfield,Kern County,Area Code 661
1245,93380,PO Box,Bakersfield,Kern County,Area Code 661
1246,93381,Standard,Bakersfield,Kern County,Area Code 661
1247,93382,Standard,Bakersfield,Kern County,Area Code 661
1248,93383,PO Box,"Bakersfield, Pumpkin Center, Pumpkin Ctr",Kern County,Area Code 661
1249,93384,PO Box,Bakersfield,Kern County,Area Code 661
1250,93385,PO Box,Bakersfield,Kern County,Area Code 661
1251,93386,PO Box,Bakersfield,Kern County,Area Code 661
1252,93387,PO Box,Bakersfield,Kern County,Area Code 661
1253,93388,PO Box,Bakersfield,Kern County,Area Code 661
1254,93389,PO Box,Bakersfield,Kern County,Area Code 661
1255,93390,PO Box,Bakersfield,Kern County,Area Code 661
1256,93401,Standard,"San Luis Obispo, Sn Luis Obisp",San Luis Obispo County,Area Code 805
1257,93402,Standard,"Los Osos, San Luis Obispo, Sn Luis Obisp",San Luis Obispo County,Area Code 805
1258,93403,PO Box,"San Luis Obispo, Sn Luis Obisp",San Luis Obispo County,Area Code 805
1259,93405,Standard,"San Luis Obispo, Sn Luis Obisp",San Luis Obispo County,Area Code 805
1260,93406,PO Box,"San Luis Obispo, Sn Luis Obisp",San Luis Obispo County,Area Code 805
1261,93407,Standard,"San Luis Obispo, Sn Luis Obisp",San Luis Obispo County,Area Code 805
1262,93408,Unique,"San Luis Obispo, Sn Luis Obisp",San Luis Obispo County,Area Code 805
1263,93409,Unique,"San Luis Obispo, Sn Luis Obisp",San Luis Obispo County,Area Code 805
1264,93410,Standard,"San Luis Obispo, Sn Luis Obisp",San Luis Obispo County,Area Code 805
1265,93412,PO Box,"Los Osos, San Luis Obispo, Sn Luis Obisp",San Luis Obispo County,Area Code 805
1266,93420,Standard,Arroyo Grande,San Luis Obispo County,Area Code 805
1267,93421,PO Box,Arroyo Grande,San Luis Obispo County,Area Code 805
1268,93422,Standard,Atascadero,San Luis Obispo County,Area Code 805
1269,93423,PO Box,Atascadero,San Luis Obispo County,Area Code 805
1270,93424,PO Box,Avila Beach,San Luis Obispo County,
1271,93426,Standard,Bradley,Monterey County,Area Code 805
1272,93427,Standard,Buellton,Santa Barbara County,Area Code 805
1273,93428,Standard,Cambria,San Luis Obispo County,Area Code 805
1274,93429,PO Box,Casmalia,Santa Barbara County,
1275,93430,Standard,Cayucos,San Luis Obispo County,Area Code 805
1276,93432,Standard,Creston,San Luis Obispo County,
1277,93433,Standard,Grover Beach,San Luis Obispo County,Area Code 805
1278,93434,Standard,Guadalupe,Santa Barbara County,Area Code 805
1279,93435,PO Box,Harmony,San Luis Obispo County,Area Code 805
1280,93436,Standard,Lompoc,Santa Barbara County,Area Code 805
1281,93437,Standard,"Lompoc, Vandenberg AFB, Vandenbrg AFB",Santa Barbara County,Area Code 805
1282,93438,PO Box,Lompoc,Santa Barbara County,Area Code 805
1283,93440,PO Box,Los Alamos,Santa Barbara County,
1284,93441,PO Box,Los Olivos,Santa Barbara County,
1285,93442,Standard,Morro Bay,San Luis Obispo County,Area Code 805
1286,93443,PO Box,Morro Bay,San Luis Obispo County,Area Code 805
1287,93444,Standard,Nipomo,San Luis Obispo County,Area Code 805
1288,93445,Standard,Oceano,San Luis Obispo County,Area Code 805
1289,93446,Standard,"Paso Robles, Adelaide, Heritage Ranch, Heritage Rnch",San Luis Obispo County,Area Code 805
1290,93447,PO Box,Paso Robles,San Luis Obispo County,
1291,93448,PO Box,"Pismo Beach, Shell Beach",San Luis Obispo County,Area Code 805
1292,93449,Standard,"Pismo Beach, Shell Beach",San Luis Obispo County,Area Code 805
1293,93450,Standard,San Ardo,Monterey County,Area Code 805Area Code 831
1294,93451,Standard,"San Miguel, Parkfield",San Luis Obispo County,Area Code 805
1295,93452,Standard,"San Simeon, Ragged Point",San Luis Obispo County,Area Code 805
1296,93453,Standard,"Santa Margarita, Santa Margar",San Luis Obispo County,
1297,93454,Standard,"Santa Maria, Rancho Suey",Santa Barbara County,Area Code 805
1298,93455,Standard,"Santa Maria, Orcutt",Santa Barbara County,Area Code 805
1299,93456,PO Box,Santa Maria,Santa Barbara County,Area Code 805
1300,93457,PO Box,"Santa Maria, Orcutt",Santa Barbara County,Area Code 805
1301,93458,Standard,Santa Maria,Santa Barbara County,Area Code 805
1302,93460,Standard,Santa Ynez,Santa Barbara County,Area Code 805
1303,93461,Standard,Shandon,San Luis Obispo County,Area Code 805
1304,93463,Standard,"Solvang, Ballard",Santa Barbara County,Area Code 805
1305,93464,PO Box,Solvang,Santa Barbara County,Area Code 805
1306,93465,Standard,Templeton,San Luis Obispo County,Area Code 805
1307,93475,PO Box,Oceano,San Luis Obispo County,
1308,93483,PO Box,Grover Beach,San Luis Obispo County,Area Code 805
1309,93501,Standard,"Mojave, Tehachapi",Kern County,Area Code 661
1310,93502,PO Box,Mojave,Kern County,
1311,93504,PO Box,"California City, Calif City",Kern County,Area Code 760
1312,93505,Standard,"California City, Calif City",Kern County,Area Code 661Area Code 760
1313,93510,Standard,Acton,Los Angeles County,Area Code 661
1314,93512,Standard,"Benton, Bishop",Mono County,Area Code 442Area Code 760
1315,93513,Standard,Big Pine,Inyo County,Area Code 760
1316,93514,Standard,"Bishop, Chalfant, Chalfant Valley, Chalfant Vly,...",Inyo County,Area Code 442Area Code 760
1317,93515,PO Box,Bishop,Inyo County,Area Code 760
1318,93516,Standard,Boron,Kern County,Area Code 760
1319,93517,Standard,Bridgeport,Mono County,Area Code 760
1320,93518,Standard,"Caliente, Havilah",Kern County,Area Code 661
1321,93519,PO Box,"Cantil, Mojave",Kern County,
1322,93522,PO Box,Darwin,Inyo County,Area Code 760
1323,93523,Standard,"Edwards, Aerial Acres, North Edwards",Kern County,Area Code 661Area Code 760
1324,93524,Unique,"Edwards, Edwards AFB",Kern County,Area Code 661
1325,93526,Standard,Independence,Inyo County,Area Code 760
1326,93527,Standard,"Inyokern, Pearsonville",Kern County,Area Code 760
1327,93528,PO Box,Johannesburg,Kern County,
1328,93529,PO Box,June Lake,Mono County,Area Code 760
1329,93530,PO Box,Keeler,Inyo County,Area Code 760
1330,93531,Standard,Keene,Kern County,Area Code 661
1331,93532,Standard,"Lake Hughes, Elizabeth Lake, Elizabeth Lk",Los Angeles County,Area Code 661
1332,93534,Standard,Lancaster,Los Angeles County,Area Code 661
1333,93535,Standard,"Lancaster, Hi Vista, Lake La, Lake Los Angeles",Los Angeles County,Area Code 661
1334,93536,Standard,"Lancaster, Del Sur, Quartz Hill",Los Angeles County,Area Code 661
1335,93539,PO Box,Lancaster,Los Angeles County,Area Code 661
1336,93541,PO Box,Lee Vining,Mono County,
1337,93542,PO Box,Little Lake,Inyo County,Area Code 760
1338,93543,Standard,"Littlerock, Juniper Hills, Sun Village",Los Angeles County,Area Code 661
1339,93544,Standard,"Llano, Crystalaire",Los Angeles County,Area Code 760Area Code 661
1340,93545,Standard,Lone Pine,Inyo County,Area Code 760
1341,93546,Standard,"Mammoth Lakes, Crowley Lake, Toms Place",Mono County,Area Code 760
1342,93549,PO Box,"Olancha, Cartago",Inyo County,Area Code 760
1343,93550,Standard,"Palmdale, Lake La, Lake Los Angeles",Los Angeles County,Area Code 661
1344,93551,Standard,"Palmdale, City Ranch, Leona Valley, Quartz Hill",Los Angeles County,Area Code 661
1345,93552,Standard,Palmdale,Los Angeles County,Area Code 661
1346,93553,Standard,Pearblossom,Los Angeles County,
1347,93554,PO Box,"Randsburg, Johannesburg",Kern County,
1348,93555,Standard,Ridgecrest,Kern County,Area Code 760
1349,93556,PO Box,Ridgecrest,Kern County,Area Code 760
1350,93558,PO Box,"Red Mountain, Johannesburg",San Bernardino County,
1351,93560,Standard,"Rosamond, Willow Spgs, Willow Springs",Kern County,Area Code 661
1352,93561,Standard,"Tehachapi, Bear Valley Springs, Bear Vly Spgs, Gold...",Kern County,Area Code 661
1353,93562,Standard,"Trona, Argus",San Bernardino County,Area Code 760
1354,93563,Standard,"Valyermo, Pearblossom",Los Angeles County,Area Code 661
1355,93581,PO Box,Tehachapi,Kern County,Area Code 661
1356,93584,PO Box,Lancaster,Los Angeles County,Area Code 661
1357,93586,PO Box,"Lancaster, Quartz Hill",Los Angeles County,Area Code 661
1358,93590,PO Box,Palmdale,Los Angeles County,Area Code 661
1359,93591,Standard,"Palmdale, Lake La, Lake Los Angeles",Los Angeles County,Area Code 661
1360,93592,PO Box,Trona,Inyo County,
1361,93596,PO Box,Boron,Kern County,
1362,93599,Unique,Palmdale,Los Angeles County,Area Code 661
1363,93601,Standard,Ahwahnee,Madera County,Area Code 209Area Code 559
1364,93602,Standard,Auberry,Fresno County,Area Code 559
1365,93603,Standard,"Badger, Miramonte",Tulare County,Area Code 559
1366,93604,Standard,Bass Lake,Madera County,Area Code 559
1367,93605,PO Box,Big Creek,Fresno County,Area Code 559
1368,93606,PO Box,Biola,Fresno County,Area Code 559
1369,93607,PO Box,"Burrel, Riverdale",Fresno County,Area Code 559
1370,93608,Standard,Cantua Creek,Fresno County,Area Code 559Area Code 831
1371,93609,Standard,Caruthers,Fresno County,Area Code 559
1372,93610,Standard,Chowchilla,Madera County,Area Code 559
1373,93611,Standard,Clovis,Fresno County,Area Code 559
1374,93612,Standard,Clovis,Fresno County,Area Code 559
1375,93613,PO Box,Clovis,Fresno County,Area Code 559
1376,93614,Standard,Coarsegold,Madera County,Area Code 559
1377,93615,Standard,Cutler,Tulare County,Area Code 559
1378,93616,Standard,Del Rey,Fresno County,Area Code 559
1379,93618,Standard,Dinuba,Tulare County,Area Code 559
1380,93619,Standard,Clovis,Fresno County,Area Code 559
1381,93620,Standard,Dos Palos,Merced County,Area Code 209
1382,93621,Standard,Dunlap,Fresno County,Area Code 559
1383,93622,Standard,Firebaugh,Fresno County,Area Code 209Area Code 559
1384,93623,Standard,Fish Camp,Mariposa County,Area Code 209
1385,93624,PO Box,Five Points,Fresno County,Area Code 559
1386,93625,Standard,Fowler,Fresno County,Area Code 559
1387,93626,Standard,Friant,Fresno County,Area Code 559
1388,93627,PO Box,Helm,Fresno County,Area Code 559
1389,93628,Standard,"Hume, Miramonte",Fresno County,Area Code 559
1390,93630,Standard,Kerman,Fresno County,Area Code 559
1391,93631,Standard,Kingsburg,Fresno County,Area Code 559
1392,93633,PO Box,"Kings Canyon National Pk, Kcnp, Kings Canyon",Tulare County,
1393,93634,PO Box,"Lakeshore, Shaver Lake",Fresno County,Area Code 559
1394,93635,Standard,Los Banos,Merced County,Area Code 209
1395,93636,Standard,Madera,Madera County,Area Code 559
1396,93637,Standard,"Madera, Berenda",Madera County,Area Code 559
1397,93638,Standard,Madera,Madera County,Area Code 559
1398,93639,PO Box,Madera,Madera County,Area Code 559
1399,93640,Standard,Mendota,Fresno County,Area Code 559
1400,93641,Standard,Miramonte,Fresno County,Area Code 559
1401,93642,PO Box,"Mono Hot Springs, Mono Hot Spgs, Shaver Lake",Fresno County,Area Code 559
1402,93643,Standard,North Fork,Madera County,Area Code 559
1403,93644,Standard,Oakhurst,Madera County,Area Code 559
1404,93645,Standard,O Neals,Madera County,Area Code 559
1405,93646,Standard,"Orange Cove, Squaw Valley",Fresno County,Area Code 559
1406,93647,Standard,Orosi,Tulare County,Area Code 559
1407,93648,Standard,Parlier,Fresno County,Area Code 559
1408,93649,PO Box,Piedra,Fresno County,Area Code 559
1409,93650,Standard,"Fresno, Pinedale",Fresno County,Area Code 559
1410,93651,Standard,Prather,Fresno County,Area Code 559
1411,93652,Standard,Raisin City,Fresno County,Area Code 559
1412,93653,Standard,Raymond,Madera County,Area Code 559
1413,93654,Standard,Reedley,Fresno County,Area Code 559
1414,93656,Standard,Riverdale,Fresno County,Area Code 559
1415,93657,Standard,Sanger,Fresno County,Area Code 559
1416,93660,Standard,San Joaquin,Fresno County,Area Code 559
1417,93661,PO Box,"Santa Rita Park, Santa Rita Pk",Merced County,Area Code 209
1418,93662,Standard,Selma,Fresno County,Area Code 559
1419,93664,Standard,Shaver Lake,Fresno County,Area Code 559
1420,93665,PO Box,"South Dos Palos, S Dos Palos",Merced County,Area Code 209
1421,93666,PO Box,Sultana,Tulare County,Area Code 559
1422,93667,Standard,Tollhouse,Fresno County,Area Code 559
1423,93668,Standard,Tranquillity,Fresno County,Area Code 559
1424,93669,Standard,"Wishon, Bass Lake",Madera County,Area Code 559
1425,93670,PO Box,Yettem,Tulare County,Area Code 559
1426,93673,PO Box,Traver,Tulare County,Area Code 559
1427,93675,Standard,"Squaw Valley, Orange Cove",Fresno County,Area Code 559
1428,93701,Standard,Fresno,Fresno County,Area Code 209Area Code 559
1429,93702,Standard,Fresno,Fresno County,Area Code 559
1430,93703,Standard,Fresno,Fresno County,Area Code 559
1431,93704,Standard,Fresno,Fresno County,Area Code 559
1432,93705,Standard,Fresno,Fresno County,Area Code 559
1433,93706,Standard,Fresno,Fresno County,Area Code 559
1434,93707,PO Box,Fresno,Fresno County,Area Code 559
1435,93708,PO Box,Fresno,Fresno County,Area Code 559
1436,93709,PO Box,Fresno,Fresno County,Area Code 559
1437,93710,Standard,Fresno,Fresno County,Area Code 559
1438,93711,Standard,Fresno,Fresno County,Area Code 559
1439,93712,PO Box,Fresno,Fresno County,Area Code 559
1440,93714,PO Box,Fresno,Fresno County,Area Code 559
1441,93715,PO Box,Fresno,Fresno County,Area Code 559
1442,93716,PO Box,Fresno,Fresno County,Area Code 559
1443,93717,PO Box,Fresno,Fresno County,Area Code 559
1444,93718,PO Box,Fresno,Fresno County,Area Code 559
1445,93720,Standard,Fresno,Fresno County,Area Code 559
1446,93721,Standard,Fresno,Fresno County,Area Code 209Area Code 559
1447,93722,Standard,Fresno,Fresno County,Area Code 559
1448,93723,Standard,Fresno,Fresno County,Area Code 559
1449,93724,Unique,Fresno,Fresno County,Area Code 559
1450,93725,Standard,Fresno,Fresno County,Area Code 559
1451,93726,Standard,Fresno,Fresno County,Area Code 559
1452,93727,Standard,Fresno,Fresno County,Area Code 559
1453,93728,Standard,Fresno,Fresno County,Area Code 209Area Code 559
1454,93729,PO Box,Fresno,Fresno County,Area Code 559
1455,93730,Standard,Fresno,Fresno County,Area Code 559
1456,93737,Standard,Fresno,Fresno County,Area Code 559
1457,93740,Unique,Fresno,Fresno County,Area Code 559
1458,93741,Unique,Fresno,Fresno County,Area Code 559
1459,93744,PO Box,Fresno,Fresno County,Area Code 559
1460,93745,PO Box,Fresno,Fresno County,Area Code 559
1461,93747,PO Box,Fresno,Fresno County,Area Code 559
1462,93750,Unique,Fresno,Fresno County,Area Code 559
1463,93755,PO Box,Fresno,Fresno County,Area Code 559
1464,93760,Unique,Fresno,Fresno County,Area Code 559
1465,93761,Unique,Fresno,Fresno County,Area Code 559
1466,93764,Unique,Fresno,Fresno County,Area Code 559
1467,93765,Unique,Fresno,Fresno County,Area Code 559
1468,93771,PO Box,Fresno,Fresno County,Area Code 559
1469,93772,PO Box,Fresno,Fresno County,Area Code 559
1470,93773,PO Box,Fresno,Fresno County,Area Code 559
1471,93774,PO Box,Fresno,Fresno County,Area Code 559
1472,93775,PO Box,Fresno,Fresno County,Area Code 559
1473,93776,PO Box,Fresno,Fresno County,Area Code 559
1474,93777,PO Box,Fresno,Fresno County,Area Code 559
1475,93778,PO Box,Fresno,Fresno County,Area Code 559
1476,93779,PO Box,Fresno,Fresno County,Area Code 559
1477,93780,Unique,Fresno,Fresno County,Area Code 559
1478,93784,Unique,Fresno,Fresno County,Area Code 559
1479,93786,Unique,Fresno,Fresno County,Area Code 559
1480,93790,PO Box,Fresno,Fresno County,Area Code 559
1481,93791,PO Box,Fresno,Fresno County,Area Code 559
1482,93792,PO Box,Fresno,Fresno County,Area Code 559
1483,93793,PO Box,Fresno,Fresno County,Area Code 559
1484,93794,PO Box,Fresno,Fresno County,Area Code 559
1485,93844,Unique,Fresno,Fresno County,Area Code 559
1486,93888,Unique,Fresno,Fresno County,Area Code 559
1487,93901,Standard,Salinas,Monterey County,Area Code 408Area Code 831
1488,93902,PO Box,Salinas,Monterey County,Area Code 831
1489,93905,Standard,Salinas,Monterey County,Area Code 408Area Code 831
1490,93906,Standard,Salinas,Monterey County,Area Code 408Area Code 831
1491,93907,Standard,"Salinas, Prunedale",Monterey County,Area Code 831
1492,93908,Standard,"Salinas, Corral De Tie, Corral De Tierra",Monterey County,Area Code 831
1493,93912,PO Box,Salinas,Monterey County,Area Code 831
1494,93915,PO Box,Salinas,Monterey County,Area Code 831
1495,93920,Standard,Big Sur,Monterey County,Area Code 831
1496,93921,PO Box,"Carmel By The Sea, Carmel, Carmel By The",Monterey County,Area Code 831
1497,93922,PO Box,Carmel,Monterey County,Area Code 831
1498,93923,Standard,Carmel,Monterey County,Area Code 831
1499,93924,Standard,Carmel Valley,Monterey County,Area Code 831
1500,93925,Standard,Chualar,Monterey County,Area Code 831
1501,93926,Standard,Gonzales,Monterey County,Area Code 831
1502,93927,Standard,Greenfield,Monterey County,Area Code 831
1503,93928,PO Box,"Jolon, Fort Hunter Liggett, Ft H Liggett",Monterey County,
1504,93930,Standard,King City,Monterey County,Area Code 831
1505,93932,PO Box,Lockwood,Monterey County,
1506,93933,Standard,"Marina, East Garrison",Monterey County,Area Code 831
1507,93940,Standard,"Monterey, Del Rey Oaks",Monterey County,Area Code 831
1508,93942,PO Box,Monterey,Monterey County,Area Code 831
1509,93943,Standard,Monterey,Monterey County,Area Code 831
1510,93944,PO Box,"Monterey, Presidio Mtry, Presidio Of Monterey",Monterey County,Area Code 831
1511,93950,Standard,Pacific Grove,Monterey County,
1512,93953,Standard,Pebble Beach,Monterey County,Area Code 831
1513,93954,PO Box,San Lucas,Monterey County,
1514,93955,Standard,"Seaside, Sand City",Monterey County,
1515,93960,Standard,Soledad,Monterey County,Area Code 831
1516,93962,PO Box,"Spreckels, Salinas",Monterey County,
1517,94002,Standard,Belmont,San Mateo County,Area Code 650
1518,94005,Standard,Brisbane,San Mateo County,Area Code 415Area Code 650
1519,94010,Standard,"Burlingame, Hillsborough",San Mateo County,Area Code 650
1520,94011,PO Box,Burlingame,San Mateo County,Area Code 650
1521,94013,Unique,"Daly City, Sf International Service Ctr",San Mateo County,Area Code 650
1522,94014,Standard,"Daly City, Colma",San Mateo County,Area Code 650
1523,94015,Standard,"Daly City, Broadmoor Vlg",San Mateo County,Area Code 650
1524,94016,PO Box,Daly City,San Mateo County,Area Code 650
1525,94017,PO Box,Daly City,San Mateo County,Area Code 650
1526,94018,PO Box,El Granada,San Mateo County,
1527,94019,Standard,Half Moon Bay,San Mateo County,Area Code 650
1528,94020,Standard,La Honda,San Mateo County,Area Code 650
1529,94021,Standard,Loma Mar,San Mateo County,
1530,94022,Standard,"Los Altos, Los Altos Hills, Los Altos Hls",Santa Clara County,Area Code 650
1531,94023,PO Box,Los Altos,Santa Clara County,Area Code 650
1532,94024,Standard,"Los Altos, Los Altos Hills, Los Altos Hls",Santa Clara County,Area Code 650
1533,94025,Standard,"Menlo Park, W Menlo Park, West Menlo Park",San Mateo County,Area Code 650
1534,94026,PO Box,Menlo Park,San Mateo County,Area Code 650
1535,94027,Standard,"Atherton, Menlo Park",San Mateo County,
1536,94028,Standard,"Portola Valley, Menlo Park, Portola Vally",San Mateo County,
1537,94030,Standard,Millbrae,San Mateo County,Area Code 650
1538,94035,PO Box,"Mountain View, Moffett Field",Santa Clara County,Area Code 650
1539,94037,PO Box,Montara,San Mateo County,
1540,94038,Standard,Moss Beach,San Mateo County,Area Code 650
1541,94039,PO Box,Mountain View,Santa Clara County,Area Code 650
1542,94040,Standard,Mountain View,Santa Clara County,Area Code 650
1543,94041,Standard,Mountain View,Santa Clara County,Area Code 650
1544,94042,PO Box,Mountain View,Santa Clara County,Area Code 650
1545,94043,Standard,Mountain View,Santa Clara County,Area Code 650
1546,94044,Standard,Pacifica,San Mateo County,Area Code 650
1547,94060,Standard,Pescadero,San Mateo County,Area Code 650
1548,94061,Standard,"Redwood City, Woodside",San Mateo County,Area Code 650
1549,94062,Standard,"Redwood City, Emerald Hills, Palomar Park, Woodside",San Mateo County,Area Code 650
1550,94063,Standard,Redwood City,San Mateo County,Area Code 650
1551,94064,PO Box,Redwood City,San Mateo County,Area Code 650
1552,94065,Standard,Redwood City,San Mateo County,Area Code 650
1553,94066,Standard,San Bruno,San Mateo County,Area Code 650
1554,94070,Standard,San Carlos,San Mateo County,Area Code 650
1555,94074,Standard,San Gregorio,San Mateo County,
1556,94080,Standard,"South San Francisco, S San Fran",San Mateo County,Area Code 650
1557,94083,PO Box,"South San Francisco, S San Fran",San Mateo County,Area Code 650
1558,94085,Standard,Sunnyvale,Santa Clara County,Area Code 408Area Code 669Area Code 510Area Code 650
1559,94086,Standard,Sunnyvale,Santa Clara County,Area Code 510Area Code 408Area Code 650Area Code 669
1560,94087,Standard,Sunnyvale,Santa Clara County,Area Code 408Area Code 669
1561,94088,PO Box,"Sunnyvale, Onizuka AFB",Santa Clara County,Area Code 408
1562,94089,Standard,Sunnyvale,Santa Clara County,Area Code 650Area Code 408Area Code 510
1563,94101,Standard,San Francisco,San Francisco County,Area Code 415
1564,94102,Standard,San Francisco,San Francisco County,Area Code 415Area Code 510
1565,94103,Standard,San Francisco,San Francisco County,Area Code 510Area Code 650Area Code 415
1566,94104,Standard,San Francisco,San Francisco County,Area Code 415Area Code 510Area Code 650
1567,94105,Standard,San Francisco,San Francisco County,Area Code 510Area Code 415Area Code 650
1568,94106,Unique,San Francisco,San Francisco County,Area Code 415
1569,94107,Standard,San Francisco,San Francisco County,Area Code 650Area Code 415Area Code 510
1570,94108,Standard,San Francisco,San Francisco County,Area Code 510Area Code 415Area Code 650
1571,94109,Standard,San Francisco,San Francisco County,Area Code 415
1572,94110,Standard,San Francisco,San Francisco County,Area Code 510Area Code 415
1573,94111,Standard,San Francisco,San Francisco County,Area Code 415Area Code 510Area Code 650
1574,94112,Standard,San Francisco,San Francisco County,Area Code 510Area Code 415Area Code 650
1575,94114,Standard,San Francisco,San Francisco County,Area Code 415
1576,94115,Standard,San Francisco,San Francisco County,Area Code 415
1577,94116,Standard,San Francisco,San Francisco County,Area Code 415
1578,94117,Standard,San Francisco,San Francisco County,Area Code 415
1579,94118,Standard,San Francisco,San Francisco County,Area Code 415
1580,94119,PO Box,San Francisco,San Francisco County,Area Code 415
1581,94120,PO Box,San Francisco,San Francisco County,Area Code 415
1582,94121,Standard,San Francisco,San Francisco County,Area Code 415
1583,94122,Standard,San Francisco,San Francisco County,Area Code 415
1584,94123,Standard,San Francisco,San Francisco County,Area Code 415
1585,94124,Standard,San Francisco,San Francisco County,Area Code 510Area Code 415
1586,94125,PO Box,San Francisco,San Francisco County,Area Code 415
1587,94126,PO Box,San Francisco,San Francisco County,Area Code 415
1588,94127,Standard,San Francisco,San Francisco County,Area Code 650Area Code 415
1589,94128,Standard,San Francisco,San Mateo County,Area Code 415
1590,94129,Standard,San Francisco,San Francisco County,Area Code 415
1591,94130,Standard,San Francisco,San Francisco County,Area Code 510
1592,94131,Standard,San Francisco,San Francisco County,Area Code 415Area Code 650
1593,94132,Standard,San Francisco,San Francisco County,Area Code 415
1594,94133,Standard,San Francisco,San Francisco County,Area Code 415
1595,94134,Standard,San Francisco,San Francisco County,Area Code 415Area Code 510
1596,94135,Unique,San Francisco,San Francisco County,Area Code 415
1597,94136,Unique,San Francisco,San Francisco County,Area Code 415
1598,94137,Unique,San Francisco,San Francisco County,Area Code 415
1599,94138,Unique,San Francisco,San Francisco County,Area Code 415
1600,94139,Unique,San Francisco,San Francisco County,Area Code 415
1601,94140,PO Box,San Francisco,San Francisco County,Area Code 415
1602,94141,Standard,San Francisco,San Francisco County,Area Code 415
1603,94142,PO Box,San Francisco,San Francisco County,Area Code 415
1604,94143,Standard,San Francisco,San Francisco County,Area Code 415
1605,94144,Unique,San Francisco,San Francisco County,Area Code 415
1606,94145,Unique,San Francisco,San Francisco County,Area Code 415
1607,94146,PO Box,San Francisco,San Francisco County,Area Code 415
1608,94147,PO Box,San Francisco,San Francisco County,Area Code 415
1609,94150,Unique,San Francisco,San Francisco County,Area Code 415
1610,94151,Unique,San Francisco,San Francisco County,Area Code 415
1611,94152,Unique,San Francisco,San Francisco County,Area Code 415
1612,94153,Unique,San Francisco,San Francisco County,Area Code 415
1613,94154,Unique,San Francisco,San Francisco County,Area Code 415
1614,94155,Unique,San Francisco,San Francisco County,Area Code 415
1615,94156,Unique,San Francisco,San Francisco County,Area Code 415
1616,94158,Standard,San Francisco,San Francisco County,Area Code 415
1617,94159,PO Box,San Francisco,San Francisco County,Area Code 415
1618,94160,Unique,San Francisco,San Francisco County,Area Code 415
1619,94161,Unique,San Francisco,San Francisco County,Area Code 415
1620,94162,Unique,San Francisco,San Francisco County,Area Code 415
1621,94163,Unique,San Francisco,San Francisco County,Area Code 415
1622,94164,PO Box,San Francisco,San Francisco County,Area Code 415
1623,94171,Unique,San Francisco,San Francisco County,Area Code 415
1624,94172,PO Box,San Francisco,San Francisco County,Area Code 415
1625,94175,Unique,San Francisco,San Francisco County,Area Code 415
1626,94177,Unique,San Francisco,San Francisco County,Area Code 415
1627,94188,Standard,San Francisco,San Francisco County,Area Code 415
1628,94199,Unique,"San Francisco, Pacific Area Office",San Francisco County,Area Code 415
1629,94203,Unique,Sacramento,Sacramento County,Area Code 916
1630,94204,Unique,Sacramento,Sacramento County,Area Code 916
1631,94205,Unique,Sacramento,Sacramento County,Area Code 916
1632,94206,Unique,Sacramento,Sacramento County,Area Code 916
1633,94207,Unique,Sacramento,Sacramento County,Area Code 916
1634,94208,Unique,Sacramento,Sacramento County,Area Code 916
1635,94209,Unique,Sacramento,Sacramento County,Area Code 916
1636,94211,Unique,Sacramento,Sacramento County,Area Code 916
1637,94229,Unique,Sacramento,Sacramento County,Area Code 916
1638,94230,Unique,Sacramento,Sacramento County,Area Code 916
1639,94232,Unique,Sacramento,Sacramento County,Area Code 916
1640,94234,Unique,Sacramento,Sacramento County,Area Code 916
1641,94235,Unique,Sacramento,Sacramento County,Area Code 916
1642,94236,Unique,Sacramento,Sacramento County,Area Code 916
1643,94237,Unique,Sacramento,Sacramento County,Area Code 916
1644,94239,Unique,Sacramento,Sacramento County,Area Code 916
1645,94240,Unique,Sacramento,Sacramento County,Area Code 916
1646,94244,Unique,Sacramento,Sacramento County,Area Code 916
1647,94245,Unique,Sacramento,Sacramento County,Area Code 916
1648,94246,PO Box,Sacramento,Sacramento County,Area Code 916
1649,94247,Unique,Sacramento,Sacramento County,Area Code 916
1650,94248,Unique,Sacramento,Sacramento County,Area Code 916
1651,94249,Unique,Sacramento,Sacramento County,Area Code 916
1652,94250,Unique,Sacramento,Sacramento County,Area Code 916
1653,94252,Unique,Sacramento,Sacramento County,Area Code 916
1654,94254,Unique,Sacramento,Sacramento County,Area Code 916
1655,94256,Unique,Sacramento,Sacramento County,Area Code 916
1656,94257,Unique,Sacramento,Sacramento County,Area Code 916
1657,94258,Unique,Sacramento,Sacramento County,Area Code 916
1658,94259,Unique,Sacramento,Sacramento County,Area Code 916
1659,94261,Unique,Sacramento,Sacramento County,Area Code 916
1660,94262,Unique,Sacramento,Sacramento County,Area Code 916
1661,94263,Unique,Sacramento,Sacramento County,Area Code 916
1662,94267,Unique,Sacramento,Sacramento County,Area Code 916
1663,94268,Unique,Sacramento,Sacramento County,Area Code 916
1664,94269,Unique,Sacramento,Sacramento County,Area Code 916
1665,94271,Unique,Sacramento,Sacramento County,Area Code 916
1666,94273,Unique,Sacramento,Sacramento County,Area Code 916
1667,94274,Unique,Sacramento,Sacramento County,Area Code 916
1668,94277,Unique,Sacramento,Sacramento County,Area Code 916
1669,94278,Unique,Sacramento,Sacramento County,Area Code 916
1670,94279,Unique,Sacramento,Sacramento County,Area Code 916
1671,94280,Unique,Sacramento,Sacramento County,Area Code 916
1672,94282,Unique,Sacramento,Sacramento County,Area Code 916
1673,94283,Unique,Sacramento,Sacramento County,Area Code 916
1674,94284,Unique,Sacramento,Sacramento County,Area Code 916
1675,94285,Unique,Sacramento,Sacramento County,Area Code 916
1676,94286,PO Box,Sacramento,Sacramento County,Area Code 916
1677,94287,Unique,Sacramento,Sacramento County,Area Code 916
1678,94288,Unique,Sacramento,Sacramento County,Area Code 916
1679,94289,Unique,Sacramento,Sacramento County,Area Code 916
1680,94290,Unique,Sacramento,Sacramento County,Area Code 916
1681,94291,Unique,Sacramento,Sacramento County,Area Code 916
1682,94293,Unique,Sacramento,Sacramento County,Area Code 916
1683,94294,Unique,Sacramento,Sacramento County,Area Code 916
1684,94295,Unique,Sacramento,Sacramento County,Area Code 916
1685,94296,Unique,Sacramento,Sacramento County,Area Code 916
1686,94297,Unique,Sacramento,Sacramento County,Area Code 916
1687,94298,Unique,Sacramento,Sacramento County,Area Code 916
1688,94299,Unique,Sacramento,Sacramento County,Area Code 916
1689,94301,Standard,Palo Alto,Santa Clara County,Area Code 650
1690,94302,PO Box,Palo Alto,Santa Clara County,Area Code 650
1691,94303,Standard,"Palo Alto, E Palo Alto, East Palo Alto",San Mateo County,Area Code 650
1692,94304,Standard,Palo Alto,Santa Clara County,Area Code 650
1693,94305,Standard,"Stanford, Palo Alto",Santa Clara County,Area Code 650
1694,94306,Standard,Palo Alto,Santa Clara County,Area Code 650
1695,94309,PO Box,"Palo Alto, Stanford",Santa Clara County,Area Code 650
1696,94401,Standard,San Mateo,San Mateo County,Area Code 650
1697,94402,Standard,San Mateo,San Mateo County,Area Code 650
1698,94403,Standard,San Mateo,San Mateo County,Area Code 650
1699,94404,Standard,"San Mateo, Foster City",San Mateo County,Area Code 650
1700,94497,Unique,San Mateo,San Mateo County,Area Code 650
1701,94501,Standard,Alameda,Alameda County,Area Code 510
1702,94502,Standard,Alameda,Alameda County,Area Code 510
1703,94503,Standard,"American Canyon, American Cyn, Vallejo",Napa County,Area Code 707
1704,94505,Standard,"Discovery Bay, Byron",Contra Costa County,
1705,94506,Standard,"Danville, Blackhawk",Contra Costa County,Area Code 925
1706,94507,Standard,Alamo,Contra Costa County,
1707,94508,Standard,Angwin,Napa County,Area Code 707
1708,94509,Standard,Antioch,Contra Costa County,Area Code 925
1709,94510,Standard,Benicia,Solano County,Area Code 707
1710,94511,PO Box,Bethel Island,Contra Costa County,
1711,94512,Standard,Birds Landing,Solano County,Area Code 707
1712,94513,Standard,Brentwood,Contra Costa County,Area Code 925
1713,94514,Standard,"Byron, Discovery Bay",Contra Costa County,Area Code 925
1714,94515,Standard,Calistoga,Napa County,Area Code 707
1715,94516,PO Box,Canyon,Contra Costa County,
1716,94517,Standard,Clayton,Contra Costa County,Area Code 925
1717,94518,Standard,Concord,Contra Costa County,Area Code 925
1718,94519,Standard,Concord,Contra Costa County,Area Code 925
1719,94520,Standard,Concord,Contra Costa County,Area Code 925
1720,94521,Standard,Concord,Contra Costa County,Area Code 925
1721,94522,PO Box,Concord,Contra Costa County,Area Code 925
1722,94523,Standard,"Pleasant Hill, Concord",Contra Costa County,Area Code 925
1723,94524,PO Box,Concord,Contra Costa County,Area Code 925
1724,94525,Standard,Crockett,Contra Costa County,Area Code 510
1725,94526,Standard,Danville,Contra Costa County,Area Code 925
1726,94527,PO Box,Concord,Contra Costa County,Area Code 925
1727,94528,PO Box,Diablo,Contra Costa County,
1728,94529,Unique,Concord,Contra Costa County,Area Code 925
1729,94530,Standard,El Cerrito,Contra Costa County,
1730,94531,Standard,Antioch,Contra Costa County,Area Code 925
1731,94533,Standard,Fairfield,Solano County,Area Code 707
1732,94534,Standard,"Fairfield, Suisun City",Solano County,Area Code 707
1733,94535,Standard,"Travis AFB, Fairfield",Solano County,Area Code 707
1734,94536,Standard,Fremont,Alameda County,Area Code 408Area Code 510Area Code 650Area Code 669Area Code 925
1735,94537,PO Box,Fremont,Alameda County,Area Code 510
1736,94538,Standard,Fremont,Alameda County,Area Code 408Area Code 510Area Code 650Area Code 669Area Code 925
1737,94539,Standard,Fremont,Alameda County,Area Code 408Area Code 510Area Code 650Area Code 669Area Code 925
1738,94540,PO Box,Hayward,Alameda County,Area Code 510
1739,94541,Standard,Hayward,Alameda County,Area Code 925Area Code 510
1740,94542,Standard,Hayward,Alameda County,Area Code 510
1741,94543,PO Box,Hayward,Alameda County,Area Code 510
1742,94544,Standard,Hayward,Alameda County,Area Code 510Area Code 925
1743,94545,Standard,Hayward,Alameda County,Area Code 510Area Code 925
1744,94546,Standard,"Castro Valley, Hayward",Alameda County,Area Code 510
1745,94547,Standard,"Hercules, Rodeo",Contra Costa County,Area Code 510
1746,94548,PO Box,Knightsen,Contra Costa County,
1747,94549,Standard,Lafayette,Contra Costa County,Area Code 925
1748,94550,Standard,Livermore,Alameda County,Area Code 925
1749,94551,Standard,Livermore,Alameda County,Area Code 925
1750,94552,Standard,"Castro Valley, Hayward",Alameda County,Area Code 510
1751,94553,Standard,"Martinez, Briones, Pacheco",Contra Costa County,Area Code 925
1752,94555,Standard,Fremont,Alameda County,Area Code 510
1753,94556,Standard,Moraga,Contra Costa County,Area Code 925
1754,94557,PO Box,"Hayward, Mount Eden",Alameda County,Area Code 510
1755,94558,Standard,"Napa, Spanish Flat",Napa County,Area Code 707
1756,94559,Standard,Napa,Napa County,Area Code 707
1757,94560,Standard,Newark,Alameda County,Area Code 510
1758,94561,Standard,Oakley,Contra Costa County,Area Code 925
1759,94562,PO Box,Oakville,Napa County,Area Code 707
1760,94563,Standard,Orinda,Contra Costa County,Area Code 925
1761,94564,Standard,Pinole,Contra Costa County,Area Code 510
1762,94565,Standard,"Pittsburg, Bay Point",Contra Costa County,Area Code 925
1763,94566,Standard,Pleasanton,Alameda County,Area Code 925
1764,94567,Standard,Pope Valley,Napa County,Area Code 707
1765,94568,Standard,"Dublin, Pleasanton",Alameda County,Area Code 925
1766,94569,PO Box,Port Costa,Contra Costa County,
1767,94570,PO Box,Moraga,Contra Costa County,Area Code 925
1768,94571,Standard,Rio Vista,Solano County,Area Code 707
1769,94572,Standard,Rodeo,Contra Costa County,Area Code 510
1770,94573,PO Box,Rutherford,Napa County,Area Code 707
1771,94574,Standard,Saint Helena,Napa County,Area Code 707
1772,94575,Standard,Moraga,Contra Costa County,Area Code 925
1773,94576,Standard,"Deer Park, Angwin",Napa County,Area Code 707
1774,94577,Standard,San Leandro,Alameda County,Area Code 510
1775,94578,Standard,San Leandro,Alameda County,Area Code 510
1776,94579,Standard,San Leandro,Alameda County,Area Code 510
1777,94580,Standard,San Lorenzo,Alameda County,
1778,94581,PO Box,Napa,Napa County,Area Code 707
1779,94582,Standard,San Ramon,Contra Costa County,Area Code 925
1780,94583,Standard,San Ramon,Contra Costa County,Area Code 925
1781,94585,Standard,"Suisun City, Birds Lndg",Solano County,Area Code 707
1782,94586,Standard,Sunol,Alameda County,Area Code 925
1783,94587,Standard,Union City,Alameda County,Area Code 510
1784,94588,Standard,Pleasanton,Alameda County,Area Code 925
1785,94589,Standard,"Vallejo, American Canyon, American Cyn",Solano County,Area Code 707
1786,94590,Standard,Vallejo,Solano County,Area Code 707
1787,94591,Standard,Vallejo,Solano County,Area Code 707
1788,94592,Standard,Vallejo,Solano County,Area Code 707
1789,94595,Standard,"Walnut Creek, Lafayette",Contra Costa County,Area Code 925Area Code 510Area Code 707
1790,94596,Standard,Walnut Creek,Contra Costa County,Area Code 510Area Code 707Area Code 925
1791,94597,Standard,"Walnut Creek, Lafayette",Contra Costa County,Area Code 925
1792,94598,Standard,Walnut Creek,Contra Costa County,Area Code 510Area Code 707Area Code 925
1793,94599,Standard,Yountville,Napa County,Area Code 707
1794,94601,Standard,Oakland,Alameda County,Area Code 510
1795,94602,Standard,"Oakland, Piedmont",Alameda County,Area Code 510
1796,94603,Standard,Oakland,Alameda County,Area Code 510
1797,94604,PO Box,Oakland,Alameda County,Area Code 510
1798,94605,Standard,Oakland,Alameda County,Area Code 510
1799,94606,Standard,Oakland,Alameda County,Area Code 510
1800,94607,Standard,Oakland,Alameda County,Area Code 415Area Code 510
1801,94608,Standard,"Emeryville, Oakland",Alameda County,Area Code 510
1802,94609,Standard,Oakland,Alameda County,Area Code 510
1803,94610,Standard,"Oakland, Piedmont",Alameda County,Area Code 415Area Code 510
1804,94611,Standard,"Oakland, Piedmont",Alameda County,Area Code 510
1805,94612,Standard,Oakland,Alameda County,Area Code 415Area Code 925Area Code 510
1806,94613,PO Box,Oakland,Alameda County,Area Code 510
1807,94614,PO Box,Oakland,Alameda County,Area Code 510
1808,94615,Standard,Oakland,Alameda County,Area Code 415Area Code 510Area Code 925
1809,94617,Standard,Oakland,Alameda County,Area Code 415Area Code 510Area Code 925
1810,94618,Standard,"Oakland, Piedmont",Alameda County,Area Code 510
1811,94619,Standard,Oakland,Alameda County,Area Code 510
1812,94620,PO Box,"Piedmont, Oakland",Alameda County,Area Code 510
1813,94621,Standard,Oakland,Alameda County,Area Code 510
1814,94622,Unique,Oakland,Alameda County,Area Code 510
1815,94623,PO Box,Oakland,Alameda County,Area Code 510
1816,94624,PO Box,Oakland,Alameda County,Area Code 510
1817,94625,Unique,Oakland,Alameda County,Area Code 510
1818,94649,Unique,Oakland,Alameda County,Area Code 510
1819,94659,Unique,Oakland,Alameda County,Area Code 510
1820,94660,Unique,Oakland,Alameda County,Area Code 510
1821,94661,PO Box,Oakland,Alameda County,Area Code 510
1822,94662,PO Box,"Emeryville, Oakland",Alameda County,Area Code 510
1823,94666,Unique,Oakland,Alameda County,Area Code 510
1824,94701,PO Box,Berkeley,Alameda County,Area Code 510
1825,94702,Standard,Berkeley,Alameda County,Area Code 510
1826,94703,Standard,Berkeley,Alameda County,Area Code 510
1827,94704,Standard,Berkeley,Alameda County,Area Code 510
1828,94705,Standard,Berkeley,Alameda County,Area Code 510
1829,94706,Standard,"Albany, Berkeley, Kensington",Alameda County,Area Code 510
1830,94707,Standard,"Berkeley, Albany, Kensington",Alameda County,Area Code 510
1831,94708,Standard,"Berkeley, Kensington",Alameda County,Area Code 510
1832,94709,Standard,Berkeley,Alameda County,Area Code 510
1833,94710,Standard,"Berkeley, Albany",Alameda County,Area Code 510
1834,94712,PO Box,Berkeley,Alameda County,Area Code 510
1835,94720,Unique,Berkeley,Alameda County,Area Code 510
1836,94801,Standard,"Richmond, N Richmond, North Richmond, Point Richmo...",Contra Costa County,Area Code 510
1837,94802,PO Box,Richmond,Contra Costa County,Area Code 510
1838,94803,Standard,"El Sobrante, Richmond, San Pablo",Contra Costa County,Area Code 510
1839,94804,Standard,Richmond,Contra Costa County,Area Code 510
1840,94805,Standard,"Richmond, San Pablo",Contra Costa County,Area Code 510
1841,94806,Standard,"San Pablo, Hilltop Mall, Richmond",Contra Costa County,
1842,94807,PO Box,Richmond,Contra Costa County,Area Code 510
1843,94808,PO Box,Richmond,Contra Costa County,Area Code 510
1844,94820,PO Box,"El Sobrante, Richmond",Contra Costa County,Area Code 510
1845,94850,Standard,Richmond,Contra Costa County,Area Code 510
1846,94901,Standard,"San Rafael, San Anselmo",Marin County,Area Code 415
1847,94903,Standard,San Rafael,Marin County,Area Code 415
1848,94904,Standard,"Greenbrae, Kentfield",Marin County,Area Code 415
1849,94912,PO Box,San Rafael,Marin County,Area Code 415
1850,94913,PO Box,San Rafael,Marin County,Area Code 415
1851,94914,PO Box,Kentfield,Marin County,
1852,94915,PO Box,San Rafael,Marin County,Area Code 415
1853,94920,Standard,"Belvedere Tiburon, Bel Tiburon, Belvedere, Tiburon",Marin County,Area Code 415
1854,94922,Standard,Bodega,Sonoma County,Area Code 707
1855,94923,Standard,Bodega Bay,Sonoma County,Area Code 707
1856,94924,Standard,Bolinas,Marin County,Area Code 415
1857,94925,Standard,Corte Madera,Marin County,Area Code 415
1858,94926,Unique,"Rohnert Park, Cotati",Sonoma County,Area Code 707
1859,94927,PO Box,"Rohnert Park, Cotati",Sonoma County,Area Code 707
1860,94928,Standard,"Rohnert Park, Cotati",Sonoma County,Area Code 707
1861,94929,PO Box,Dillon Beach,Marin County,
1862,94930,Standard,Fairfax,Marin County,Area Code 415
1863,94931,Standard,Cotati,Sonoma County,Area Code 707
1864,94933,PO Box,Forest Knolls,Marin County,
1865,94937,Standard,Inverness,Marin County,Area Code 415
1866,94938,PO Box,Lagunitas,Marin County,
1867,94939,Standard,Larkspur,Marin County,Area Code 415
1868,94940,Standard,Marshall,Marin County,Area Code 707
1869,94941,Standard,Mill Valley,Marin County,Area Code 415
1870,94942,PO Box,Mill Valley,Marin County,Area Code 415
1871,94945,Standard,Novato,Marin County,Area Code 415
1872,94946,Standard,Nicasio,Marin County,Area Code 415
1873,94947,Standard,Novato,Marin County,Area Code 415
1874,94948,PO Box,Novato,Marin County,Area Code 415
1875,94949,Standard,Novato,Marin County,Area Code 415
1876,94950,PO Box,Olema,Marin County,
1877,94951,Standard,Penngrove,Sonoma County,Area Code 707
1878,94952,Standard,Petaluma,Sonoma County,Area Code 707
1879,94953,PO Box,Petaluma,Sonoma County,Area Code 707
1880,94954,Standard,Petaluma,Sonoma County,Area Code 707
1881,94955,PO Box,Petaluma,Sonoma County,Area Code 707
1882,94956,Standard,"Point Reyes Station, Pt Reyes Sta",Marin County,Area Code 415
1883,94957,PO Box,Ross,Marin County,
1884,94960,Standard,San Anselmo,Marin County,Area Code 415
1885,94963,PO Box,San Geronimo,Marin County,
1886,94964,PO Box,San Quentin,Marin County,
1887,94965,Standard,"Sausalito, Muir Beach",Marin County,Area Code 415
1888,94966,PO Box,Sausalito,Marin County,Area Code 415
1889,94970,Standard,Stinson Beach,Marin County,Area Code 415
1890,94971,PO Box,Tomales,Marin County,
1891,94972,Standard,Valley Ford,Marin County,Area Code 707
1892,94973,PO Box,Woodacre,Marin County,
1893,94974,Standard,San Quentin,Marin County,Area Code 415
1894,94975,PO Box,Petaluma,Sonoma County,Area Code 707
1895,94976,PO Box,Corte Madera,Marin County,Area Code 415
1896,94977,PO Box,Larkspur,Marin County,Area Code 415
1897,94978,PO Box,Fairfax,Marin County,Area Code 415
1898,94979,PO Box,San Anselmo,Marin County,Area Code 415
1899,94998,Unique,Novato,Marin County,Area Code 415
1900,94999,Standard,Petaluma,Sonoma County,Area Code 707
1901,95001,PO Box,Aptos,Santa Cruz County,Area Code 831
1902,95002,PO Box,"Alviso, San Jose",Santa Clara County,Area Code 408
1903,95003,Standard,Aptos,Santa Cruz County,Area Code 831
1904,95004,Standard,Aromas,Monterey County,Area Code 831
1905,95005,Standard,Ben Lomond,Santa Cruz County,Area Code 831
1906,95006,Standard,Boulder Creek,Santa Cruz County,Area Code 831
1907,95007,PO Box,Brookdale,Santa Cruz County,Area Code 831
1908,95008,Standard,Campbell,Santa Clara County,Area Code 408Area Code 669
1909,95009,PO Box,Campbell,Santa Clara County,Area Code 408
1910,95010,Standard,Capitola,Santa Cruz County,Area Code 831
1911,95011,PO Box,Campbell,Santa Clara County,Area Code 408
1912,95012,Standard,Castroville,Monterey County,Area Code 831
1913,95013,PO Box,Coyote,Santa Clara County,Area Code 408
1914,95014,Standard,"Cupertino, Monte Vista, Permanente",Santa Clara County,Area Code 408
1915,95015,PO Box,Cupertino,Santa Clara County,Area Code 408
1916,95017,Standard,Davenport,Santa Cruz County,Area Code 831
1917,95018,Standard,Felton,Santa Cruz County,Area Code 831
1918,95019,Standard,Freedom,Santa Cruz County,Area Code 831
1919,95020,Standard,Gilroy,Santa Clara County,Area Code 408Area Code 669
1920,95021,PO Box,Gilroy,Santa Clara County,Area Code 408
1921,95023,Standard,Hollister,San Benito County,Area Code 408Area Code 831
1922,95024,PO Box,Hollister,San Benito County,Area Code 831
1923,95026,PO Box,"Holy City, Redwood Est, Redwood Estates",Santa Clara County,
1924,95030,Standard,"Los Gatos, Monte Sereno",Santa Clara County,Area Code 669Area Code 408
1925,95031,PO Box,Los Gatos,Santa Clara County,Area Code 408
1926,95032,Standard,Los Gatos,Santa Clara County,Area Code 408Area Code 669
1927,95033,Standard,Los Gatos,Santa Cruz County,Area Code 408Area Code 669
1928,95035,Standard,Milpitas,Santa Clara County,Area Code 408
1929,95036,PO Box,Milpitas,Santa Clara County,Area Code 408
1930,95037,Standard,Morgan Hill,Santa Clara County,Area Code 408Area Code 669
1931,95038,PO Box,Morgan Hill,Santa Clara County,Area Code 408
1932,95039,Standard,Moss Landing,Monterey County,
1933,95041,PO Box,Mount Hermon,Santa Cruz County,Area Code 831
1934,95042,PO Box,New Almaden,Santa Clara County,Area Code 408
1935,95043,Standard,Paicines,San Benito County,Area Code 831
1936,95044,PO Box,"Redwood Estates, Redwood Est",Santa Clara County,
1937,95045,Standard,"San Juan Bautista, Sn Jun Batsta",San Benito County,Area Code 408Area Code 831
1938,95046,Standard,San Martin,Santa Clara County,Area Code 408Area Code 669
1939,95050,Standard,Santa Clara,Santa Clara County,Area Code 408
1940,95051,Standard,Santa Clara,Santa Clara County,Area Code 408
1941,95052,PO Box,Santa Clara,Santa Clara County,Area Code 408
1942,95053,Unique,Santa Clara,Santa Clara County,Area Code 408
1943,95054,Standard,Santa Clara,Santa Clara County,Area Code 408
1944,95055,PO Box,Santa Clara,Santa Clara County,Area Code 408
1945,95056,PO Box,Santa Clara,Santa Clara County,Area Code 408
1946,95060,Standard,"Santa Cruz, Bonny Doon, Scotts Valley",Santa Cruz County,Area Code 831
1947,95061,PO Box,Santa Cruz,Santa Cruz County,Area Code 831
1948,95062,Standard,Santa Cruz,Santa Cruz County,Area Code 831
1949,95063,PO Box,Santa Cruz,Santa Cruz County,Area Code 831
1950,95064,Standard,Santa Cruz,Santa Cruz County,Area Code 831
1951,95065,Standard,Santa Cruz,Santa Cruz County,Area Code 831
1952,95066,Standard,"Scotts Valley, Santa Cruz",Santa Cruz County,Area Code 831
1953,95067,PO Box,"Scotts Valley, Santa Cruz",Santa Cruz County,Area Code 831
1954,95070,Standard,Saratoga,Santa Clara County,Area Code 408
1955,95071,PO Box,Saratoga,Santa Clara County,Area Code 408
1956,95073,Standard,Soquel,Santa Cruz County,Area Code 831
1957,95075,Standard,Tres Pinos,San Benito County,Area Code 408Area Code 831
1958,95076,Standard,"Watsonville, Corralitos, La Selva Bch, La Selva Beach...",Santa Cruz County,Area Code 408Area Code 831
1959,95077,PO Box,Watsonville,Santa Cruz County,Area Code 831
1960,95101,Standard,San Jose,Santa Clara County,Area Code 408Area Code 510Area Code 650Area Code 669
1961,95103,PO Box,San Jose,Santa Clara County,Area Code 408
1962,95106,PO Box,San Jose,Santa Clara County,Area Code 408
1963,95108,PO Box,San Jose,Santa Clara County,Area Code 408
1964,95109,PO Box,San Jose,Santa Clara County,Area Code 408
1965,95110,Standard,San Jose,Santa Clara County,Area Code 408Area Code 650Area Code 669
1966,95111,Standard,San Jose,Santa Clara County,Area Code 408
1967,95112,Standard,San Jose,Santa Clara County,Area Code 408Area Code 650Area Code 669
1968,95113,Standard,San Jose,Santa Clara County,Area Code 408Area Code 650Area Code 669
1969,95115,PO Box,San Jose,Santa Clara County,Area Code 408
1970,95116,Standard,San Jose,Santa Clara County,Area Code 408
1971,95117,Standard,San Jose,Santa Clara County,Area Code 408
1972,95118,Standard,San Jose,Santa Clara County,Area Code 408
1973,95119,Standard,San Jose,Santa Clara County,Area Code 408Area Code 669
1974,95120,Standard,San Jose,Santa Clara County,Area Code 408
1975,95121,Standard,San Jose,Santa Clara County,Area Code 408
1976,95122,Standard,San Jose,Santa Clara County,Area Code 408
1977,95123,Standard,San Jose,Santa Clara County,Area Code 408Area Code 669
1978,95124,Standard,San Jose,Santa Clara County,Area Code 408
1979,95125,Standard,San Jose,Santa Clara County,Area Code 408
1980,95126,Standard,San Jose,Santa Clara County,Area Code 408
1981,95127,Standard,San Jose,Santa Clara County,Area Code 408
1982,95128,Standard,San Jose,Santa Clara County,Area Code 408
1983,95129,Standard,San Jose,Santa Clara County,Area Code 408
1984,95130,Standard,San Jose,Santa Clara County,Area Code 408
1985,95131,Standard,San Jose,Santa Clara County,Area Code 408Area Code 510Area Code 650Area Code 669
1986,95132,Standard,San Jose,Santa Clara County,Area Code 408
1987,95133,Standard,San Jose,Santa Clara County,Area Code 408
1988,95134,Standard,San Jose,Santa Clara County,Area Code 408Area Code 510Area Code 650Area Code 669
1989,95135,Standard,San Jose,Santa Clara County,Area Code 408
1990,95136,Standard,San Jose,Santa Clara County,Area Code 408
1991,95138,Standard,San Jose,Santa Clara County,Area Code 408Area Code 669
1992,95139,Standard,San Jose,Santa Clara County,Area Code 408
1993,95140,Standard,"Mount Hamilton, Mt Hamilton, San Jose",Santa Clara County,Area Code 408
1994,95141,Standard,San Jose,Santa Clara County,Area Code 408
1995,95148,Standard,San Jose,Santa Clara County,Area Code 408
1996,95150,PO Box,San Jose,Santa Clara County,Area Code 408
1997,95151,PO Box,San Jose,Santa Clara County,Area Code 408
1998,95152,PO Box,San Jose,Santa Clara County,Area Code 408
1999,95153,PO Box,San Jose,Santa Clara County,Area Code 408
2000,95154,PO Box,San Jose,Santa Clara County,Area Code 408
2001,95155,PO Box,San Jose,Santa Clara County,Area Code 408
2002,95156,PO Box,San Jose,Santa Clara County,Area Code 408
2003,95157,PO Box,San Jose,Santa Clara County,Area Code 408
2004,95158,PO Box,San Jose,Santa Clara County,Area Code 408
2005,95159,PO Box,San Jose,Santa Clara County,Area Code 408
2006,95160,PO Box,San Jose,Santa Clara County,Area Code 408
2007,95161,PO Box,San Jose,Santa Clara County,Area Code 408
2008,95164,PO Box,San Jose,Santa Clara County,Area Code 408
2009,95170,PO Box,San Jose,Santa Clara County,Area Code 408
2010,95172,PO Box,San Jose,Santa Clara County,Area Code 408
2011,95173,PO Box,San Jose,Santa Clara County,Area Code 408
2012,95190,Unique,San Jose,Santa Clara County,Area Code 408
2013,95191,Unique,San Jose,Santa Clara County,Area Code 408
2014,95192,Unique,San Jose,Santa Clara County,Area Code 408
2015,95193,Unique,San Jose,Santa Clara County,Area Code 408
2016,95194,Unique,San Jose,Santa Clara County,Area Code 408
2017,95196,Unique,San Jose,Santa Clara County,Area Code 408
2018,95201,PO Box,Stockton,San Joaquin County,Area Code 209
2019,95202,Standard,Stockton,San Joaquin County,Area Code 209
2020,95203,Standard,Stockton,San Joaquin County,Area Code 209
2021,95204,Standard,Stockton,San Joaquin County,Area Code 209
2022,95205,Standard,Stockton,San Joaquin County,Area Code 209
2023,95206,Standard,Stockton,San Joaquin County,Area Code 209
2024,95207,Standard,Stockton,San Joaquin County,Area Code 209
2025,95208,PO Box,Stockton,San Joaquin County,Area Code 209
2026,95209,Standard,Stockton,San Joaquin County,Area Code 209
2027,95210,Standard,Stockton,San Joaquin County,Area Code 209
2028,95211,Unique,Stockton,San Joaquin County,Area Code 209
2029,95212,Standard,"Stockton, Morada",San Joaquin County,Area Code 209
2030,95213,PO Box,Stockton,San Joaquin County,Area Code 209
2031,95214,Unique,Stockton,,
2032,95215,Standard,Stockton,San Joaquin County,Area Code 209
2033,95219,Standard,Stockton,San Joaquin County,Area Code 209
2034,95220,Standard,Acampo,San Joaquin County,Area Code 209
2035,95221,PO Box,"Altaville, Angels Camp",Calaveras County,Area Code 209
2036,95222,Standard,Angels Camp,Calaveras County,Area Code 209
2037,95223,Standard,"Arnold, Bear Valley, Camp Connell",Calaveras County,
2038,95224,PO Box,Avery,Calaveras County,Area Code 209
2039,95225,PO Box,Burson,Calaveras County,Area Code 209
2040,95226,PO Box,"Campo Seco, Valley Spgs, Valley Springs",Calaveras County,Area Code 209
2041,95227,PO Box,Clements,San Joaquin County,Area Code 209
2042,95228,Standard,Copperopolis,Calaveras County,Area Code 209
2043,95229,PO Box,"Douglas Flat, Vallecito",Calaveras County,Area Code 209
2044,95230,Standard,Farmington,San Joaquin County,Area Code 209
2045,95231,Standard,French Camp,San Joaquin County,Area Code 209
2046,95232,Standard,Glencoe,Calaveras County,Area Code 209
2047,95233,PO Box,"Hathaway Pines, Hathaway Pnes",Calaveras County,Area Code 209
2048,95234,PO Box,Holt,San Joaquin County,Area Code 209
2049,95236,Standard,Linden,San Joaquin County,Area Code 209
2050,95237,Standard,Lockeford,San Joaquin County,Area Code 209
2051,95240,Standard,Lodi,San Joaquin County,Area Code 209
2052,95241,PO Box,Lodi,San Joaquin County,Area Code 209
2053,95242,Standard,Lodi,San Joaquin County,Area Code 209
2054,95245,Standard,"Mokelumne Hill, Mokelumne Hl",Calaveras County,Area Code 209
2055,95246,Standard,"Mountain Ranch, Mtn Ranch, Sheep Ranch",Calaveras County,Area Code 209
2056,95247,Standard,Murphys,Calaveras County,Area Code 209
2057,95248,PO Box,"Rail Road Flat, Rail Rd Flat",Calaveras County,Area Code 209
2058,95249,Standard,San Andreas,Calaveras County,Area Code 209
2059,95250,Standard,"San Andreas, Sheep Ranch",Calaveras County,Area Code 209
2060,95251,Standard,Vallecito,Calaveras County,Area Code 209
2061,95252,Standard,"Valley Springs, Valley Spgs",Calaveras County,Area Code 209
2062,95253,PO Box,Victor,San Joaquin County,Area Code 209
2063,95254,PO Box,Wallace,Calaveras County,Area Code 209
2064,95255,Standard,West Point,Calaveras County,Area Code 209
2065,95257,Standard,Wilseyville,Calaveras County,Area Code 209
2066,95258,Standard,Woodbridge,San Joaquin County,Area Code 209
2067,95267,PO Box,Stockton,San Joaquin County,Area Code 209
2068,95269,PO Box,Stockton,San Joaquin County,Area Code 209
2069,95296,Unique,"Stockton, Lyoth",San Joaquin County,Area Code 209
2070,95297,Unique,Stockton,San Joaquin County,Area Code 209
2071,95301,Standard,Atwater,Merced County,Area Code 209
2072,95303,Standard,Ballico,Merced County,Area Code 209
2073,95304,Standard,"Tracy, Banta",San Joaquin County,Area Code 209
2074,95305,PO Box,Big Oak Flat,Tuolumne County,Area Code 209
2075,95306,Standard,"Catheys Valley, Catheys Vly",Mariposa County,Area Code 209
2076,95307,Standard,Ceres,Stanislaus County,Area Code 209
2077,95309,PO Box,Chinese Camp,Tuolumne County,Area Code 209
2078,95310,Standard,Columbia,Tuolumne County,Area Code 209
2079,95311,Standard,Coulterville,Mariposa County,Area Code 209
2080,95312,PO Box,Cressey,Merced County,Area Code 209
2081,95313,Standard,Crows Landing,Stanislaus County,Area Code 209
2082,95314,Standard,"Pinecrest, Dardanelle",Tuolumne County,Area Code 209
2083,95315,Standard,Delhi,Merced County,Area Code 209
2084,95316,Standard,Denair,Stanislaus County,Area Code 209
2085,95317,Standard,El Nido,Merced County,Area Code 209
2086,95318,PO Box,El Portal,Mariposa County,
2087,95319,PO Box,Empire,Stanislaus County,Area Code 209
2088,95320,Standard,Escalon,San Joaquin County,Area Code 209
2089,95321,Standard,Groveland,Tuolumne County,Area Code 209
2090,95322,Standard,"Gustine, Santa Nella",Merced County,Area Code 209
2091,95323,Standard,Hickman,Stanislaus County,Area Code 209
2092,95324,Standard,Hilmar,Merced County,Area Code 209
2093,95325,Standard,Hornitos,Mariposa County,Area Code 209
2094,95326,Standard,Hughson,Stanislaus County,Area Code 209
2095,95327,Standard,Jamestown,Tuolumne County,Area Code 209
2096,95328,Standard,Keyes,Stanislaus County,Area Code 209
2097,95329,Standard,La Grange,Tuolumne County,Area Code 209
2098,95330,Standard,Lathrop,San Joaquin County,Area Code 209
2099,95333,Standard,Le Grand,Merced County,Area Code 209
2100,95334,Standard,Livingston,Merced County,Area Code 209
2101,95335,Standard,"Long Barn, Cold Springs",Tuolumne County,Area Code 209
2102,95336,Standard,Manteca,San Joaquin County,Area Code 209
2103,95337,Standard,Manteca,San Joaquin County,Area Code 209
2104,95338,Standard,Mariposa,Mariposa County,Area Code 209
2105,95340,Standard,Merced,Merced County,Area Code 209
2106,95341,Standard,Merced,Merced County,Area Code 209
2107,95343,Standard,Merced,Merced County,Area Code 209
2108,95344,PO Box,Merced,Merced County,Area Code 209
2109,95345,Standard,Midpines,Mariposa County,Area Code 209
2110,95346,Standard,"Mi Wuk Village, Mi Wuk Vlg",Tuolumne County,Area Code 209
2111,95347,PO Box,Moccasin,Tuolumne County,Area Code 209
2112,95348,Standard,Merced,Merced County,Area Code 209
2113,95350,Standard,Modesto,Stanislaus County,Area Code 209
2114,95351,Standard,Modesto,Stanislaus County,Area Code 209
2115,95352,PO Box,Modesto,Stanislaus County,Area Code 209
2116,95353,PO Box,Modesto,Stanislaus County,Area Code 209
2117,95354,Standard,Modesto,Stanislaus County,Area Code 209
2118,95355,Standard,Modesto,Stanislaus County,Area Code 209
2119,95356,Standard,Modesto,Stanislaus County,Area Code 209
2120,95357,Standard,Modesto,Stanislaus County,Area Code 209
2121,95358,Standard,Modesto,Stanislaus County,Area Code 209
2122,95360,Standard,Newman,Stanislaus County,Area Code 209
2123,95361,Standard,"Oakdale, Knights Ferry, Valley Home",Stanislaus County,Area Code 209
2124,95363,Standard,"Patterson, Diablo Grande",Stanislaus County,Area Code 209
2125,95364,Standard,"Pinecrest, Dardanelle",Tuolumne County,Area Code 209
2126,95365,Standard,Planada,Merced County,Area Code 209
2127,95366,Standard,Ripon,San Joaquin County,Area Code 209
2128,95367,Standard,Riverbank,Stanislaus County,Area Code 209
2129,95368,Standard,Salida,Stanislaus County,Area Code 209
2130,95369,Standard,Snelling,Merced County,Area Code 209
2131,95370,Standard,Sonora,Tuolumne County,Area Code 209
2132,95372,Standard,Soulsbyville,Tuolumne County,Area Code 209
2133,95373,PO Box,"Standard, Sonora",Tuolumne County,Area Code 209
2134,95374,Standard,Stevinson,Merced County,Area Code 209
2135,95375,PO Box,"Strawberry, Pinecrest",Tuolumne County,Area Code 209
2136,95376,Standard,Tracy,San Joaquin County,Area Code 209
2137,95377,Standard,Tracy,San Joaquin County,Area Code 209
2138,95378,PO Box,Tracy,San Joaquin County,Area Code 209
2139,95379,Standard,Tuolumne,Tuolumne County,Area Code 209
2140,95380,Standard,Turlock,Stanislaus County,Area Code 209
2141,95381,PO Box,Turlock,Stanislaus County,Area Code 209
2142,95382,Standard,Turlock,Stanislaus County,Area Code 209
2143,95383,Standard,Twain Harte,Tuolumne County,Area Code 209
2144,95385,Standard,Vernalis,Stanislaus County,Area Code 209
2145,95386,Standard,Waterford,Stanislaus County,Area Code 209
2146,95387,PO Box,Westley,Stanislaus County,Area Code 209
2147,95388,Standard,Winton,Merced County,Area Code 209
2148,95389,Standard,"Yosemite National Park, Tuolumne Mdws, Tuolumne Meadows, Wawona,...",Mariposa County,Area Code 209
2149,95391,Standard,"Tracy, Mountain House, Mtn House",San Joaquin County,Area Code 209
2150,95397,Unique,Modesto,Stanislaus County,Area Code 209
2151,95401,Standard,Santa Rosa,Sonoma County,Area Code 707
2152,95402,PO Box,Santa Rosa,Sonoma County,Area Code 707
2153,95403,Standard,"Santa Rosa, Larkfield",Sonoma County,Area Code 707
2154,95404,Standard,Santa Rosa,Sonoma County,Area Code 707
2155,95405,Standard,Santa Rosa,Sonoma County,Area Code 707
2156,95406,PO Box,Santa Rosa,Sonoma County,Area Code 707
2157,95407,Standard,Santa Rosa,Sonoma County,Area Code 707
2158,95409,Standard,"Santa Rosa, Kenwood",Sonoma County,Area Code 707
2159,95410,Standard,Albion,Mendocino County,Area Code 707
2160,95412,Standard,Annapolis,Sonoma County,Area Code 707
2161,95415,Standard,Boonville,Mendocino County,Area Code 707
2162,95416,PO Box,"Boyes Hot Springs, Boyes Hot Spg",Sonoma County,Area Code 707
2163,95417,Standard,"Branscomb, Laytonville",Mendocino County,Area Code 707
2164,95418,PO Box,"Calpella, Ukiah",Mendocino County,Area Code 707
2165,95419,PO Box,Camp Meeker,Sonoma County,Area Code 707
2166,95420,Standard,Caspar,Mendocino County,Area Code 707
2167,95421,Standard,Cazadero,Sonoma County,Area Code 707
2168,95422,Standard,Clearlake,Lake County,Area Code 707
2169,95423,Standard,"Clearlake Oaks, Clearlake Oks",Lake County,Area Code 707
2170,95424,PO Box,"Clearlake Park, Clearlake Pk",Lake County,Area Code 707
2171,95425,Standard,Cloverdale,Sonoma County,Area Code 707
2172,95426,PO Box,Cobb,Lake County,Area Code 707
2173,95427,Standard,Comptche,Mendocino County,Area Code 707
2174,95428,Standard,Covelo,Mendocino County,Area Code 707
2175,95429,Standard,Dos Rios,Mendocino County,Area Code 707
2176,95430,PO Box,Duncans Mills,Sonoma County,Area Code 707
2177,95431,PO Box,Eldridge,Sonoma County,Area Code 707
2178,95432,Standard,Elk,Mendocino County,Area Code 707
2179,95433,PO Box,El Verano,Sonoma County,Area Code 707
2180,95435,PO Box,Finley,Lake County,Area Code 707
2181,95436,Standard,Forestville,Sonoma County,Area Code 707
2182,95437,Standard,Fort Bragg,Mendocino County,Area Code 707
2183,95439,Standard,Fulton,Sonoma County,Area Code 707
2184,95441,Standard,Geyserville,Sonoma County,Area Code 707
2185,95442,Standard,Glen Ellen,Sonoma County,Area Code 707
2186,95443,Standard,Glenhaven,Lake County,Area Code 707
2187,95444,Standard,Graton,Sonoma County,Area Code 707
2188,95445,Standard,Gualala,Mendocino County,Area Code 707
2189,95446,Standard,Guerneville,Sonoma County,Area Code 707
2190,95448,Standard,Healdsburg,Sonoma County,Area Code 707
2191,95449,Standard,Hopland,Mendocino County,Area Code 707
2192,95450,Standard,Jenner,Sonoma County,Area Code 707
2193,95451,Standard,Kelseyville,Lake County,Area Code 707
2194,95452,Standard,Kenwood,Sonoma County,Area Code 707
2195,95453,Standard,Lakeport,Lake County,Area Code 707
2196,95454,Standard,Laytonville,Mendocino County,Area Code 707
2197,95456,Standard,"Little River, Littleriver",Mendocino County,Area Code 707
2198,95457,Standard,Lower Lake,Lake County,Area Code 707
2199,95458,Standard,Lucerne,Lake County,Area Code 707
2200,95459,Standard,Manchester,Mendocino County,Area Code 707
2201,95460,Standard,Mendocino,Mendocino County,Area Code 707
2202,95461,Standard,"Middletown, Loch Lomond",Lake County,Area Code 707
2203,95462,Standard,"Monte Rio, Russian River, Russian River Mdws",Sonoma County,Area Code 707
2204,95463,Standard,Navarro,Mendocino County,Area Code 707
2205,95464,Standard,Nice,Lake County,Area Code 707
2206,95465,Standard,Occidental,Sonoma County,Area Code 707
2207,95466,Standard,Philo,Mendocino County,Area Code 707
2208,95467,Standard,"Hidden Valley Lake, Hidden Vl Lk",Lake County,Area Code 707
2209,95468,Standard,Point Arena,Mendocino County,Area Code 707
2210,95469,Standard,Potter Valley,Mendocino County,Area Code 707
2211,95470,Standard,"Redwood Valley, Redwood Vly",Mendocino County,Area Code 707
2212,95471,PO Box,Rio Nido,Sonoma County,Area Code 707
2213,95472,Standard,"Sebastopol, Freestone",Sonoma County,Area Code 707
2214,95473,PO Box,Sebastopol,Sonoma County,Area Code 707
2215,95476,Standard,Sonoma,Sonoma County,Area Code 707
2216,95480,PO Box,"Stewarts Point, Stewarts Pt",Sonoma County,Area Code 707
2217,95481,PO Box,Talmage,Mendocino County,Area Code 707
2218,95482,Standard,Ukiah,Mendocino County,Area Code 707
2219,95485,Standard,Upper Lake,Lake County,Area Code 707
2220,95486,PO Box,Villa Grande,Sonoma County,Area Code 707
2221,95487,PO Box,Vineburg,Sonoma County,Area Code 707
2222,95488,Standard,Westport,Mendocino County,Area Code 707
2223,95490,Standard,Willits,Mendocino County,Area Code 707
2224,95492,Standard,Windsor,Sonoma County,Area Code 707
2225,95493,Standard,"Witter Springs, Upper Lake, Witter Spgs",Lake County,Area Code 707
2226,95494,Standard,Yorkville,Mendocino County,Area Code 707
2227,95497,PO Box,The Sea Ranch,Sonoma County,Area Code 707
2228,95501,Standard,Eureka,Humboldt County,Area Code 707
2229,95502,PO Box,Eureka,Humboldt County,Area Code 707
2230,95503,Standard,Eureka,Humboldt County,Area Code 707
2231,95511,Standard,Alderpoint,Humboldt County,Area Code 707
2232,95514,Standard,Blocksburg,Humboldt County,Area Code 707
2233,95518,PO Box,Arcata,Humboldt County,Area Code 707
2234,95519,Standard,Mckinleyville,Humboldt County,Area Code 707
2235,95521,Standard,"Arcata, Mc Kinleyville, Mckinleyville",Humboldt County,Area Code 707
2236,95524,Standard,Bayside,Humboldt County,Area Code 707
2237,95525,Standard,Blue Lake,Humboldt County,Area Code 530
2238,95526,Standard,"Bridgeville, Mad River, Ruth",Humboldt County,Area Code 707
2239,95527,Standard,Burnt Ranch,Trinity County,
2240,95528,Standard,Carlotta,Humboldt County,Area Code 707
2241,95531,Standard,Crescent City,Del Norte County,Area Code 707
2242,95532,Unique,Crescent City,Del Norte County,Area Code 707
2243,95534,PO Box,"Cutten, Eureka",Humboldt County,Area Code 707
2244,95536,Standard,Ferndale,Humboldt County,Area Code 707
2245,95537,PO Box,"Fields Landing, Fields Ldg",Humboldt County,
2246,95538,PO Box,"Fort Dick, Crescent City",Del Norte County,Area Code 707
2247,95540,Standard,Fortuna,Humboldt County,Area Code 707
2248,95542,Standard,Garberville,Humboldt County,Area Code 707
2249,95543,Standard,Gasquet,Del Norte County,Area Code 707
2250,95545,PO Box,Honeydew,Humboldt County,
2251,95546,Standard,Hoopa,Humboldt County,Area Code 530
2252,95547,Standard,Hydesville,Humboldt County,Area Code 707
2253,95548,Standard,Klamath,Del Norte County,Area Code 707
2254,95549,Standard,Kneeland,Humboldt County,
2255,95550,Standard,Korbel,Humboldt County,
2256,95551,Standard,Loleta,Humboldt County,Area Code 707
2257,95552,Standard,Mad River,Trinity County,Area Code 707
2258,95553,PO Box,Miranda,Humboldt County,Area Code 707
2259,95554,Standard,Myers Flat,Humboldt County,Area Code 707
2260,95555,Standard,Orick,Humboldt County,Area Code 707
2261,95556,PO Box,Orleans,Humboldt County,
2262,95558,Standard,Petrolia,Humboldt County,Area Code 707
2263,95559,PO Box,Phillipsville,Humboldt County,Area Code 707
2264,95560,Standard,Redway,Humboldt County,Area Code 707
2265,95562,Standard,Rio Dell,Humboldt County,Area Code 707
2266,95563,PO Box,Salyer,Trinity County,
2267,95564,Standard,Samoa,Humboldt County,Area Code 707
2268,95565,Standard,Scotia,Humboldt County,Area Code 707
2269,95567,Standard,Smith River,Del Norte County,Area Code 707
2270,95568,Standard,Somes Bar,Siskiyou County,Area Code 530
2271,95569,Standard,Redcrest,Humboldt County,Area Code 707
2272,95570,Standard,Trinidad,Humboldt County,Area Code 707
2273,95571,PO Box,Weott,Humboldt County,
2274,95573,Standard,Willow Creek,Humboldt County,Area Code 530
2275,95585,Standard,Leggett,Mendocino County,Area Code 707
2276,95587,Standard,Piercy,Mendocino County,Area Code 707
2277,95589,Standard,Whitethorn,Humboldt County,Area Code 707
2278,95595,Standard,Zenia,Trinity County,
2279,95601,PO Box,Amador City,Amador County,Area Code 209
2280,95602,Standard,Auburn,Placer County,Area Code 530
2281,95603,Standard,Auburn,Placer County,Area Code 530
2282,95604,PO Box,"Auburn, Bowman",Placer County,Area Code 530
2283,95605,Standard,"West Sacramento, Broderick, Bryte, W Sacramento",Yolo County,Area Code 530Area Code 916
2284,95606,Standard,Brooks,Yolo County,
2285,95607,Standard,"Capay, Esparto",Yolo County,Area Code 530
2286,95608,Standard,Carmichael,Sacramento County,Area Code 916
2287,95609,PO Box,Carmichael,Sacramento County,Area Code 916
2288,95610,Standard,"Citrus Heights, Citrus Hts",Sacramento County,Area Code 916
2289,95611,PO Box,"Citrus Heights, Citrus Hts",Sacramento County,Area Code 916
2290,95612,Standard,Clarksburg,Yolo County,Area Code 916
2291,95613,PO Box,Coloma,El Dorado County,
2292,95614,Standard,Cool,El Dorado County,
2293,95615,Standard,Courtland,Sacramento County,Area Code 916
2294,95616,Standard,Davis,Yolo County,Area Code 530
2295,95617,PO Box,Davis,Yolo County,Area Code 530
2296,95618,Standard,"Davis, El Macero",Yolo County,Area Code 530
2297,95619,Standard,"Diamond Springs, Diamond Spgs",El Dorado County,Area Code 530
2298,95620,Standard,"Dixon, Liberty Farms",Solano County,Area Code 530Area Code 707
2299,95621,Standard,"Citrus Heights, Citrus Hts",Sacramento County,Area Code 916
2300,95623,Standard,El Dorado,El Dorado County,Area Code 530
2301,95624,Standard,Elk Grove,Sacramento County,Area Code 916
2302,95625,PO Box,Elmira,Solano County,Area Code 707
2303,95626,Standard,Elverta,Sacramento County,Area Code 916
2304,95627,Standard,Esparto,Yolo County,Area Code 530
2305,95628,Standard,Fair Oaks,Sacramento County,Area Code 916
2306,95629,Standard,Fiddletown,Amador County,
2307,95630,Standard,Folsom,Sacramento County,Area Code 916
2308,95631,Standard,Foresthill,Placer County,Area Code 530
2309,95632,Standard,Galt,Sacramento County,Area Code 209
2310,95633,Standard,Garden Valley,El Dorado County,
2311,95634,Standard,Georgetown,El Dorado County,Area Code 530
2312,95635,Standard,Greenwood,El Dorado County,
2313,95636,Standard,Grizzly Flats,El Dorado County,Area Code 530
2314,95637,Standard,Guinda,Yolo County,Area Code 530
2315,95638,Standard,Herald,Sacramento County,Area Code 209
2316,95639,PO Box,Hood,Sacramento County,
2317,95640,Standard,Ione,Amador County,Area Code 209
2318,95641,Standard,Isleton,Sacramento County,Area Code 916
2319,95642,Standard,Jackson,Amador County,Area Code 209
2320,95644,PO Box,"Kit Carson, Pioneer",El Dorado County,
2321,95645,Standard,"Knights Landing, Knights Lndg",Yolo County,Area Code 530
2322,95646,PO Box,"Kirkwood, Pioneer",Alpine County,
2323,95648,Standard,Lincoln,Placer County,Area Code 916
2324,95650,Standard,Loomis,Placer County,Area Code 916
2325,95651,Standard,Lotus,El Dorado County,
2326,95652,Standard,Mcclellan,Sacramento County,Area Code 916
2327,95653,PO Box,Madison,Yolo County,
2328,95654,PO Box,"Martell, Jackson",Amador County,Area Code 209
2329,95655,Standard,"Mather, Rancho Cordova, Rncho Cordova",Sacramento County,
2330,95656,PO Box,Mount Aukum,El Dorado County,
2331,95658,Standard,Newcastle,Placer County,Area Code 530Area Code 916
2332,95659,Standard,"Nicolaus, East Nicolaus, Trowbridge",Sutter County,Area Code 916Area Code 530
2333,95660,Standard,"North Highlands, N Highlands",Sacramento County,Area Code 916
2334,95661,Standard,"Roseville, Granite Bay",Placer County,Area Code 916Area Code 530
2335,95662,Standard,Orangevale,Sacramento County,Area Code 916
2336,95663,Standard,Penryn,Placer County,Area Code 916
2337,95664,Standard,Pilot Hill,El Dorado County,
2338,95665,Standard,Pine Grove,Amador County,Area Code 209
2339,95666,Standard,Pioneer,Amador County,Area Code 209
2340,95667,Standard,"Placerville, Kelsey",El Dorado County,Area Code 530
2341,95668,Standard,"Pleasant Grove, Pleasant Grv",Sutter County,Area Code 530Area Code 916
2342,95669,Standard,Plymouth,Amador County,Area Code 916Area Code 209
2343,95670,Standard,"Rancho Cordova, Gold River, Rncho Cordova",Sacramento County,Area Code 916
2344,95671,Unique,Represa,Sacramento County,Area Code 916
2345,95672,Standard,Rescue,El Dorado County,Area Code 530
2346,95673,Standard,Rio Linda,Sacramento County,Area Code 916
2347,95674,Standard,Rio Oso,Sutter County,Area Code 530
2348,95675,PO Box,"River Pines, Mount Aukum",Amador County,Area Code 209
2349,95676,PO Box,Robbins,Sutter County,Area Code 530
2350,95677,Standard,Rocklin,Placer County,Area Code 530Area Code 916
2351,95678,Standard,Roseville,Placer County,Area Code 530Area Code 916
2352,95679,PO Box,Rumsey,Yolo County,
2353,95680,PO Box,Ryde,Sacramento County,
2354,95681,Standard,Sheridan,Placer County,
2355,95682,Standard,"Shingle Springs, Cameron Park, Latrobe, Shingle Spgs",El Dorado County,Area Code 530
2356,95683,Standard,"Sloughhouse, Rancho Murieta, Rncho Murieta",Sacramento County,Area Code 916
2357,95684,Standard,"Somerset, Fair Play",El Dorado County,
2358,95685,Standard,Sutter Creek,Amador County,Area Code 209
2359,95686,PO Box,Thornton,San Joaquin County,Area Code 209
2360,95687,Standard,Vacaville,Solano County,Area Code 707
2361,95688,Standard,Vacaville,Solano County,Area Code 707
2362,95689,Standard,Volcano,Amador County,Area Code 209
2363,95690,Standard,Walnut Grove,Sacramento County,Area Code 209Area Code 916
2364,95691,Standard,"West Sacramento, W Sacramento",Yolo County,Area Code 916
2365,95692,Standard,Wheatland,Yuba County,Area Code 530
2366,95693,Standard,Wilton,Sacramento County,Area Code 916
2367,95694,Standard,Winters,Yolo County,Area Code 530
2368,95695,Standard,Woodland,Yolo County,Area Code 530
2369,95696,PO Box,Vacaville,Solano County,Area Code 707
2370,95697,PO Box,Yolo,Yolo County,
2371,95698,PO Box,Zamora,Yolo County,
2372,95699,PO Box,"Drytown, Sutter Creek",Amador County,Area Code 209
2373,95701,PO Box,Alta,Placer County,
2374,95703,Standard,Applegate,Placer County,Area Code 530
2375,95709,Standard,Camino,El Dorado County,Area Code 530
2376,95712,PO Box,Chicago Park,Nevada County,Area Code 530
2377,95713,Standard,"Colfax, Eden Valley, Iowa Hill",Placer County,Area Code 530
2378,95714,PO Box,Dutch Flat,Placer County,
2379,95715,PO Box,"Emigrant Gap, Alta",Placer County,
2380,95717,PO Box,Gold Run,Placer County,
2381,95720,Standard,Kyburz,El Dorado County,Area Code 209Area Code 530
2382,95721,PO Box,"Echo Lake, Twin Bridges",El Dorado County,
2383,95722,Standard,Meadow Vista,Placer County,Area Code 530
2384,95724,PO Box,"Norden, Soda Springs",Placer County,
2385,95726,Standard,"Pollock Pines, Pacific House",El Dorado County,Area Code 530
2386,95728,PO Box,Soda Springs,Placer County,Area Code 530
2387,95735,Standard,Twin Bridges,El Dorado County,Area Code 530Area Code 209
2388,95736,PO Box,Weimar,Placer County,
2389,95741,PO Box,"Rancho Cordova, Rncho Cordova",Sacramento County,Area Code 916
2390,95742,Standard,"Rancho Cordova, Rncho Cordova",Sacramento County,Area Code 916
2391,95746,Standard,"Granite Bay, Roseville",Placer County,Area Code 916
2392,95747,Standard,Roseville,Placer County,Area Code 916
2393,95757,Standard,Elk Grove,Sacramento County,Area Code 916
2394,95758,Standard,Elk Grove,Sacramento County,Area Code 916
2395,95759,PO Box,Elk Grove,Sacramento County,Area Code 916
2396,95762,Standard,"El Dorado Hills, El Dorado Hls, Folsom",El Dorado County,Area Code 916
2397,95763,PO Box,Folsom,Sacramento County,Area Code 916
2398,95765,Standard,Rocklin,Placer County,Area Code 916
2399,95776,Standard,Woodland,Yolo County,Area Code 530
2400,95798,PO Box,"West Sacramento, W Sacramento",Yolo County,Area Code 916
2401,95799,PO Box,"West Sacramento, W Sacramento",Yolo County,Area Code 916
2402,95811,Standard,Sacramento,Sacramento County,Area Code 916
2403,95812,PO Box,Sacramento,Sacramento County,Area Code 916
2404,95813,PO Box,Sacramento,Sacramento County,Area Code 916
2405,95814,Standard,Sacramento,Sacramento County,Area Code 530Area Code 916
2406,95815,Standard,Sacramento,Sacramento County,Area Code 916
2407,95816,Standard,Sacramento,Sacramento County,Area Code 530Area Code 916
2408,95817,Standard,Sacramento,Sacramento County,Area Code 916
2409,95818,Standard,Sacramento,Sacramento County,Area Code 530Area Code 916
2410,95819,Standard,Sacramento,Sacramento County,Area Code 916
2411,95820,Standard,Sacramento,Sacramento County,Area Code 916
2412,95821,Standard,Sacramento,Sacramento County,Area Code 916
2413,95822,Standard,Sacramento,Sacramento County,Area Code 916
2414,95823,Standard,Sacramento,Sacramento County,Area Code 916
2415,95824,Standard,Sacramento,Sacramento County,Area Code 916
2416,95825,Standard,Sacramento,Sacramento County,Area Code 916
2417,95826,Standard,Sacramento,Sacramento County,Area Code 916
2418,95827,Standard,Sacramento,Sacramento County,Area Code 916
2419,95828,Standard,Sacramento,Sacramento County,Area Code 916
2420,95829,Standard,Sacramento,Sacramento County,Area Code 916
2421,95830,Standard,Sacramento,Sacramento County,Area Code 916
2422,95831,Standard,Sacramento,Sacramento County,Area Code 916
2423,95832,Standard,Sacramento,Sacramento County,Area Code 916
2424,95833,Standard,Sacramento,Sacramento County,Area Code 530Area Code 916
2425,95834,Standard,Sacramento,Sacramento County,Area Code 916
2426,95835,Standard,Sacramento,Sacramento County,Area Code 916
2427,95836,Standard,Sacramento,Sacramento County,Area Code 916
2428,95837,Standard,Sacramento,Sacramento County,Area Code 916
2429,95838,Standard,Sacramento,Sacramento County,Area Code 916
2430,95840,Unique,Sacramento,Sacramento County,Area Code 916
2431,95841,Standard,"Sacramento, Carmichael",Sacramento County,Area Code 916
2432,95842,Standard,Sacramento,Sacramento County,Area Code 916
2433,95843,Standard,"Antelope, Sacramento",Sacramento County,Area Code 916
2434,95851,PO Box,Sacramento,Sacramento County,Area Code 916
2435,95852,PO Box,Sacramento,Sacramento County,Area Code 916
2436,95853,PO Box,Sacramento,Sacramento County,Area Code 916
2437,95860,PO Box,Sacramento,Sacramento County,Area Code 916
2438,95864,Standard,Sacramento,Sacramento County,Area Code 916
2439,95865,PO Box,Sacramento,Sacramento County,Area Code 916
2440,95866,PO Box,Sacramento,Sacramento County,Area Code 916
2441,95867,Unique,Sacramento,Sacramento County,Area Code 916
2442,95887,Unique,Sacramento,Sacramento County,Area Code 916
2443,95894,Unique,Sacramento,Sacramento County,Area Code 916
2444,95899,PO Box,Sacramento,Sacramento County,Area Code 916
2445,95901,Standard,"Marysville, Linda, Loma Rica",Yuba County,Area Code 530
2446,95903,Standard,"Beale AFB, Marysville",Yuba County,Area Code 530
2447,95910,Standard,Alleghany,Sierra County,Area Code 530
2448,95912,Standard,"Arbuckle, College City",Colusa County,Area Code 530
2449,95913,PO Box,Artois,Glenn County,Area Code 530
2450,95914,Standard,Bangor,Butte County,Area Code 530
2451,95915,PO Box,"Belden, Oroville",Plumas County,Area Code 530
2452,95916,Standard,Berry Creek,Butte County,Area Code 530
2453,95917,Standard,Biggs,Butte County,Area Code 530
2454,95918,Standard,Browns Valley,Yuba County,Area Code 530
2455,95919,Standard,Brownsville,Yuba County,Area Code 530
2456,95920,Standard,Butte City,Glenn County,Area Code 530
2457,95922,Standard,Camptonville,Yuba County,Area Code 530
2458,95923,Standard,"Canyon Dam, Canyondam",Plumas County,Area Code 530
2459,95924,PO Box,Cedar Ridge,Nevada County,Area Code 530
2460,95925,Standard,Challenge,Yuba County,Area Code 530
2461,95926,Standard,Chico,Butte County,Area Code 530Area Code 916
2462,95927,PO Box,Chico,Butte County,Area Code 530
2463,95928,Standard,Chico,Butte County,Area Code 530Area Code 916
2464,95929,Unique,Chico,Butte County,Area Code 530
2465,95930,Standard,"Clipper Mills, La Porte",Butte County,Area Code 530
2466,95932,Standard,Colusa,Colusa County,Area Code 530
2467,95934,Standard,"Crescent Mills, Crescent Mls",Plumas County,Area Code 530
2468,95935,Standard,Dobbins,Yuba County,Area Code 530
2469,95936,PO Box,Downieville,Sierra County,Area Code 530
2470,95937,PO Box,Dunnigan,Yolo County,
2471,95938,Standard,Durham,Butte County,Area Code 530
2472,95939,Standard,Elk Creek,Glenn County,Area Code 530
2473,95940,PO Box,"Feather Falls, Oroville",Butte County,Area Code 530
2474,95941,Standard,Forbestown,Butte County,
2475,95942,Standard,"Forest Ranch, Butte Meadows",Butte County,Area Code 530
2476,95943,Standard,Glenn,Glenn County,Area Code 530
2477,95944,PO Box,Goodyears Bar,Sierra County,Area Code 530
2478,95945,Standard,Grass Valley,Nevada County,Area Code 530
2479,95946,Standard,Penn Valley,Nevada County,Area Code 530
2480,95947,Standard,Greenville,Plumas County,Area Code 530
2481,95948,Standard,Gridley,Butte County,Area Code 530
2482,95949,Standard,Grass Valley,Nevada County,Area Code 530
2483,95950,PO Box,Grimes,Colusa County,Area Code 530
2484,95951,PO Box,Hamilton City,Glenn County,Area Code 530
2485,95953,Standard,Live Oak,Sutter County,Area Code 530
2486,95954,Standard,Magalia,Butte County,Area Code 530
2487,95955,PO Box,Maxwell,Colusa County,Area Code 530
2488,95956,PO Box,Meadow Valley,Plumas County,Area Code 530
2489,95957,Standard,Meridian,Sutter County,Area Code 530
2490,95958,PO Box,"Nelson, Durham",Butte County,Area Code 530
2491,95959,Standard,Nevada City,Nevada County,Area Code 530
2492,95960,Standard,"North San Juan, N San Juan",Nevada County,Area Code 530
2493,95961,Standard,"Olivehurst, Arboga, Plumas Lake, West Linda",Yuba County,Area Code 530
2494,95962,Standard,Oregon House,Yuba County,Area Code 530
2495,95963,Standard,Orland,Glenn County,Area Code 530
2496,95965,Standard,"Oroville, Butte Valley, Pulga, Yankee Hill",Butte County,Area Code 530
2497,95966,Standard,Oroville,Butte County,Area Code 530
2498,95967,PO Box,Paradise,Butte County,Area Code 530
2499,95968,Standard,Palermo,Butte County,Area Code 530
2500,95969,Standard,Paradise,Butte County,Area Code 530
2501,95970,Standard,Princeton,Colusa County,Area Code 530
2502,95971,Standard,"Quincy, Spring Garden",Plumas County,Area Code 530
2503,95972,Standard,Rackerby,Yuba County,Area Code 530
2504,95973,Standard,"Chico, Cohasset",Butte County,Area Code 530Area Code 916
2505,95974,PO Box,Richvale,Butte County,Area Code 530
2506,95975,Standard,"Rough And Ready, Rough Ready",Nevada County,Area Code 530
2507,95976,Unique,Chico,Butte County,Area Code 530
2508,95977,Standard,"Smartsville, Big Oak Valley, Big Oak Vly",Nevada County,Area Code 530
2509,95978,PO Box,Stirling City,Butte County,Area Code 530
2510,95979,Standard,Stonyford,Colusa County,Area Code 530
2511,95980,PO Box,"Storrie, Belden, Oroville",Plumas County,Area Code 530
2512,95981,Standard,"Strawberry Valley, Strawbrry Vly",Yuba County,Area Code 530
2513,95982,Standard,Sutter,Sutter County,Area Code 530
2514,95983,Standard,Taylorsville,Plumas County,Area Code 530
2515,95984,PO Box,Twain,Plumas County,Area Code 530
2516,95986,PO Box,Washington,Nevada County,Area Code 530
2517,95987,Standard,Williams,Colusa County,Area Code 530
2518,95988,Standard,Willows,Glenn County,Area Code 530
2519,95991,Standard,Yuba City,Sutter County,Area Code 530
2520,95992,PO Box,Yuba City,Sutter County,Area Code 530
2521,95993,Standard,Yuba City,Sutter County,Area Code 530
2522,96001,Standard,Redding,Shasta County,Area Code 530
2523,96002,Standard,Redding,Shasta County,Area Code 530
2524,96003,Standard,Redding,Shasta County,Area Code 530
2525,96006,Standard,Adin,Modoc County,Area Code 530
2526,96007,Standard,Anderson,Shasta County,Area Code 530
2527,96008,Standard,Bella Vista,Shasta County,Area Code 530
2528,96009,PO Box,Bieber,Lassen County,Area Code 530
2529,96010,Standard,Big Bar,Trinity County,
2530,96011,PO Box,Big Bend,Shasta County,Area Code 530
2531,96013,Standard,Burney,Shasta County,Area Code 530
2532,96014,Standard,Callahan,Siskiyou County,Area Code 530
2533,96015,Standard,Canby,Modoc County,Area Code 530
2534,96016,Standard,Cassel,Shasta County,Area Code 530
2535,96017,Standard,Castella,Shasta County,Area Code 530
2536,96019,Standard,"Shasta Lake, Central Valley, Central Vly",Shasta County,Area Code 530
2537,96020,Standard,Chester,Plumas County,Area Code 530
2538,96021,Standard,Corning,Tehama County,Area Code 530
2539,96022,Standard,Cottonwood,Tehama County,Area Code 530
2540,96023,Standard,Dorris,Siskiyou County,Area Code 530
2541,96024,Standard,Douglas City,Trinity County,
2542,96025,Standard,Dunsmuir,Siskiyou County,Area Code 530
2543,96027,Standard,"Etna, Sawyers Bar",Siskiyou County,Area Code 530
2544,96028,Standard,"Fall River Mills, Fl River Mls",Shasta County,Area Code 530
2545,96029,Standard,"Flournoy, Corning",Tehama County,Area Code 530
2546,96031,Standard,"Forks Of Salmon, Frk Of Salmon",Siskiyou County,Area Code 530
2547,96032,Standard,Fort Jones,Siskiyou County,Area Code 530
2548,96033,Standard,French Gulch,Shasta County,Area Code 530
2549,96034,Standard,Gazelle,Siskiyou County,Area Code 530
2550,96035,Standard,Gerber,Tehama County,Area Code 530
2551,96037,PO Box,Greenview,Siskiyou County,Area Code 530
2552,96038,Standard,Grenada,Siskiyou County,Area Code 530
2553,96039,Standard,Happy Camp,Siskiyou County,Area Code 530
2554,96040,Standard,Hat Creek,Shasta County,Area Code 530
2555,96041,Standard,Hayfork,Trinity County,Area Code 530
2556,96044,Standard,Hornbrook,Siskiyou County,Area Code 530
2557,96046,PO Box,Hyampom,Trinity County,
2558,96047,Standard,"Igo, Ono",Shasta County,Area Code 530
2559,96048,Standard,"Junction City, Helena",Trinity County,Area Code 530
2560,96049,PO Box,Redding,Siskiyou County,Area Code 530
2561,96050,Standard,"Klamath River, Horse Creek",Siskiyou County,Area Code 530
2562,96051,Standard,Lakehead,Shasta County,Area Code 530
2563,96052,Standard,Lewiston,Trinity County,Area Code 530
2564,96054,PO Box,Lookout,Modoc County,Area Code 530
2565,96055,Standard,Los Molinos,Tehama County,Area Code 530
2566,96056,Standard,"Mcarthur, Little Valley",Shasta County,Area Code 530
2567,96057,Standard,Mccloud,Siskiyou County,Area Code 530
2568,96058,Standard,Macdoel,Siskiyou County,Area Code 530
2569,96059,Standard,Manton,Tehama County,Area Code 530
2570,96061,Standard,Mill Creek,Tehama County,Area Code 530
2571,96062,Standard,Millville,Shasta County,Area Code 530
2572,96063,PO Box,Mineral,Tehama County,Area Code 530
2573,96064,Standard,Montague,Siskiyou County,Area Code 530
2574,96065,Standard,"Montgomery Creek, Montgomry Crk",Shasta County,Area Code 530
2575,96067,Standard,Mount Shasta,Siskiyou County,Area Code 530
2576,96068,PO Box,Nubieber,Lassen County,Area Code 530
2577,96069,Standard,Oak Run,Shasta County,Area Code 530
2578,96070,PO Box,"Obrien, Lakehead",Shasta County,Area Code 530
2579,96071,Standard,Old Station,Shasta County,Area Code 530
2580,96073,Standard,Palo Cedro,Shasta County,Area Code 530
2581,96074,PO Box,Paskenta,Tehama County,Area Code 530
2582,96075,Standard,Paynes Creek,Tehama County,Area Code 530
2583,96076,Standard,"Platina, Wildwood",Trinity County,
2584,96078,PO Box,Proberta,Tehama County,Area Code 530
2585,96079,PO Box,"Shasta Lake, Central Valley, Central Vly, Project Cit...",Shasta County,Area Code 530
2586,96080,Standard,Red Bluff,Tehama County,Area Code 530
2587,96084,PO Box,"Round Mountain, Round Mtn",Shasta County,Area Code 530
2588,96085,Standard,Scott Bar,Siskiyou County,Area Code 530
2589,96086,Standard,Seiad Valley,Siskiyou County,Area Code 530
2590,96087,PO Box,Shasta,Shasta County,Area Code 530
2591,96088,Standard,Shingletown,Shasta County,Area Code 530
2592,96089,PO Box,"Shasta Lake, Summit City",Shasta County,Area Code 530
2593,96090,PO Box,Tehama,Tehama County,Area Code 530
2594,96091,Standard,"Trinity Center, Trinity Ctr",Trinity County,Area Code 530
2595,96092,PO Box,Vina,Tehama County,Area Code 530
2596,96093,PO Box,Weaverville,Trinity County,
2597,96094,Standard,"Weed, Edgewood, Hammond Ranch",Siskiyou County,Area Code 530
2598,96095,PO Box,Whiskeytown,Shasta County,Area Code 530
2599,96096,Standard,Whitmore,Shasta County,Area Code 530
2600,96097,Standard,Yreka,Siskiyou County,Area Code 530
2601,96099,PO Box,Redding,Shasta County,Area Code 530
2602,96101,Standard,Alturas,Modoc County,Area Code 530
2603,96103,Standard,"Blairsden Graeagle, Blairsden, Blrsdn Greagl, Cromberg, Grae...",Plumas County,Area Code 530
2604,96104,Standard,Cedarville,Modoc County,Area Code 530
2605,96105,Standard,Chilcoot,Plumas County,Area Code 530
2606,96106,PO Box,Clio,Plumas County,Area Code 530
2607,96107,Standard,Coleville,Mono County,Area Code 530
2608,96108,Standard,Davis Creek,Modoc County,Area Code 530
2609,96109,Standard,Doyle,Lassen County,Area Code 530
2610,96110,PO Box,Eagleville,Modoc County,Area Code 530
2611,96111,PO Box,Floriston,Sierra County,Area Code 530
2612,96112,Standard,Fort Bidwell,Modoc County,Area Code 530
2613,96113,PO Box,Herlong,Lassen County,Area Code 530
2614,96114,Standard,Janesville,Lassen County,Area Code 530
2615,96115,Standard,Lake City,Modoc County,Area Code 530
2616,96116,PO Box,Likely,Modoc County,Area Code 530
2617,96117,Standard,Litchfield,Lassen County,Area Code 530
2618,96118,Standard,Loyalton,Sierra County,Area Code 530
2619,96119,PO Box,Madeline,Lassen County,Area Code 530
2620,96120,Standard,"Markleeville, Hope Valley",Alpine County,Area Code 530
2621,96121,Standard,Milford,Lassen County,Area Code 530
2622,96122,Standard,Portola,Plumas County,Area Code 530
2623,96123,Standard,Ravendale,Lassen County,Area Code 530
2624,96124,Standard,"Calpine, Sattley",Sierra County,Area Code 530
2625,96125,Standard,Sierra City,Sierra County,Area Code 530
2626,96126,PO Box,Sierraville,Sierra County,Area Code 530
2627,96127,PO Box,Susanville,Lassen County,Area Code 530
2628,96128,Standard,Standish,Lassen County,Area Code 530
2629,96129,Standard,"Beckwourth, Portola",Plumas County,Area Code 530
2630,96130,Standard,Susanville,Lassen County,Area Code 530
2631,96132,Standard,Termo,Lassen County,Area Code 530
2632,96133,Standard,Topaz,Mono County,
2633,96134,Standard,"Tulelake, Newell, Tionesta",Siskiyou County,Area Code 530
2634,96135,PO Box,Vinton,Plumas County,Area Code 530
2635,96136,Standard,Wendel,Lassen County,Area Code 530
2636,96137,Standard,"Westwood, Lake Almanor",Lassen County,Area Code 530
2637,96140,PO Box,Carnelian Bay,Placer County,
2638,96141,PO Box,Homewood,Placer County,
2639,96142,PO Box,Tahoma,El Dorado County,
2640,96143,PO Box,Kings Beach,Placer County,
2641,96145,PO Box,"Tahoe City, Alpine Mdws, Alpine Meadows",Placer County,
2642,96146,Standard,"Olympic Valley, Alpine Mdws, Alpine Meadows, Olympic Vly...",Placer County,Area Code 530
2643,96148,PO Box,Tahoe Vista,Placer County,
2644,96150,Standard,"South Lake Tahoe, S Lake Tahoe",El Dorado County,Area Code 530
2645,96151,PO Box,"South Lake Tahoe, Fallen Leaf, S Lake Tahoe",El Dorado County,Area Code 530
2646,96152,PO Box,"South Lake Tahoe, S Lake Tahoe",El Dorado County,Area Code 530
2647,96154,PO Box,"South Lake Tahoe, S Lake Tahoe",El Dorado County,Area Code 530
2648,96155,PO Box,"South Lake Tahoe, S Lake Tahoe",El Dorado County,Area Code 530
2649,96156,PO Box,"South Lake Tahoe, S Lake Tahoe",Alpine County,Area Code 530
2650,96157,PO Box,"South Lake Tahoe, S Lake Tahoe",El Dorado County,Area Code 530
2651,96158,PO Box,"South Lake Tahoe, S Lake Tahoe",El Dorado County,Area Code 530
2652,96160,PO Box,Truckee,Nevada County,Area Code 530
2653,96161,Standard,"Truckee, Northstar",Nevada County,Area Code 530
2654,96162,PO Box,Truckee,Placer County,Area Code 530
